station,valid,lon,lat,elevation,tmpf,dwpf,relh,drct,sknt,p01i,alti,mslp,vsby,gust,skyc1,skyc2,skyc3,skyc4,skyl1,skyl2,skyl3,skyl4,wxcodes,ice_accretion_1hr,ice_accretion_3hr,ice_accretion_6hr,peak_wind_gust,peak_wind_drct,peak_wind_time,feel,metar
CWWS,2020-02-12 00:00,-97.6164,52.8186,223.00,1.40,-3.30,80.13,M,M,0.00,M,1009.80,M,M,M,M,M,M,M,M,M,M,M,M,M,M,M,M,M,M,CWWS 120000Z AUTO M17/M20 RMK AO1 32 PRESRR SOG 01 3063 SLP098 T11701196 50008
CXMD,2020-02-12 00:00,-98.0839,49.1878,301.00,29.70,21.20,70.24,230.00,8.00,0.00,M,1003.80,M,M,M,M,M,M,M,M,M,M,M,M,M,M,19.00,250.00,2020-02-11 23:25,21.28,CXMD 120000Z AUTO 23008KT M01/M06 RMK AO1 SOG 08 6021 PK WND 25019/2325 SLP038 T10131060
CYWG,2020-02-12 00:00,-97.2333,49.9167,239.00,26.60,19.40,73.89,200.00,11.00,0.00,29.60,1004.10,15.00,17.00,OVC,M,M,M,12000.00,M,M,M,DRSN,M,M,M,M,M,M,15.64,CYWG 120000Z 20011G17KT 15SM DRSN OVC120 M03/M07 A2960 RMK AC8 SLP041
CWCF,2020-02-12 00:00,-97.0219,52.3597,222.00,9.50,2.70,73.37,360.00,11.00,0.00,M,1006.60,M,17.00,M,M,M,M,M,M,M,M,M,M,M,M,20.00,0.00,2020-02-11 23:19,-5.97,CWCF 120000Z AUTO 36011G17KT M13/M16 RMK AO1 PRESRR SOG 27 3046 PK WND 00020/2319 SLP066 T11251163 50004
CWEQ,2020-02-12 00:00,-101.2331,52.1150,335.00,11.80,8.20,85.14,40.00,19.00,0.00,M,1009.60,M,26.00,M,M,M,M,M,M,M,M,M,M,M,M,33.00,30.00,2020-02-11 23:22,-7.28,CWEQ 120000Z AUTO 04019G26KT M11/M13 RMK AO1 PRESRR SOG 06 3061 PK WND 03033/2322 SLP096 T11121132
CWGX,2020-02-12 00:00,-94.7000,56.3667,145.00,-27.40,-36.20,61.51,350.00,11.00,0.00,M,1015.00,M,M,M,M,M,M,M,M,M,M,M,M,M,M,20.00,350.00,2020-02-11 23:10,-52.60,CWGX 120000Z AUTO 35011KT M33/M38 RMK AO1 SOG 32 3039 PK WND 35020/2310 SLP150 T13301379 50002
CWII,2020-02-12 00:00,-96.5622,50.6951,220.00,25.20,19.20,77.64,230.00,7.00,0.00,M,1003.90,M,M,M,M,M,M,M,M,M,M,M,M,M,M,M,M,M,16.49,CWII 120000Z AUTO 23007KT M04/M07 RMK AO1 SLP039 T10381071 53003
CWJD,2020-02-12 00:00,-99.2678,53.1864,223.00,0.50,-9.90,60.68,20.00,9.00,0.00,M,1012.70,M,15.00,M,M,M,M,M,M,M,M,M,M,M,M,19.00,30.00,2020-02-11 23:12,-15.65,CWJD 120000Z AUTO 02009G15KT M18/M23 RMK AO1 PRESRR SOG 45 3065 PK WND 03019/2312 SLP127 T11751233
CWNK,2020-02-12 00:00,-98.0297,49.4981,268.00,28.40,22.30,77.60,M,M,0.00,M,M,M,M,M,M,M,M,M,M,M,M,M,M,M,M,M,M,M,M,CWNK 120000Z AUTO M02/M05 RMK AO1 18 T10201054
CWPO,2020-02-12 00:00,-98.9050,49.1911,470.00,27.10,21.00,77.48,220.00,11.00,0.00,M,1005.70,M,M,M,M,M,M,M,M,M,M,M,M,M,M,M,M,M,16.27,CWPO 120000Z AUTO 22011KT M03/M06 RMK AO1 SOG 18 6019 SLP057 T10271061
CXGH,2020-02-12 00:00,-96.9822,50.6311,217.00,27.30,18.00,67.60,270.00,5.00,0.00,M,1002.20,M,M,M,M,M,M,M,M,M,M,M,M,M,M,M,M,M,20.81,CXGH 120000Z AUTO 27005KT M03/M08 RMK AO1 SLP022 T10261078 53003
CXWN,2020-02-12 00:00,-97.1296,49.8885,230.00,26.80,20.10,75.50,200.00,6.00,0.00,M,1003.90,M,M,M,M,M,M,M,M,M,M,M,M,M,M,M,M,M,19.27,CXWN 120000Z AUTO 20006KT M03/M07 RMK AO1 SLP039 T10291066 55007
CYBR,2020-02-12 00:00,-99.9519,49.9100,409.00,26.60,19.40,73.89,280.00,9.00,0.00,29.55,1003.80,15.00,M,OVC,M,M,M,9200.00,M,M,M,M,M,M,M,M,M,M,16.80,CYBR 120000Z 28009KT 15SM OVC092 M03/M07 A2955 RMK AC8 SLP038
CYDN,2020-02-12 00:00,-100.0525,51.1008,305.00,28.40,19.40,68.61,340.00,6.00,0.00,29.60,1004.40,9.00,M,OVC,M,M,M,3600.00,M,M,M,M,M,M,M,M,M,M,21.19,CYDN 120000Z AUTO 34006KT 290V360 9SM OVC036 M02/M07 A2960 RMK SLP044
CYFO,2020-02-12 00:00,-101.6817,54.6781,304.00,-11.20,-22.00,57.64,10.00,10.00,0.00,29.95,1017.30,15.00,16.00,FEW,M,M,M,22000.00,M,M,M,DRSN,M,M,M,M,M,M,-31.21,CYFO 120000Z 01010G16KT 15SM DRSN FEW220 M24/M30 A2995 RMK CI2 LAST OBS/NEXT 121200UTC SLP173
CYIV,2020-02-12 00:00,-94.6537,53.8571,237.00,-13.00,-20.20,69.27,360.00,16.00,0.00,29.74,1009.60,6.00,23.00,FEW,M,M,M,1000.00,M,M,M,DRSN,M,M,M,M,M,M,-38.24,CYIV 120000Z 36016G23KT 6SM DRSN FEW010 M25/M29 A2974 RMK SC2 PRESRR SLP096
CYNE,2020-02-12 00:00,-97.8442,53.9583,223.00,-9.40,-18.40,63.59,10.00,11.00,0.00,29.84,1012.90,9.00,22.00,FEW,M,M,M,1700.00,M,M,M,M,M,M,M,M,M,M,-29.85,CYNE 120000Z AUTO 01011G22KT 9SM FEW017 M23/M28 A2984 RMK PRESRR SLP129
CYQD,2020-02-12 00:00,-101.0911,53.9714,271.00,-7.60,-18.40,58.23,360.00,10.00,0.00,29.91,1015.50,9.00,19.00,FEW,M,M,M,20000.00,M,M,M,M,M,M,M,M,M,M,-26.69,CYQD 120000Z AUTO 36010G19KT 9SM FEW200 M22/M28 A2991 RMK PRESRR SLP155
CYTH,2020-02-12 00:00,-97.8642,55.8011,218.00,-23.80,-32.80,61.39,340.00,9.00,0.00,29.96,1017.70,12.00,15.00,FEW,M,M,M,2000.00,M,M,M,IC DRSN,M,M,M,M,M,M,-45.87,CYTH 120000Z 34009G15KT 12SM IC DRSN FEW020 M31/M36 A2996 RMK SC1 SLP177
CYYL,2020-02-12 00:00,-101.0761,56.8639,357.00,-27.40,-34.60,67.31,330.00,8.00,0.00,30.03,1022.20,9.00,17.00,CLR,M,M,M,M,M,M,M,M,M,M,M,M,M,M,-49.06,CYYL 120000Z AUTO 33008G17KT 9SM CLR M33/M37 A3003 RMK SLP222
CYYQ,2020-02-12 00:00,-94.0650,58.7392,29.00,-29.20,-36.40,67.05,340.00,24.00,0.00,29.96,1015.30,0.75,30.00,VV ,M,M,M,800.00,M,M,M,IC BLSN,M,M,M,M,M,M,-64.51,CYYQ 120000Z 34024G30KT 3/4SM IC BLSN VV008 M34/M38 A2996 RMK BLSN8 VIS VRB 1/2-1 SLP153
CZKD,2020-02-12 00:00,-96.5097,56.0375,183.00,-24.30,-31.20,68.87,340.00,9.00,0.01,M,1015.50,M,16.00,M,M,M,M,M,M,M,M,M,M,M,M,20.00,350.00,2020-02-11 23:19,-46.49,CZKD 120000Z AUTO 34009G16KT M31/M35 RMK AO1 2PAST HR SOG 51 3044 PK WND 35020/2319 SLP155 P0001 T13131351 50002
CYGX,2020-02-12 00:00,-94.7106,56.3575,145.00,-27.40,-36.40,60.82,340.00,11.00,0.00,29.90,1015.00,15.00,M,FEW,M,M,M,2800.00,M,M,M,M,M,M,M,M,M,M,-52.60,CYGX 120000Z 34011KT 15SM FEW028 M33/M38 A2990 RMK SC2 SLP150
CYBQ,2020-02-12 00:00,-98.5122,58.7061,281.00,-34.60,-43.60,59.63,320.00,9.00,0.00,30.00,1021.20,9.00,15.00,CLR,M,M,M,M,M,M,M,M,M,M,M,M,M,M,-59.30,CYBQ 120000Z AUTO 32009G15KT 9SM CLR M37/M42 A3000 RMK SLP212
CYDN,2020-02-12 00:08,-100.0525,51.1008,305.00,26.60,19.40,73.89,20.00,11.00,0.00,29.61,1004.60,8.00,M,OVC,M,M,M,3600.00,M,M,M,-SN,M,M,M,M,M,M,15.64,CYDN 120008Z AUTO 02011KT 320V030 8SM -SN OVC036 M03/M07 A2961 RMK PRESRR SLP046
CYDN,2020-02-12 00:14,-100.0525,51.1008,305.00,26.60,21.20,79.77,10.00,12.00,0.00,29.61,1004.80,5.00,M,OVC,M,M,M,3200.00,M,M,M,-SN,M,M,M,M,M,M,15.13,CYDN 120014Z AUTO 01012KT 5SM -SN OVC032 M03/M06 A2961 RMK PRESRR SLP048
CYDN,2020-02-12 00:26,-100.0525,51.1008,305.00,26.60,23.00,86.07,20.00,22.00,0.00,29.63,1005.30,3.00,M,FEW,OVC,M,M,1700.00,2400.00,M,M,-SN,M,M,M,M,M,M,11.35,CYDN 120026Z AUTO 02022KT 3SM -SN FEW017 OVC024 M03/M05 A2963 RMK PRESRR SLP053
CYDN,2020-02-12 00:27,-100.0525,51.1008,305.00,26.60,21.20,79.77,20.00,21.00,0.00,29.63,1005.30,2.00,26.00,FEW,OVC,M,M,1700.00,2400.00,M,M,-SN,M,M,M,M,M,M,11.65,CYDN 120027Z AUTO 02021G26KT 2SM -SN FEW017 OVC024 M03/M06 A2963 RMK PRESRR SLP053
CYDN,2020-02-12 00:35,-100.0525,51.1008,305.00,23.00,19.40,85.85,10.00,22.00,0.00,29.64,1005.80,1.00,M,OVC,M,M,M,1600.00,M,M,M,-SN,M,M,M,M,M,M,6.53,CYDN 120035Z AUTO 01022KT 1SM -SN OVC016 M05/M07 A2964 RMK PRESRR SLP058
CYIV,2020-02-12 00:43,-94.6537,53.8571,237.00,-14.80,-22.00,69.03,350.00,13.00,0.00,29.77,1010.80,3.00,18.00,FEW,M,M,M,1000.00,M,M,M,-SN DRSN,M,M,M,M,M,M,-38.39,CYIV 120043Z 35013G18KT 3SM -SN DRSN FEW010 M26/M30 A2977 RMK SC2 PRESRR SLP108
CWWS,2020-02-12 01:00,-97.6164,52.8186,223.00,-4.20,-9.80,76.18,M,M,0.00,M,1012.10,M,M,M,M,M,M,M,M,M,M,M,M,M,M,M,M,M,M,CWWS 120100Z AUTO M20/M23 RMK AO1 32 0003Z PRESRR SOG 01 3066 SLP121 T12011232
CXMD,2020-02-12 01:00,-98.0839,49.1878,301.00,29.10,21.60,73.21,250.00,6.00,0.00,M,1003.60,M,M,M,M,M,M,M,M,M,M,M,M,M,M,M,M,M,22.04,CXMD 120100Z AUTO 25006KT M02/M06 RMK AO1 SOG 08 6012 SLP036 T10161058
CYWG,2020-02-12 01:00,-97.2333,49.9167,239.00,24.80,19.40,79.62,190.00,9.00,0.00,29.59,1003.80,15.00,M,OVC,M,M,M,9000.00,M,M,M,DRSN,M,M,M,M,M,M,14.56,CYWG 120100Z 19009KT 15SM DRSN OVC090 M04/M07 A2959 RMK AC8 VIRGA ALQDS SLP038
CWCF,2020-02-12 01:00,-97.0219,52.3597,222.00,3.90,-3.80,69.68,10.00,12.00,0.00,M,1008.90,M,19.00,M,M,M,M,M,M,M,M,M,M,M,M,19.00,350.00,2020-02-12 00:49,-13.76,CWCF 120100Z AUTO 01012G19KT M16/M20 RMK AO1 PRESRR SOG 27 1065 PK WND 35019/0049 SLP089 T11561199
CWEQ,2020-02-12 01:00,-101.2331,52.1150,335.00,8.40,3.90,81.47,40.00,19.00,0.00,M,1011.60,M,24.00,M,M,M,M,M,M,M,M,M,M,M,M,25.00,40.00,2020-02-12 00:19,-11.77,CWEQ 120100Z AUTO 04019G24KT M13/M16 RMK AO1 SOG 06 1070 PK WND 04025/0019 SLP116 T11311156
CWGX,2020-02-12 01:00,-94.7000,56.3667,145.00,-28.80,-37.80,60.59,360.00,11.00,0.00,M,1016.40,M,M,M,M,M,M,M,M,M,M,M,M,M,M,17.00,350.00,2020-02-12 00:25,-54.37,CWGX 120100Z AUTO 36011KT M34/M39 RMK AO1 SOG 32 1041 PK WND 35017/0025 SLP164 T13381388
CWII,2020-02-12 01:00,-96.5622,50.6951,220.00,24.60,18.90,78.59,250.00,7.00,0.00,M,1004.30,M,M,M,M,M,M,M,M,M,M,M,M,M,M,M,M,M,15.76,CWII 120100Z AUTO 25007KT M04/M07 RMK AO1 SLP043 T10411073 53010
CWJD,2020-02-12 01:00,-99.2678,53.1864,223.00,-5.40,-14.80,62.89,10.00,6.00,0.00,M,1015.10,M,M,M,M,M,M,M,M,M,M,M,M,M,M,M,M,M,-19.51,CWJD 120100Z AUTO 01006KT M21/M26 RMK AO1 PRESRR SOG 45 3070 SLP151 T12081260
CWNK,2020-02-12 01:00,-98.0297,49.4981,268.00,28.90,22.60,77.00,M,M,0.00,M,M,M,M,M,M,M,M,M,M,M,M,M,M,M,M,M,M,M,M,CWNK 120100Z AUTO M02/M05 RMK AO1 T10171052
CWPO,2020-02-12 01:00,-98.9050,49.1911,470.00,26.20,21.70,82.84,230.00,5.00,0.00,M,1005.90,M,M,M,M,M,M,M,M,M,M,M,M,M,M,M,M,M,19.51,CWPO 120100Z AUTO 23005KT M03/M06 RMK AO1 SOG 17 5011 SLP059 T10321057
CXGH,2020-02-12 01:00,-96.9822,50.6311,217.00,27.10,18.30,69.05,290.00,4.00,0.00,M,1002.40,M,M,M,M,M,M,M,M,M,M,M,M,M,M,M,M,M,21.70,CXGH 120100Z AUTO 29004KT M03/M08 RMK AO1 SLP024 T10271076 52009
CXWN,2020-02-12 01:00,-97.1296,49.8885,230.00,26.60,19.90,75.48,210.00,4.00,0.00,M,1003.90,M,M,M,M,M,M,M,M,M,M,M,M,M,M,M,M,M,21.11,CXWN 120100Z AUTO 21004KT M03/M07 RMK AO1 SLP039 T10301067 56001
CYBR,2020-02-12 01:00,-99.9519,49.9100,409.00,24.80,19.40,79.62,310.00,8.00,0.00,29.57,1004.60,15.00,M,OVC,M,M,M,7100.00,M,M,M,M,M,M,M,M,M,M,15.24,CYBR 120100Z 31008KT 15SM OVC071 M04/M07 A2957 RMK AC8 SLP046
CYDN,2020-02-12 01:00,-100.0525,51.1008,305.00,17.60,15.80,92.50,20.00,31.00,0.00,29.67,1006.90,0.50,M,VV ,M,M,M,1200.00,M,M,M,-SN,M,M,M,M,M,M,-3.38,CYDN 120100Z AUTO 02031KT 1/2SM -SN VV012 M08/M09 A2967 RMK PRESRR SLP069
CYIV,2020-02-12 01:00,-94.6537,53.8571,237.00,-14.80,-22.00,69.03,350.00,17.00,0.00,29.79,1011.30,6.00,25.00,FEW,M,M,M,1000.00,M,M,M,-SN DRSN,M,M,M,M,M,M,-41.24,CYIV 120100Z 35017G25KT 6SM -SN DRSN FEW010 M26/M30 A2979 RMK SC2 PRESRR SLP113
CYNE,2020-02-12 01:00,-97.8442,53.9583,223.00,-13.00,-22.00,63.05,360.00,9.00,0.00,29.89,1014.80,9.00,17.00,CLR,M,M,M,M,M,M,M,M,M,M,M,M,M,M,-32.44,CYNE 120100Z AUTO 36009G17KT 9SM CLR M25/M30 A2989 RMK SLP148
CYQD,2020-02-12 01:00,-101.0911,53.9714,271.00,-9.40,-20.20,57.94,360.00,12.00,0.00,29.98,1017.80,9.00,19.00,CLR,M,M,M,M,M,M,M,M,M,M,M,M,M,M,-30.69,CYQD 120100Z AUTO 36012G19KT 9SM CLR M23/M29 A2998 RMK PRESRR SLP178
CYTH,2020-02-12 01:00,-97.8642,55.8011,218.00,-25.60,-34.60,61.10,330.00,8.00,0.00,30.00,1019.10,15.00,M,CLR,M,M,M,M,M,M,M,IC,M,M,M,M,M,M,-46.84,CYTH 120100Z 33008KT 15SM IC SKC M32/M37 A3000 RMK SLP191
CYYL,2020-02-12 01:00,-101.0761,56.8639,357.00,-27.40,-34.60,67.31,320.00,8.00,0.00,30.06,1023.40,9.00,M,CLR,M,M,M,M,M,M,M,M,M,M,M,M,M,M,-49.06,CYYL 120100Z AUTO 32008KT 9SM CLR M33/M37 A3006 RMK SLP234
CYYQ,2020-02-12 01:00,-94.0650,58.7392,29.00,-31.00,-36.40,73.99,330.00,18.00,0.00,29.99,1016.10,1.00,24.00,VV ,M,M,M,700.00,M,M,M,IC BLSN,M,M,M,M,M,M,-63.18,CYYQ 120100Z 33018G24KT 1SM IC BLSN VV007 M35/M38 A2999 RMK BLSN8 SLP161
CYGX,2020-02-12 01:00,-94.7106,56.3575,145.00,-29.20,-36.40,67.05,340.00,10.00,0.00,29.94,1016.30,15.00,16.00,FEW,M,M,M,2800.00,M,M,M,M,M,M,M,M,M,M,-53.78,CYGX 120100Z 34010G16KT 15SM FEW028 M34/M38 A2994 RMK SC1 SLP163
CYBQ,2020-02-12 01:00,-98.5122,58.7061,281.00,-34.60,-43.60,59.63,330.00,11.00,0.00,30.01,1021.60,9.00,17.00,CLR,M,M,M,M,M,M,M,M,M,M,M,M,M,M,-61.70,CYBQ 120100Z AUTO 33011G17KT 9SM CLR M37/M42 A3001 RMK SLP216
CYDN,2020-02-12 01:38,-100.0525,51.1008,305.00,14.00,12.20,92.38,30.00,24.00,0.00,29.74,1009.30,0.62,30.00,VV ,M,M,M,1000.00,M,M,M,-SN,M,M,M,M,M,M,-6.22,CYDN 120138Z AUTO 03024G30KT 5/8SM -SN VV010 M10/M11 A2974 RMK PRESRR SLP093
CWWS,2020-02-12 02:00,-97.6164,52.8186,223.00,-7.10,-12.50,76.64,M,M,0.00,M,1014.00,M,M,M,M,M,M,M,M,M,M,M,M,M,M,M,M,M,M,CWWS 120200Z AUTO M22/M25 RMK AO1 27 0123Z SOG 01 1063 SLP140 T12171247
CXMD,2020-02-12 02:00,-98.0839,49.1878,301.00,29.50,22.30,74.19,260.00,7.00,0.00,M,1003.70,M,M,M,M,M,M,M,M,M,M,M,M,M,M,M,M,M,21.73,CXMD 120200Z AUTO 26007KT M01/M05 RMK AO1 SOG 08 5006 SLP037 T10141054
CWCF,2020-02-12 02:00,-97.0219,52.3597,222.00,-2.70,-11.00,66.84,360.00,10.00,0.01,M,1011.60,M,17.00,M,M,M,M,M,M,M,M,M,M,M,M,20.00,10.00,2020-02-12 01:40,-20.55,CWCF 120200Z AUTO 36010G17KT M19/M24 RMK AO1 2PAST HR PRESRR SOG 27 3067 PK WND 01020/0140 SLP116 P0001 T11931239 50002
CWEQ,2020-02-12 02:00,-101.2331,52.1150,335.00,2.30,-3.30,76.84,40.00,20.00,0.00,M,1014.00,M,26.00,M,M,M,M,M,M,M,M,M,M,M,M,27.00,50.00,2020-02-12 01:35,-20.31,CWEQ 120200Z AUTO 04020G26KT M17/M20 RMK AO1 PRESRR SOG 07 1067 PK WND 05027/0135 SLP140 T11651196
CWGX,2020-02-12 02:00,-94.7000,56.3667,145.00,-29.60,-38.40,61.15,340.00,10.00,0.00,M,1017.30,M,M,M,M,M,M,M,M,M,M,M,M,M,M,M,M,M,-54.28,CWGX 120200Z AUTO 34010KT M34/M39 RMK AO1 SOG 32 1035 SLP173 T13421391
CWII,2020-02-12 02:00,-96.5622,50.6951,220.00,22.30,19.90,90.33,320.00,9.00,0.00,M,1005.60,M,23.00,M,M,M,M,M,M,M,M,M,M,M,M,23.00,350.00,2020-02-12 01:59,11.45,CWII 120200Z AUTO 32009G23KT M05/M07 RMK AO1 PK WND 35023/0159 SLP056 T10541067 53019
CWJD,2020-02-12 02:00,-99.2678,53.1864,223.00,-9.00,-18.80,61.08,10.00,6.00,0.00,M,1017.60,M,M,M,M,M,M,M,M,M,M,M,M,M,M,18.00,10.00,2020-02-12 01:48,-23.85,CWJD 120200Z AUTO 01006KT M23/M28 RMK AO1 PRESRR SOG 45 1075 PK WND 01018/0148 SLP176 T12281282
CWNK,2020-02-12 02:00,-98.0297,49.4981,268.00,31.10,23.40,72.81,M,M,0.00,M,M,M,M,M,M,M,M,M,M,M,M,M,M,M,M,M,M,M,M,CWNK 120200Z AUTO M01/M05 RMK AO1 T10051048
CWPO,2020-02-12 02:00,-98.9050,49.1911,470.00,26.20,22.60,86.04,250.00,4.00,0.00,M,1005.80,M,M,M,M,M,M,M,M,M,M,M,M,M,M,M,M,M,20.65,CWPO 120200Z AUTO 25004KT M03/M05 RMK AO1 SOG 18 6003 SLP058 T10321052
CXGH,2020-02-12 02:00,-96.9822,50.6311,217.00,23.00,19.80,87.33,350.00,9.00,0.00,M,1003.90,M,27.00,M,M,M,M,M,M,M,M,M,M,M,M,27.00,0.00,2020-02-12 01:59,12.32,CXGH 120200Z AUTO 35009G27KT M05/M07 RMK AO1 PK WND 00027/0159 SLP039 T10501068 53021
CXWN,2020-02-12 02:00,-97.1296,49.8885,230.00,26.60,20.10,76.13,210.00,4.00,0.00,M,1004.50,M,M,M,M,M,M,M,M,M,M,M,M,M,M,M,M,M,21.11,CXWN 120200Z AUTO 21004KT M03/M07 RMK AO1 SLP045 T10301066 53008
CYBR,2020-02-12 02:00,-99.9519,49.9100,409.00,24.80,19.40,79.62,330.00,10.00,0.00,29.60,1005.40,15.00,M,OVC,M,M,M,3900.00,M,M,M,M,M,M,M,M,M,M,13.94,CYBR 120200Z 33010KT 15SM OVC039 M04/M07 A2960 RMK SC8 SLP054
CYDN,2020-02-12 02:00,-100.0525,51.1008,305.00,12.20,10.40,92.32,40.00,23.00,0.00,29.77,1010.30,0.75,28.00,VV ,M,M,M,1000.00,M,M,M,-SN BLSN,M,M,M,M,M,M,-8.30,CYDN 120200Z AUTO 04023G28KT 3/4SM -SN BLSN VV010 M11/M12 A2977 RMK PRESRR SLP103
CYIV,2020-02-12 02:00,-94.6537,53.8571,237.00,-18.40,-27.40,62.24,350.00,16.00,0.00,29.85,1013.60,6.00,24.00,FEW,M,M,M,1000.00,M,M,M,BLSN,M,M,M,M,M,M,-45.27,CYIV 120200Z 35016G24KT 6SM BLSN FEW010 M28/M33 A2985 RMK SC1 PRESRR SLP136
CYNE,2020-02-12 02:00,-97.8442,53.9583,223.00,-16.60,-25.60,62.51,360.00,10.00,0.00,29.95,1016.90,9.00,16.00,CLR,M,M,M,M,M,M,M,M,M,M,M,M,M,M,-37.98,CYNE 120200Z AUTO 36010G16KT 330V040 9SM CLR M27/M32 A2995 RMK PRESRR SLP169
CYQD,2020-02-12 02:00,-101.0911,53.9714,271.00,-13.00,-22.00,63.05,350.00,8.00,0.00,30.03,1019.90,9.00,M,CLR,M,M,M,M,M,M,M,M,M,M,M,M,M,M,-31.32,CYQD 120200Z AUTO 35008KT 9SM CLR M25/M30 A3003 RMK PRESRR SLP199
CYTH,2020-02-12 02:00,-97.8642,55.8011,218.00,-25.60,-34.60,61.10,330.00,7.00,0.00,30.04,1020.50,15.00,M,CLR,M,M,M,M,M,M,M,IC DRSN,M,M,M,M,M,M,-45.43,CYTH 120200Z 33007KT 15SM IC DRSN SKC M32/M37 A3004 RMK SLP205
CYYL,2020-02-12 02:00,-101.0761,56.8639,357.00,-27.40,-34.60,67.31,330.00,12.00,0.00,30.09,1024.60,9.00,18.00,CLR,M,M,M,M,M,M,M,M,M,M,M,M,M,M,-53.60,CYYL 120200Z AUTO 33012G18KT 9SM CLR M33/M37 A3009 RMK SLP246
CYYQ,2020-02-12 02:00,-94.0650,58.7392,29.00,-29.20,-36.40,67.05,330.00,19.00,0.00,30.00,1016.40,1.00,26.00,OVC,M,M,M,800.00,M,M,M,IC BLSN,M,M,M,M,M,M,-61.49,CYYQ 120200Z 33019G26KT 1SM IC BLSN OVC008 M34/M38 A3000 RMK SC8 SLP164
CYGX,2020-02-12 02:00,-94.7106,56.3575,145.00,-31.00,-38.20,66.79,330.00,9.00,0.00,29.96,1017.20,15.00,M,CLR,M,M,M,M,M,M,M,M,M,M,M,M,M,M,-54.82,CYGX 120200Z 33009KT 15SM SKC M35/M39 A2996 RMK SLP172
CYBQ,2020-02-12 02:00,-98.5122,58.7061,281.00,-34.60,-41.80,66.26,320.00,13.00,0.00,30.02,1022.00,9.00,20.00,CLR,M,M,M,M,M,M,M,M,M,M,M,M,M,M,-63.75,CYBQ 120200Z AUTO 32013G20KT 9SM CLR M37/M41 A3002 RMK SLP220
CYWG,2020-02-12 02:05,-97.2333,49.9167,239.00,24.80,19.40,79.62,200.00,7.00,0.00,29.61,1004.50,15.00,M,OVC,M,M,M,5200.00,M,M,M,-SN DRSN,M,M,M,M,M,M,16.00,CYWG 120205Z 20007KT 15SM -SN DRSN OVC052 M04/M07 A2961 RMK SC8 SLP045
CYBR,2020-02-12 02:08,-99.9519,49.9100,409.00,24.80,19.40,79.62,330.00,11.00,0.00,29.60,1005.40,15.00,M,OVC,M,M,M,2900.00,M,M,M,-SN,M,M,M,M,M,M,13.37,CYBR 120208Z 33011KT 15SM -SN OVC029 M04/M07 A2960 RMK SC8 SLP054
CYWG,2020-02-12 02:29,-97.2333,49.9167,239.00,24.80,19.40,79.62,210.00,5.00,0.00,29.61,1004.60,2.50,M,OVC,M,M,M,2300.00,M,M,M,-SN DRSN,M,M,M,M,M,M,17.84,CYWG 120229Z 21005KT 2 1/2SM -SN DRSN OVC023 M04/M07 A2961 RMK SN2SC6 SLP046
CYDN,2020-02-12 02:52,-100.0525,51.1008,305.00,10.40,6.80,85.05,30.00,22.00,0.00,29.82,1012.40,0.75,28.00,VV ,M,M,M,1000.00,M,M,M,-SN BLSN,M,M,M,M,M,M,-10.35,CYDN 120252Z AUTO 03022G28KT 3/4SM -SN BLSN VV010 M12/M14 A2982 RMK PRESRR SLP124
CYWG,2020-02-12 02:53,-97.2333,49.9167,239.00,24.80,21.20,85.96,220.00,3.00,0.00,29.61,1004.70,5.00,M,OVC,M,M,M,6100.00,M,M,M,-SN DRSN,M,M,M,M,M,M,20.46,CYWG 120253Z 22003KT 5SM -SN DRSN OVC061 M04/M06 A2961 RMK SC8 SLP047
CWWS,2020-02-12 03:00,-97.6164,52.8186,223.00,-10.80,-16.40,75.48,M,M,0.00,M,1016.20,M,M,M,M,M,M,M,M,M,M,M,M,M,M,M,M,M,M,CWWS 120300Z AUTO M24/M27 RMK AO1 30 0245Z PRESRR SOG 01 1061 SLP162 T12381269
CXMD,2020-02-12 03:00,-98.0839,49.1878,301.00,29.10,24.40,82.36,290.00,5.00,0.00,M,1004.20,M,M,M,M,M,M,M,M,M,M,M,M,M,M,M,M,M,22.95,CXMD 120300Z AUTO 29005KT M02/M04 RMK AO1 SOG 08 3004 SLP042 T10161042
CYWG,2020-02-12 03:00,-97.2333,49.9167,239.00,24.80,21.20,85.96,240.00,2.00,0.00,29.62,1004.70,6.00,M,OVC,M,M,M,6900.00,M,M,M,-SN,M,M,M,M,M,M,M,CYWG 120300Z 24002KT 6SM -SN OVC069 M04/M06 A2962 RMK AC8 SLP047
CWCF,2020-02-12 03:00,-97.0219,52.3597,222.00,-6.00,-15.90,61.22,360.00,11.00,0.00,M,1013.50,M,19.00,M,M,M,M,M,M,M,M,M,M,M,M,23.00,20.00,2020-02-12 02:10,-25.56,CWCF 120300Z AUTO 36011G19KT M21/M27 RMK AO1 SOG 27 1065 PK WND 02023/0210 SLP135 T12111266 50002
CWEQ,2020-02-12 03:00,-101.2331,52.1150,335.00,-1.80,-10.50,65.65,40.00,18.00,0.00,M,1016.90,M,24.00,M,M,M,M,M,M,M,M,M,M,M,M,27.00,30.00,2020-02-12 02:21,-24.74,CWEQ 120300Z AUTO 04018G24KT M19/M24 RMK AO1 PRESRR SOG 06 3067 PK WND 03027/0221 SLP169 T11881236
CWGX,2020-02-12 03:00,-94.7000,56.3667,145.00,-29.60,-38.40,61.15,340.00,10.00,0.00,M,1018.40,M,M,M,M,M,M,M,M,M,M,M,M,M,M,M,M,M,-54.28,CWGX 120300Z AUTO 34010KT M34/M39 RMK AO1 SOG 32 1031 SLP184 T13421391
CWII,2020-02-12 03:00,-96.5622,50.6951,220.00,13.80,10.20,85.27,360.00,16.00,0.00,M,1007.40,M,26.00,M,M,M,M,M,M,M,M,M,M,M,M,28.00,340.00,2020-02-12 02:38,-3.30,CWII 120300Z AUTO 36016G26KT M10/M12 RMK AO1 PK WND 34028/0238 SLP074 T11011121 53033
CWJD,2020-02-12 03:00,-99.2678,53.1864,223.00,-12.30,-21.10,63.82,10.00,7.00,0.00,M,1019.70,M,15.00,M,M,M,M,M,M,M,M,M,M,M,M,17.00,350.00,2020-02-12 02:29,-29.22,CWJD 120300Z AUTO 01007G15KT M25/M30 RMK AO1 PRESRR SOG 45 1066 PK WND 35017/0229 SLP197 T12461295
CWNK,2020-02-12 03:00,-98.0297,49.4981,268.00,28.20,26.40,92.85,M,M,0.00,M,M,M,M,M,M,M,M,M,M,M,M,M,M,M,M,M,M,M,M,CWNK 120300Z AUTO M02/M03 RMK AO1 T10211031
CWPO,2020-02-12 03:00,-98.9050,49.1911,470.00,25.90,24.40,93.95,290.00,6.00,0.01,M,1006.20,M,M,M,M,M,M,M,M,M,M,M,M,M,M,M,M,M,18.18,CWPO 120300Z AUTO 29006KT M03/M04 RMK AO1 3PAST HR SOG 17 3005 SLP062 P0001 T10341042 50003
CXGH,2020-02-12 03:00,-96.9822,50.6311,217.00,12.20,7.50,81.04,360.00,19.00,0.00,M,1006.10,M,30.00,M,M,M,M,M,M,M,M,M,M,M,M,31.00,350.00,2020-02-12 02:39,-6.75,CXGH 120300Z AUTO 36019G30KT M11/M14 RMK AO1 PRESRR PK WND 35031/0239 SLP061 T11101136 53036
CXWN,2020-02-12 03:00,-97.1296,49.8885,230.00,25.50,21.60,84.92,220.00,1.00,T,M,1004.70,M,M,M,M,M,M,M,M,M,M,M,M,M,M,M,M,M,M,CXWN 120300Z AUTO 22001KT M04/M06 RMK AO1 1PAST HR 3007 SLP047 P0000 T10361058 50001
CYBR,2020-02-12 03:00,-99.9519,49.9100,409.00,24.80,21.20,85.96,10.00,9.00,0.00,29.63,1006.40,4.00,M,OVC,M,M,M,1900.00,M,M,M,-SN,M,M,M,M,M,M,14.56,CYBR 120300Z 01009KT 4SM -SN OVC019 M04/M06 A2963 RMK SC8 SLP064
CYDN,2020-02-12 03:00,-100.0525,51.1008,305.00,8.60,6.80,92.19,20.00,22.00,0.00,29.83,1012.70,1.00,M,VV ,M,M,M,1400.00,M,M,M,-SN BLSN,M,M,M,M,M,M,-12.76,CYDN 120300Z AUTO 02022KT 1SM -SN BLSN VV014 M13/M14 A2983 RMK PRESRR SLP127
CYIV,2020-02-12 03:00,-94.6537,53.8571,237.00,-22.00,-31.00,61.68,360.00,15.00,0.00,29.91,1015.60,6.00,M,FEW,M,M,M,1000.00,M,M,M,BLSN,M,M,M,M,M,M,-49.23,CYIV 120300Z 36015KT 6SM BLSN FEW010 M30/M35 A2991 RMK SC1 SLP156
CYNE,2020-02-12 03:00,-97.8442,53.9583,223.00,-20.20,-29.20,61.96,10.00,9.00,0.00,30.01,1019.10,9.00,16.00,CLR,M,M,M,M,M,M,M,M,M,M,M,M,M,M,-41.39,CYNE 120300Z AUTO 01009G16KT 9SM CLR M29/M34 A3001 RMK PRESRR SLP191
CYQD,2020-02-12 03:00,-101.0911,53.9714,271.00,-14.80,-23.80,62.78,350.00,10.00,0.00,30.10,1022.30,9.00,16.00,CLR,M,M,M,M,M,M,M,M,M,M,M,M,M,M,-35.72,CYQD 120300Z AUTO 35010G16KT 9SM CLR M26/M31 A3010 RMK PRESRR SLP223
CYTH,2020-02-12 03:00,-97.8642,55.8011,218.00,-27.40,-34.60,67.31,340.00,8.00,0.00,30.07,1021.70,15.00,M,CLR,M,M,M,M,M,M,M,IC DRSN,M,M,M,M,M,M,-49.06,CYTH 120300Z 34008KT 15SM IC DRSN SKC M33/M37 A3007 RMK SLP217
CYYL,2020-02-12 03:00,-101.0761,56.8639,357.00,-29.20,-34.60,74.20,330.00,11.00,0.00,30.13,1026.10,9.00,16.00,CLR,M,M,M,M,M,M,M,M,M,M,M,M,M,M,-54.87,CYYL 120300Z AUTO 33011G16KT 9SM CLR M34/M37 A3013 RMK SLP261
CYYQ,2020-02-12 03:00,-94.0650,58.7392,29.00,-31.00,-36.40,73.99,310.00,16.00,0.00,30.01,1017.00,1.00,24.00,VV ,M,M,M,700.00,M,M,M,IC BLSN,M,M,M,M,M,M,-61.70,CYYQ 120300Z 31016G24KT 1SM IC BLSN VV007 M35/M38 A3001 RMK BLSN8 SLP170
CYGX,2020-02-12 03:00,-94.7106,56.3575,145.00,-29.20,-38.20,60.52,320.00,11.00,0.00,29.99,1018.30,15.00,M,CLR,M,M,M,M,M,M,M,M,M,M,M,M,M,M,-54.87,CYGX 120300Z 32011KT 15SM SKC M34/M39 A2999 RMK SLP183
CYBQ,2020-02-12 03:00,-98.5122,58.7061,281.00,-32.80,-41.80,59.93,320.00,12.00,0.00,30.03,1022.40,9.00,18.00,CLR,M,M,M,M,M,M,M,M,M,M,M,M,M,M,-60.47,CYBQ 120300Z AUTO 32012G18KT 9SM CLR M36/M41 A3003 RMK SLP224
CYWG,2020-02-12 03:20,-97.2333,49.9167,239.00,23.00,21.20,92.69,350.00,6.00,0.00,29.63,1005.20,2.50,M,OVC,M,M,M,2500.00,M,M,M,-SN DRSN,M,M,M,M,M,M,14.69,CYWG 120320Z 35006KT 2 1/2SM -SN DRSN OVC025 M05/M06 A2963 RMK SN2SC6 SLP052
CYWG,2020-02-12 03:22,-97.2333,49.9167,239.00,24.80,21.20,85.96,350.00,7.00,0.00,29.63,1005.30,1.50,M,OVC,M,M,M,2200.00,M,M,M,-SN DRSN,M,M,M,M,M,M,16.00,CYWG 120322Z 35007KT 1 1/2SM -SN DRSN OVC022 M04/M06 A2963 RMK SN4SC4 SLP053
CYBR,2020-02-12 03:22,-99.9519,49.9100,409.00,15.80,12.20,85.40,50.00,30.00,0.00,29.66,1007.70,2.00,38.00,OVC,M,M,M,2400.00,M,M,M,-SN BLSN,M,M,M,M,M,M,-5.59,CYBR 120322Z 05030G38KT 2SM -SN BLSN OVC024 M09/M11 A2966 RMK SC8 PRESRR SLP077
CYDN,2020-02-12 03:27,-100.0525,51.1008,305.00,8.60,3.20,78.18,20.00,20.00,0.00,29.86,1013.70,1.25,26.00,OVC,M,M,M,2000.00,M,M,M,-SN,M,M,M,M,M,M,-11.94,CYDN 120327Z AUTO 02020G26KT 1 1/4SM -SN OVC020 M13/M16 A2986 RMK PRESRR SLP137
CYWG,2020-02-12 03:32,-97.2333,49.9167,239.00,17.60,14.00,85.51,20.00,27.00,0.00,29.65,1006.00,0.50,39.00,OVC,M,M,M,1700.00,M,M,M,-SN BLSN,M,M,M,M,M,M,-2.28,CYWG 120332Z 02027G39KT 1/2SM R31/2600VP6000FT/D R36/3000FT/N -SN BLSN OVC017 M08/M10 A2965 RMK SC8 PRESRR SLP060
CYDN,2020-02-12 03:47,-100.0525,51.1008,305.00,5.00,1.40,84.68,30.00,24.00,0.00,29.88,1014.30,1.25,29.00,OVC,M,M,M,2600.00,M,M,M,-SN BLSN,M,M,M,M,M,M,-18.37,CYDN 120347Z AUTO 03024G29KT 1 1/4SM -SN BLSN OVC026 M15/M17 A2988 RMK PRESRR SLP143
CYDN,2020-02-12 03:48,-100.0525,51.1008,305.00,5.00,1.40,84.68,30.00,23.00,0.00,29.88,1014.30,1.00,29.00,OVC,M,M,M,2600.00,M,M,M,-SN BLSN,M,M,M,M,M,M,-17.98,CYDN 120348Z AUTO 03023G29KT 1SM -SN BLSN OVC026 M15/M17 A2988 RMK PRESRR SLP143
CWWS,2020-02-12 04:00,-97.6164,52.8186,223.00,-13.70,-17.50,82.46,M,M,0.00,M,1017.70,M,M,M,M,M,M,M,M,M,M,M,M,M,M,M,M,M,M,CWWS 120400Z AUTO M25/M28 RMK AO1 32 0323Z SOG 01 1053 SLP177 T12541275
CXMD,2020-02-12 04:00,-98.0839,49.1878,301.00,28.00,26.20,92.85,320.00,5.00,0.01,M,1004.90,M,M,M,M,M,M,M,M,M,M,M,M,M,M,M,M,M,21.64,CXMD 120400Z AUTO 32005KT M02/M03 RMK AO1 2PAST HR SOG 08 3013 SLP049 P0001 T10221032 50002
CYWG,2020-02-12 04:00,-97.2333,49.9167,239.00,14.00,10.40,85.28,20.00,27.00,0.00,29.68,1006.90,0.50,35.00,OVC,M,M,M,1600.00,M,M,M,-SN BLSN,M,M,M,M,M,M,-7.19,CYWG 120400Z 02027G35KT 1/2SM R31/2200V3000FT/N R36/1600V2600FT/N -SN BLSN OVC016 M10/M12 A2968 RMK SC8 SLP069
CWCF,2020-02-12 04:00,-97.0219,52.3597,222.00,-9.20,-18.00,64.27,10.00,7.00,0.00,M,1015.50,M,M,M,M,M,M,M,M,M,M,M,M,M,M,20.00,330.00,2020-02-12 03:01,-25.44,CWCF 120400Z AUTO 01007KT M23/M28 RMK AO1 SOG 27 1062 PK WND 33020/0301 SLP155 T12291278 50002
CWEQ,2020-02-12 04:00,-101.2331,52.1150,335.00,-5.80,-15.00,63.47,40.00,19.00,0.00,M,1019.10,M,M,M,M,M,M,M,M,M,M,M,M,M,M,26.00,40.00,2020-02-12 03:41,-30.55,CWEQ 120400Z AUTO 04019KT M21/M26 RMK AO1 PRESRR SOG 06 2069 PK WND 04026/0341 SLP191 T12101261
CWGX,2020-02-12 04:00,-94.7000,56.3667,145.00,-30.80,-39.80,60.26,340.00,13.00,0.00,M,1019.40,M,M,M,M,M,M,M,M,M,M,M,M,M,M,18.00,350.00,2020-02-12 03:41,-58.89,CWGX 120400Z AUTO 34013KT M35/M40 RMK AO1 SOG 32 3028 PK WND 35018/0341 SLP194 T13491399
CWII,2020-02-12 04:00,-96.5622,50.6951,220.00,11.10,7.30,84.33,350.00,15.00,0.00,M,1009.20,M,24.00,M,M,M,M,M,M,M,M,M,M,M,M,29.00,350.00,2020-02-12 03:32,-6.31,CWII 120400Z AUTO 35015G24KT M12/M14 RMK AO1 PK WND 35029/0332 SLP092 T11161137 53045
CWJD,2020-02-12 04:00,-99.2678,53.1864,223.00,-13.90,-26.10,53.08,360.00,9.00,0.00,M,1021.60,M,16.00,M,M,M,M,M,M,M,M,M,M,M,M,M,M,M,-33.56,CWJD 120400Z AUTO 36009G16KT M26/M32 RMK AO1 SOG 45 1060 SLP216 T12551323
CWNK,2020-02-12 04:00,-98.0297,49.4981,268.00,25.00,21.70,87.07,M,M,0.02,M,M,M,M,M,M,M,M,M,M,M,M,M,M,M,M,M,M,M,M,CWNK 120400Z AUTO M04/M06 RMK AO1 4PAST HR M25 0358Z M P0002 T10391057 50004
CWPO,2020-02-12 04:00,-98.9050,49.1911,470.00,26.10,24.60,93.96,340.00,8.00,0.02,M,1006.80,M,M,M,M,M,M,M,M,M,M,M,M,M,M,M,M,M,16.85,CWPO 120400Z AUTO 34008KT M03/M04 RMK AO1 4PAST HR SOG 18 3011 SLP068 P0002 T10331041 50008
CXGH,2020-02-12 04:00,-96.9822,50.6311,217.00,8.20,2.50,77.06,360.00,19.00,0.00,M,1007.60,M,28.00,M,M,M,M,M,M,M,M,M,M,M,M,28.00,350.00,2020-02-12 03:55,-12.04,CXGH 120400Z AUTO 36019G28KT M13/M16 RMK AO1 PK WND 35028/0355 SLP076 T11321164 53049
CXWN,2020-02-12 04:00,-97.1296,49.8885,230.00,15.40,12.00,86.13,10.00,12.00,0.01,M,1007.30,M,23.00,M,M,M,M,M,M,M,M,M,M,M,M,23.00,0.00,2020-02-12 03:32,0.87,CXWN 120400Z AUTO 01012G23KT M09/M11 RMK AO1 3PAST HR PRESRR 3031 PK WND 00023/0332 SLP073 P0001 T10921111 50004
CYBR,2020-02-12 04:00,-99.9519,49.9100,409.00,12.20,6.80,78.51,50.00,22.00,0.00,29.70,1009.10,4.00,28.00,OVC,M,M,M,7100.00,M,M,M,-SN BLSN,M,M,M,M,M,M,-7.93,CYBR 120400Z 05022G28KT 4SM -SN BLSN OVC071 M11/M14 A2970 RMK AC8 /S01/ PRESRR SLP091
CYIV,2020-02-12 04:00,-94.6537,53.8571,237.00,-23.80,-32.80,61.39,360.00,16.00,0.00,29.94,1016.80,6.00,22.00,CLR,M,M,M,M,M,M,M,BLSN,M,M,M,M,M,M,-52.31,CYIV 120400Z 36016G22KT 6SM BLSN SKC M31/M36 A2994 RMK SLP168
CYNE,2020-02-12 04:00,-97.8442,53.9583,223.00,-22.00,-31.00,61.68,360.00,9.00,0.00,30.07,1021.10,9.00,15.00,CLR,M,M,M,M,M,M,M,M,M,M,M,M,M,M,-43.63,CYNE 120400Z AUTO 36009G15KT 330V040 9SM CLR M30/M35 A3007 RMK SLP211
CYQD,2020-02-12 04:00,-101.0911,53.9714,271.00,-18.40,-27.40,62.24,340.00,9.00,0.00,30.16,1024.20,9.00,15.00,CLR,M,M,M,M,M,M,M,M,M,M,M,M,M,M,-39.16,CYQD 120400Z AUTO 34009G15KT 9SM CLR M28/M33 A3016 RMK PRESRR SLP242
CYTH,2020-02-12 04:00,-97.8642,55.8011,218.00,-27.40,-36.40,60.82,320.00,9.00,0.00,30.10,1023.00,15.00,M,CLR,M,M,M,M,M,M,M,IC,M,M,M,M,M,M,-50.35,CYTH 120400Z 32009KT 15SM IC SKC M33/M38 A3010 RMK SLP230
CYYL,2020-02-12 04:00,-101.0761,56.8639,357.00,-29.20,-36.40,67.05,330.00,9.00,0.00,30.16,1027.10,9.00,17.00,CLR,M,M,M,M,M,M,M,M,M,M,M,M,M,M,-52.58,CYYL 120400Z AUTO 33009G17KT 9SM CLR M34/M38 A3016 RMK SLP271
CYYQ,2020-02-12 04:00,-94.0650,58.7392,29.00,-31.00,-36.40,73.99,310.00,16.00,0.00,30.02,1017.30,1.00,21.00,VV ,M,M,M,800.00,M,M,M,IC BLSN,M,M,M,M,M,M,-61.70,CYYQ 120400Z 31016G21KT 1SM IC BLSN VV008 M35/M38 A3002 RMK BLSN8 SLP173
CYGX,2020-02-12 04:00,-94.7106,56.3575,145.00,-31.00,-38.20,66.79,320.00,13.00,0.00,30.02,1019.30,15.00,M,CLR,M,M,M,M,M,M,M,M,M,M,M,M,M,M,-59.14,CYGX 120400Z 32013KT 15SM SKC M35/M39 A3002 RMK SLP193
CYBQ,2020-02-12 04:00,-98.5122,58.7061,281.00,-32.80,-40.00,66.53,320.00,12.00,0.00,30.06,1023.20,9.00,19.00,CLR,M,M,M,M,M,M,M,M,M,M,M,M,M,M,-60.47,CYBQ 120400Z AUTO 32012G19KT 9SM CLR M36/M40 A3006 RMK SLP232
CYDN,2020-02-12 04:02,-100.0525,51.1008,305.00,3.20,-0.40,84.56,40.00,21.00,0.00,29.90,1015.10,1.25,27.00,OVC,M,M,M,3800.00,M,M,M,-SN BLSN,M,M,M,M,M,M,-19.56,CYDN 120402Z AUTO 04021G27KT 1 1/4SM -SN BLSN OVC038 M16/M18 A2990 RMK VIS VRB 3/4-1 3/4 PRESRR SLP151
CYDN,2020-02-12 04:43,-100.0525,51.1008,305.00,1.40,-4.00,77.49,40.00,19.00,0.00,29.95,1016.90,1.50,M,FEW,BKN,OVC,M,1700.00,2300.00,2800.00,M,-SN,M,M,M,M,M,M,-21.03,CYDN 120443Z AUTO 04019KT 1 1/2SM -SN FEW017 BKN023 OVC028 M17/M20 A2995 RMK PRESRR SLP169
CYDN,2020-02-12 04:46,-100.0525,51.1008,305.00,1.40,-2.20,84.43,30.00,19.00,0.00,29.95,1017.00,1.00,24.00,BKN,OVC,M,M,1700.00,2800.00,M,M,-SN,M,M,M,M,M,M,-21.03,CYDN 120446Z AUTO 03019G24KT 1SM -SN BKN017 OVC028 M17/M19 A2995 RMK PRESRR SLP170
CYWG,2020-02-12 04:51,-97.2333,49.9167,239.00,10.40,5.00,78.35,20.00,25.00,0.00,29.72,1008.50,0.75,37.00,OVC,M,M,M,2000.00,M,M,M,-SN BLSN,M,M,M,M,M,M,-11.43,CYWG 120451Z 02025G37KT 3/4SM R31/3000V4500FT/U R36/3000VP6000FT/U -SN BLSN OVC020 M12/M15 A2972 RMK SC8 SLP085
CWWS,2020-02-12 05:00,-97.6164,52.8186,223.00,-17.90,-23.60,74.30,M,M,0.00,M,1020.20,M,M,M,M,M,M,M,M,M,M,M,M,M,M,M,M,M,M,CWWS 120500Z AUTO M28/M31 RMK AO1 32 0449Z PRESRR 3059 SLP202 T12771309
CXMD,2020-02-12 05:00,-98.0839,49.1878,301.00,14.90,11.70,86.87,360.00,18.00,0.02,M,1008.00,M,29.00,M,M,M,M,M,M,M,M,M,M,M,M,34.00,10.00,2020-02-12 04:37,-2.76,CXMD 120500Z AUTO 36018G29KT M10/M11 RMK AO1 4PAST HR PRESRR SOG 08 3040 PK WND 01034/0437 SLP080 P0002 T10951113 50007
CYWG,2020-02-12 05:00,-97.2333,49.9167,239.00,10.40,5.00,78.35,20.00,27.00,0.00,29.73,1008.70,0.75,35.00,OVC,M,M,M,2400.00,M,M,M,-SN BLSN,M,M,M,M,M,M,-12.10,CYWG 120500Z 02027G35KT 3/4SM R31/4000VP6000FT/D R36/4000VP6000FT/U -SN BLSN OVC024 M12/M15 A2973 RMK SC8 SLP087
CWCF,2020-02-12 05:00,-97.0219,52.3597,222.00,-13.00,-21.80,63.72,360.00,9.00,0.00,M,1017.60,M,16.00,M,M,M,M,M,M,M,M,M,M,M,M,19.00,340.00,2020-02-12 04:01,-32.44,CWCF 120500Z AUTO 36009G16KT M25/M30 RMK AO1 PRESRR SOG 27 3057 PK WND 34019/0401 SLP176 T12501299 50002
CWEQ,2020-02-12 05:00,-101.2331,52.1150,335.00,-9.20,-18.20,63.62,40.00,17.00,0.00,M,1021.20,M,M,M,M,M,M,M,M,M,M,M,M,M,M,27.00,30.00,2020-02-12 04:17,-33.90,CWEQ 120500Z AUTO 04017KT M23/M28 RMK AO1 SOG 06 1067 PK WND 03027/0417 SLP212 T12291279
CWGX,2020-02-12 05:00,-94.7000,56.3667,145.00,-32.60,-41.60,59.96,330.00,10.00,0.00,M,1020.60,M,15.00,M,M,M,M,M,M,M,M,M,M,M,M,19.00,340.00,2020-02-12 04:44,-58.04,CWGX 120500Z AUTO 33010G15KT M36/M41 RMK AO1 SOG 31 3031 PK WND 34019/0444 SLP206 T13591409
CWII,2020-02-12 05:00,-96.5622,50.6951,220.00,7.70,1.60,75.60,350.00,17.00,0.00,M,1011.00,M,25.00,M,M,M,M,M,M,M,M,M,M,M,M,28.00,350.00,2020-02-12 04:46,-11.76,CWII 120500Z AUTO 35017G25KT M14/M17 RMK AO1 PK WND 35028/0446 SLP110 T11351169 53050
CWJD,2020-02-12 05:00,-99.2678,53.1864,223.00,-18.40,-28.10,59.92,10.00,7.00,0.00,M,1023.50,M,M,M,M,M,M,M,M,M,M,M,M,M,M,M,M,M,-36.65,CWJD 120500Z AUTO 01007KT M28/M33 RMK AO1 SOG 45 1057 SLP235 T12801334
CWNK,2020-02-12 05:00,-98.0297,49.4981,268.00,11.50,8.80,88.64,M,M,0.01,M,M,M,M,M,M,M,M,M,M,M,M,M,M,M,M,M,M,M,M,CWNK 120500Z AUTO M11/M13 RMK AO1 2PAST HR M30 0427Z M P0001 T11141129 50006
CWPO,2020-02-12 05:00,-98.9050,49.1911,470.00,8.20,4.50,84.51,10.00,25.00,0.01,M,1010.00,M,30.00,M,M,M,M,M,M,M,M,M,M,M,M,35.00,10.00,2020-02-12 04:17,-14.41,CWPO 120500Z AUTO 01025G30KT M13/M15 RMK AO1 2PAST HR PRESRR SOG 20 3036 PK WND 01035/0417 SLP100 P0001 T11321153 50009
CXGH,2020-02-12 05:00,-96.9822,50.6311,217.00,4.60,-1.50,75.27,360.00,17.00,0.00,M,1009.60,M,27.00,M,M,M,M,M,M,M,M,M,M,M,M,28.00,360.00,2020-02-12 04:01,-15.82,CXGH 120500Z AUTO 36017G27KT M15/M19 RMK AO1 PK WND 36028/0401 SLP096 T11521186 51054
CXWN,2020-02-12 05:00,-97.1296,49.8885,230.00,10.80,7.20,85.07,350.00,10.00,0.00,M,1008.60,M,20.00,M,M,M,M,M,M,M,M,M,M,M,M,24.00,20.00,2020-02-12 04:04,-3.62,CXWN 120500Z AUTO 35010G20KT M12/M14 RMK AO1 3038 PK WND 02024/0404 SLP086 T11181138 50004
CYBR,2020-02-12 05:00,-99.9519,49.9100,409.00,6.80,1.40,78.01,50.00,21.00,0.00,29.77,1011.50,6.00,28.00,OVC,M,M,M,8000.00,M,M,M,-SN BLSN,M,M,M,M,M,M,-14.76,CYBR 120500Z 05021G28KT 6SM -SN BLSN OVC080 M14/M17 A2977 RMK AC8 PRESRR SLP115
CYDN,2020-02-12 05:00,-100.0525,51.1008,305.00,-0.40,-4.00,84.30,10.00,17.00,0.00,29.97,1017.70,0.75,26.00,VV ,M,M,M,1600.00,M,M,M,-SN,M,M,M,M,M,M,-22.37,CYDN 120500Z AUTO 01017G26KT 3/4SM -SN VV016 M18/M20 A2997 RMK PRESRR SLP177
CYIV,2020-02-12 05:00,-94.6537,53.8571,237.00,-25.60,-32.80,67.56,340.00,10.00,0.00,29.99,1018.60,15.00,M,CLR,M,M,M,M,M,M,M,DRSN,M,M,M,M,M,M,-49.26,CYIV 120500Z 34010KT 15SM DRSN SKC M32/M36 A2999 RMK SLP186
CYNE,2020-02-12 05:00,-97.8442,53.9583,223.00,-23.80,-31.00,67.81,350.00,7.00,0.00,30.11,1022.40,9.00,M,CLR,M,M,M,M,M,M,M,M,M,M,M,M,M,M,-43.24,CYNE 120500Z AUTO 35007KT 9SM CLR M31/M35 A3011 RMK SLP224
CYQD,2020-02-12 05:00,-101.0911,53.9714,271.00,-20.20,-29.20,61.96,340.00,8.00,0.00,30.20,1025.80,9.00,M,CLR,M,M,M,M,M,M,M,M,M,M,M,M,M,M,-40.19,CYQD 120500Z AUTO 34008KT 9SM CLR M29/M34 A3020 RMK SLP258
CYTH,2020-02-12 05:00,-97.8642,55.8011,218.00,-27.40,-36.40,60.82,330.00,12.00,0.00,30.12,1023.80,15.00,18.00,CLR,M,M,M,M,M,M,M,IC DRSN,M,M,M,M,M,M,-53.60,CYTH 120500Z 33012G18KT 15SM IC DRSN SKC M33/M38 A3012 RMK SLP238
CYYL,2020-02-12 05:00,-101.0761,56.8639,357.00,-29.20,-36.40,67.05,320.00,8.00,0.00,30.18,1027.90,9.00,16.00,CLR,M,M,M,M,M,M,M,M,M,M,M,M,M,M,-51.27,CYYL 120500Z AUTO 32008G16KT 9SM CLR M34/M38 A3018 RMK SLP279
CYYQ,2020-02-12 05:00,-94.0650,58.7392,29.00,-31.00,-36.40,73.99,320.00,17.00,0.00,30.03,1017.70,1.00,M,VV ,M,M,M,900.00,M,M,M,IC BLSN,M,M,M,M,M,M,-62.46,CYYQ 120500Z 32017KT 1SM IC BLSN VV009 M35/M38 A3003 RMK BLSN8 SLP177
CYGX,2020-02-12 05:00,-94.7106,56.3575,145.00,-32.80,-40.00,66.53,320.00,14.00,0.00,30.06,1020.50,15.00,M,CLR,M,M,M,M,M,M,M,M,M,M,M,M,M,M,-62.36,CYGX 120500Z 32014KT 15SM SKC M36/M40 A3006 RMK SLP205
CYBQ,2020-02-12 05:00,-98.5122,58.7061,281.00,-32.80,-40.00,66.53,320.00,10.00,0.00,30.07,1023.50,9.00,17.00,CLR,M,M,M,M,M,M,M,M,M,M,M,M,M,M,-58.29,CYBQ 120500Z AUTO 32010G17KT 9SM CLR M36/M40 A3007 RMK SLP235
CYDN,2020-02-12 05:13,-100.0525,51.1008,305.00,-0.40,-5.80,77.32,10.00,22.00,0.00,29.99,1018.10,1.25,27.00,VV ,M,M,M,1500.00,M,M,M,-SN BLSN,M,M,M,M,M,M,-24.81,CYDN 120513Z AUTO 01022G27KT 1 1/4SM -SN BLSN VV015 M18/M21 A2999 RMK SLP181
CYDN,2020-02-12 05:17,-100.0525,51.1008,305.00,-0.40,-5.80,77.32,10.00,22.00,0.00,29.99,1018.20,1.00,27.00,OVC,M,M,M,1500.00,M,M,M,-SN BLSN,M,M,M,M,M,M,-24.81,CYDN 120517Z AUTO 01022G27KT 1SM -SN BLSN OVC015 M18/M21 A2999 RMK SLP182
CYYQ,2020-02-12 05:36,-94.0650,58.7392,29.00,-29.20,-36.40,67.05,320.00,15.00,0.00,30.04,1017.90,1.50,20.00,VV ,M,M,M,800.00,M,M,M,IC BLSN,M,M,M,M,M,M,-58.56,CYYQ 120536Z 32015G20KT 1 1/2SM IC BLSN VV008 M34/M38 A3004 RMK BLSN8 SLP179
CWWS,2020-02-12 06:00,-97.6164,52.8186,223.00,-20.20,-26.30,72.47,M,M,0.00,M,1022.00,M,M,M,M,M,M,M,M,M,M,M,M,M,M,M,M,M,M,CWWS 120600Z AUTO M29/M32 RMK AO1 32 0524Z SOG 01 3055 SLP220 T12901324
CXMD,2020-02-12 06:00,-98.0839,49.1878,301.00,8.80,5.50,86.11,360.00,17.00,0.01,M,1010.50,M,25.00,M,M,M,M,M,M,M,M,M,M,M,M,27.00,10.00,2020-02-12 05:34,-10.32,CXMD 120600Z AUTO 36017G25KT M13/M15 RMK AO1 3PAST HR PRESRR SOG 09 3058 PK WND 01027/0534 SLP105 P0001 T11291147 50009
CYWG,2020-02-12 06:00,-97.2333,49.9167,239.00,6.80,1.40,78.01,10.00,23.00,0.00,29.78,1010.30,0.75,32.00,OVC,M,M,M,4800.00,M,M,M,BLSN,M,M,M,M,M,M,-15.56,CYWG 120600Z 01023G32KT 3/4SM R31/3000VP6000FT/D BLSN OVC048 M14/M17 A2978 RMK SC8 SLP103
CWCF,2020-02-12 06:00,-97.0219,52.3597,222.00,-16.10,-25.60,60.94,10.00,8.00,0.00,M,1019.40,M,M,M,M,M,M,M,M,M,M,M,M,M,M,19.00,20.00,2020-02-12 05:42,-35.14,CWCF 120600Z AUTO 01008KT M27/M32 RMK AO1 SOG 27 1056 PK WND 02019/0542 SLP194 T12671320 50002
CWEQ,2020-02-12 06:00,-101.2331,52.1150,335.00,-10.30,-20.00,61.20,40.00,14.00,0.00,M,1023.10,M,M,M,M,M,M,M,M,M,M,M,M,M,M,19.00,40.00,2020-02-12 05:33,-33.36,CWEQ 120600Z AUTO 04014KT M24/M29 RMK AO1 SOG 06 1057 PK WND 04019/0533 SLP231 T12351289
CWGX,2020-02-12 06:00,-94.7000,56.3667,145.00,-33.30,-42.70,58.46,330.00,13.00,0.01,M,1021.30,M,M,M,M,M,M,M,M,M,M,M,M,M,M,19.00,340.00,2020-02-12 05:21,-62.09,CWGX 120600Z AUTO 33013KT M36/M42 RMK AO1 2PAST HR SOG 31 1028 PK WND 34019/0521 SLP213 P0001 T13631415 50002
CWII,2020-02-12 06:00,-96.5622,50.6951,220.00,1.40,-4.00,77.49,360.00,13.00,0.00,M,1013.20,M,24.00,M,M,M,M,M,M,M,M,M,M,M,M,25.00,350.00,2020-02-12 05:27,-17.63,CWII 120600Z AUTO 36013G24KT M17/M20 RMK AO1 PRESRR PK WND 35025/0527 SLP132 T11701200 53054
CWJD,2020-02-12 06:00,-99.2678,53.1864,223.00,-20.70,-30.50,59.23,360.00,6.00,0.00,M,1025.30,M,M,M,M,M,M,M,M,M,M,M,M,M,M,M,M,M,-37.94,CWJD 120600Z AUTO 36006KT M29/M35 RMK AO1 SOG 45 1053 SLP253 T12931347
CWNK,2020-02-12 06:00,-98.0297,49.4981,268.00,6.60,2.80,84.01,M,M,0.00,M,M,M,M,M,M,M,M,M,M,M,M,M,M,M,M,M,M,M,M,CWNK 120600Z AUTO M14/M16 RMK AO1 30 0504Z T11411162 50006
CWPO,2020-02-12 06:00,-98.9050,49.1911,470.00,5.00,0.70,81.96,20.00,25.00,0.00,M,1012.50,M,32.00,M,M,M,M,M,M,M,M,M,M,M,M,36.00,10.00,2020-02-12 05:46,-18.74,CWPO 120600Z AUTO 02025G32KT M15/M17 RMK AO1 PRESRR SOG 22 3056 PK WND 01036/0546 SLP125 T11501174 50009
CXGH,2020-02-12 06:00,-96.9822,50.6311,217.00,-0.60,-7.80,70.83,360.00,18.00,0.00,M,1012.00,M,29.00,M,M,M,M,M,M,M,M,M,M,M,M,31.00,10.00,2020-02-12 05:38,-23.17,CXGH 120600Z AUTO 36018G29KT M18/M22 RMK AO1 PRESRR PK WND 01031/0538 SLP120 T11811221 53056
CXWN,2020-02-12 06:00,-97.1296,49.8885,230.00,6.30,2.10,82.45,350.00,12.00,0.00,M,1010.60,M,20.00,M,M,M,M,M,M,M,M,M,M,M,M,21.00,330.00,2020-02-12 05:26,-10.71,CXWN 120600Z AUTO 35012G20KT M14/M17 RMK AO1 1056 PK WND 33021/0526 SLP106 T11431166 50004
CYBR,2020-02-12 06:00,-99.9519,49.9100,409.00,5.00,-2.20,71.50,50.00,17.00,0.00,29.84,1014.00,10.00,29.00,SCT,OVC,M,M,4500.00,8400.00,M,M,-SN DRSN,M,M,M,M,M,M,-15.30,CYBR 120600Z 05017G29KT 10SM -SN DRSN SCT045 OVC084 M15/M19 A2984 RMK SC3AC5 PRESRR SLP140
CYIV,2020-02-12 06:00,-94.6537,53.8571,237.00,-27.40,-34.60,67.31,340.00,10.00,0.00,30.03,1019.90,15.00,M,CLR,M,M,M,M,M,M,M,DRSN,M,M,M,M,M,M,-51.52,CYIV 120600Z 34010KT 15SM DRSN SKC M33/M37 A3003 RMK SLP199
CYNE,2020-02-12 06:00,-97.8442,53.9583,223.00,-25.60,-32.80,67.56,340.00,10.00,0.00,30.15,1023.90,9.00,15.00,CLR,M,M,M,M,M,M,M,M,M,M,M,M,M,M,-49.26,CYNE 120600Z AUTO 34010G15KT 9SM CLR M32/M36 A3015 RMK SLP239
CYQD,2020-02-12 06:00,-101.0911,53.9714,271.00,-22.00,-31.00,61.68,330.00,13.00,0.00,30.23,1027.10,9.00,18.00,CLR,M,M,M,M,M,M,M,M,M,M,M,M,M,M,-47.61,CYQD 120600Z AUTO 33013G18KT 9SM CLR M30/M35 A3023 RMK SLP271
CYTH,2020-02-12 06:00,-97.8642,55.8011,218.00,-29.20,-36.40,67.05,310.00,8.00,0.00,30.14,1024.50,15.00,M,CLR,M,M,M,M,M,M,M,IC DRSN,M,M,M,M,M,M,-51.27,CYTH 120600Z 31008KT 15SM IC DRSN SKC M34/M38 A3014 RMK SLP245
CYYL,2020-02-12 06:00,-101.0761,56.8639,357.00,-31.00,-38.20,66.79,310.00,8.00,0.00,30.21,1029.00,9.00,M,CLR,M,M,M,M,M,M,M,M,M,M,M,M,M,M,-53.49,CYYL 120600Z AUTO 31008KT 9SM CLR M35/M39 A3021 RMK SLP290
CYYQ,2020-02-12 06:00,-94.0650,58.7392,29.00,-31.00,-36.40,73.99,310.00,17.00,0.00,30.04,1017.90,1.50,22.00,VV ,M,M,M,800.00,M,M,M,IC BLSN,M,M,M,M,M,M,-62.46,CYYQ 120600Z 31017G22KT 1 1/2SM IC BLSN VV008 M35/M38 A3004 RMK BLSN8 SLP179
CYGX,2020-02-12 06:00,-94.7106,56.3575,145.00,-34.60,-41.80,66.26,320.00,12.00,0.00,30.08,1021.30,15.00,M,CLR,M,M,M,M,M,M,M,M,M,M,M,M,M,M,-62.76,CYGX 120600Z 32012KT 15SM SKC M37/M41 A3008 RMK SLP213
CYBQ,2020-02-12 06:00,-98.5122,58.7061,281.00,-32.80,-40.00,66.53,320.00,10.00,0.00,30.08,1023.90,9.00,18.00,CLR,M,M,M,M,M,M,M,M,M,M,M,M,M,M,-58.29,CYBQ 120600Z AUTO 32010G18KT 290V350 9SM CLR M36/M40 A3008 RMK SLP239
CYDN,2020-02-12 06:01,-100.0525,51.1008,305.00,-5.80,-9.40,83.91,10.00,22.00,0.00,30.04,1020.10,1.00,28.00,SCT,OVC,M,M,1200.00,6500.00,M,M,-SN BLSN,M,M,M,M,M,M,-32.04,CYDN 120601Z AUTO 01022G28KT 1SM -SN BLSN SCT012 OVC065 M21/M23 A3004 RMK PRESRR SLP201
CYDN,2020-02-12 06:05,-100.0525,51.1008,305.00,-5.80,-9.40,83.91,10.00,18.00,0.00,30.05,1020.30,1.00,28.00,FEW,BKN,OVC,M,1000.00,1400.00,6500.00,M,-SN,M,M,M,M,M,M,-30.01,CYDN 120605Z AUTO 01018G28KT 1SM -SN FEW010 BKN014 OVC065 M21/M23 A3005 RMK PRESRR SLP203
CYDN,2020-02-12 06:12,-100.0525,51.1008,305.00,-5.80,-11.20,76.77,10.00,21.00,0.00,30.05,1020.50,1.25,27.00,FEW,BKN,OVC,M,800.00,1400.00,6500.00,M,-SN BLSN,M,M,M,M,M,M,-31.56,CYDN 120612Z AUTO 01021G27KT 1 1/4SM -SN BLSN FEW008 BKN014 OVC065 M21/M24 A3005 RMK PRESRR SLP205
CYDN,2020-02-12 06:17,-100.0525,51.1008,305.00,-5.80,-11.20,76.77,10.00,23.00,0.00,30.06,1020.70,1.00,M,FEW,BKN,OVC,M,800.00,1400.00,6500.00,M,-SN BLSN,M,M,M,M,M,M,-32.50,CYDN 120617Z AUTO 01023KT 1SM -SN BLSN FEW008 BKN014 OVC065 M21/M24 A3006 RMK PRESRR SLP207
CYWG,2020-02-12 06:30,-97.2333,49.9167,239.00,3.20,-2.20,77.67,360.00,24.00,0.00,29.83,1012.00,3.00,33.00,OVC,M,M,M,4300.00,M,M,M,-SN BLSN,M,M,M,M,M,M,-20.80,CYWG 120630Z 36024G33KT 3SM R31/3500VP6000FT/U -SN BLSN OVC043 M16/M19 A2983 RMK SC8 PRESRR SLP120
CYDN,2020-02-12 06:38,-100.0525,51.1008,305.00,-7.60,-13.00,76.59,10.00,16.00,0.00,30.09,1021.70,1.25,25.00,OVC,M,M,M,1000.00,M,M,M,-SN,M,M,M,M,M,M,-31.20,CYDN 120638Z AUTO 01016G25KT 1 1/4SM -SN OVC010 M22/M25 A3009 RMK PRESRR SLP217
CYDN,2020-02-12 06:57,-100.0525,51.1008,305.00,-9.40,-14.80,76.40,20.00,18.00,0.00,30.10,1022.10,2.00,23.00,BKN,M,M,M,1000.00,M,M,M,HZ,M,M,M,M,M,M,-34.75,CYDN 120657Z AUTO 02018G23KT 2SM HZ BKN010 M23/M26 A3010 RMK VIS VRB 1 1/2-3 SLP221
CWWS,2020-02-12 07:00,-97.6164,52.8186,223.00,-22.20,-28.10,73.01,M,M,0.00,M,1023.10,M,M,M,M,M,M,M,M,M,M,M,M,M,M,M,M,M,M,CWWS 120700Z AUTO M30/M33 RMK AO1 30 0619Z SOG 01 1052 SLP231 T13011334
CXMD,2020-02-12 07:00,-98.0839,49.1878,301.00,3.90,0.00,83.42,350.00,19.00,0.00,M,1013.20,M,27.00,M,M,M,M,M,M,M,M,M,M,M,M,28.00,0.00,2020-02-12 06:25,-17.72,CXMD 120700Z AUTO 35019G27KT M16/M18 RMK AO1 PRESRR SOG 09 1076 PK WND 00028/0625 SLP132 T11561178
CYWG,2020-02-12 07:00,-97.2333,49.9167,239.00,-0.40,-7.60,70.85,360.00,28.00,0.00,29.86,1013.40,4.00,34.00,FEW,OVC,M,M,1100.00,5100.00,M,M,-SN BLSN,M,M,M,M,M,M,-27.18,CYWG 120700Z 36028G34KT 4SM R31/5000VP6000FT/D -SN BLSN FEW011 OVC051 M18/M22 A2986 RMK SF1SC8 SF TR PRESRR SLP134
CWCF,2020-02-12 07:00,-97.0219,52.3597,222.00,-18.20,-24.70,71.18,360.00,8.00,0.00,M,1020.80,M,15.00,M,M,M,M,M,M,M,M,M,M,M,M,M,M,M,-37.72,CWCF 120700Z AUTO 36008G15KT M28/M32 RMK AO1 SOG 27 1050 SLP208 T12791315
CWEQ,2020-02-12 07:00,-101.2331,52.1150,335.00,-14.10,-21.10,69.85,30.00,14.00,0.00,M,1024.70,M,M,M,M,M,M,M,M,M,M,M,M,M,M,20.00,40.00,2020-02-12 06:48,-38.26,CWEQ 120700Z AUTO 03014KT M26/M30 RMK AO1 SOG 06 1052 PK WND 04020/0648 SLP247 T12561295
CWGX,2020-02-12 07:00,-94.7000,56.3667,145.00,-34.40,-43.60,58.96,320.00,9.00,0.00,M,1021.90,M,M,M,M,M,M,M,M,M,M,M,M,M,M,M,M,M,-59.05,CWGX 120700Z AUTO 32009KT M37/M42 RMK AO1 SOG 31 1023 SLP219 T13691420
CWII,2020-02-12 07:00,-96.5622,50.6951,220.00,-4.40,-12.30,67.95,10.00,14.00,0.00,M,1015.50,M,23.00,M,M,M,M,M,M,M,M,M,M,M,M,25.00,340.00,2020-02-12 06:24,-25.76,CWII 120700Z AUTO 01014G23KT M20/M25 RMK AO1 PRESRR PK WND 34025/0624 SLP155 T12021246 53060
CWJD,2020-02-12 07:00,-99.2678,53.1864,223.00,-22.50,-30.80,64.02,340.00,4.00,0.00,M,1026.50,M,M,M,M,M,M,M,M,M,M,M,M,M,M,M,M,M,-36.22,CWJD 120700Z AUTO 34004KT M30/M35 RMK AO1 SOG 45 1047 SLP265 T13031349
CWNK,2020-02-12 07:00,-98.0297,49.4981,268.00,1.80,-3.50,77.90,M,M,0.01,M,M,M,M,M,M,M,M,M,M,M,M,M,M,M,M,M,M,M,M,CWNK 120700Z AUTO M17/M20 RMK AO1 2PAST HR M30 0658Z M P0001 T11681197 50002
CWPO,2020-02-12 07:00,-98.9050,49.1911,470.00,0.90,-5.30,74.52,20.00,23.00,0.00,M,1014.80,M,29.00,M,M,M,M,M,M,M,M,M,M,M,M,33.00,20.00,2020-02-12 06:49,-23.49,CWPO 120700Z AUTO 02023G29KT M17/M21 RMK AO1 PRESRR SOG 19 1070 PK WND 02033/0649 SLP148 T11731207
CXGH,2020-02-12 07:00,-96.9822,50.6311,217.00,-4.00,-12.30,66.66,360.00,20.00,0.00,M,1014.30,M,29.00,M,M,M,M,M,M,M,M,M,M,M,M,29.00,340.00,2020-02-12 06:55,-28.68,CXGH 120700Z AUTO 36020G29KT M20/M25 RMK AO1 PRESRR PK WND 34029/0655 SLP143 T12001246 53063
CXWN,2020-02-12 07:00,-97.1296,49.8885,230.00,1.40,-3.60,78.99,350.00,14.00,0.00,M,1013.30,M,23.00,M,M,M,M,M,M,M,M,M,M,M,M,24.00,350.00,2020-02-12 06:36,-18.28,CXWN 120700Z AUTO 35014G23KT M17/M20 RMK AO1 PRESRR PK WND 35024/0636 SLP133 T11701198 53058
CYBR,2020-02-12 07:00,-99.9519,49.9100,409.00,1.40,-7.60,65.13,60.00,17.00,0.00,29.91,1016.40,12.00,24.00,FEW,OVC,M,M,3800.00,6400.00,M,M,-SN DRSN,M,M,M,M,M,M,-20.01,CYBR 120700Z 06017G24KT 12SM -SN DRSN FEW038 OVC064 M17/M22 A2991 RMK SC2SC6 PRESRR SLP164
CYNE,2020-02-12 07:00,-97.8442,53.9583,223.00,-25.60,-32.80,67.56,340.00,9.00,0.00,30.17,1024.70,9.00,M,CLR,M,M,M,M,M,M,M,M,M,M,M,M,M,M,-48.11,CYNE 120700Z AUTO 34009KT 310V020 9SM CLR M32/M36 A3017 RMK SLP247
CYQD,2020-02-12 07:00,-101.0911,53.9714,271.00,-23.80,-32.80,61.39,320.00,9.00,0.00,30.27,1028.60,9.00,15.00,CLR,M,M,M,M,M,M,M,M,M,M,M,M,M,M,-45.87,CYQD 120700Z AUTO 32009G15KT 9SM CLR M31/M36 A3027 RMK SLP286
CYTH,2020-02-12 07:00,-97.8642,55.8011,218.00,-29.20,-38.20,60.52,310.00,7.00,0.00,30.16,1025.30,15.00,M,CLR,M,M,M,M,M,M,M,M,M,M,M,M,M,M,-49.82,CYTH 120700Z 31007KT 15SM SKC M34/M39 A3016 RMK SLP253
CYYL,2020-02-12 07:00,-101.0761,56.8639,357.00,-31.00,-38.20,66.79,300.00,8.00,0.00,30.22,1029.50,9.00,M,CLR,M,M,M,M,M,M,M,M,M,M,M,M,M,M,-53.49,CYYL 120700Z AUTO 30008KT 9SM CLR M35/M39 A3022 RMK SLP295
CYYQ,2020-02-12 07:00,-94.0650,58.7392,29.00,-31.00,-36.40,73.99,310.00,16.00,0.00,30.04,1018.10,1.50,M,VV ,M,M,M,800.00,M,M,M,IC BLSN,M,M,M,M,M,M,-61.70,CYYQ 120700Z 31016KT 1 1/2SM IC BLSN VV008 M35/M38 A3004 RMK BLSN8 SLP181
CYGX,2020-02-12 07:00,-94.7106,56.3575,145.00,-34.60,-41.80,66.26,310.00,9.00,0.00,30.09,1021.80,15.00,M,CLR,M,M,M,M,M,M,M,M,M,M,M,M,M,M,-59.30,CYGX 120700Z 31009KT 15SM SKC M37/M41 A3009 RMK SLP218
CYBQ,2020-02-12 07:00,-98.5122,58.7061,281.00,-31.00,-38.20,66.79,310.00,11.00,0.00,30.09,1024.20,9.00,19.00,CLR,M,M,M,M,M,M,M,M,M,M,M,M,M,M,-57.15,CYBQ 120700Z AUTO 31011G19KT 9SM CLR M35/M39 A3009 RMK SLP242
CYDN,2020-02-12 07:01,-100.0525,51.1008,305.00,-9.40,-14.80,76.40,20.00,18.00,0.00,30.10,1022.30,2.00,23.00,SCT,M,M,M,1000.00,M,M,M,HZ,M,M,M,M,M,M,-34.75,CYDN 120701Z AUTO 02018G23KT 2SM HZ SCT010 M23/M26 A3010 RMK VIS VRB 1 1/2-3 SLP223
CYDN,2020-02-12 07:15,-100.0525,51.1008,305.00,-11.20,-16.60,76.21,10.00,22.00,0.00,30.11,1022.50,1.75,29.00,FEW,M,M,M,1000.00,M,M,M,-SN BLSN,M,M,M,M,M,M,-39.27,CYDN 120715Z AUTO 01022G29KT 1 3/4SM -SN BLSN FEW010 M24/M27 A3011 RMK VIS VRB 1-3 SLP225
CYYQ,2020-02-12 07:20,-94.0650,58.7392,29.00,-31.00,-36.40,73.99,300.00,17.00,0.00,30.05,1018.20,0.75,M,VV ,M,M,M,800.00,M,M,M,IC BLSN,M,M,M,M,M,M,-62.46,CYYQ 120720Z 30017KT 3/4SM IC BLSN VV008 M35/M38 A3005 RMK BLSN8 SLP182
CYDN,2020-02-12 07:40,-100.0525,51.1008,305.00,-11.20,-18.40,69.50,20.00,20.00,0.00,30.13,1023.30,1.50,27.00,CLR,M,M,M,M,M,M,M,HZ,M,M,M,M,M,M,-38.24,CYDN 120740Z AUTO 02020G27KT 1 1/2SM HZ CLR M24/M28 A3013 RMK VIS VRB 1-2 1/2 PRESRR SLP233
CYDN,2020-02-12 07:47,-100.0525,51.1008,305.00,-11.20,-18.40,69.50,10.00,17.00,0.00,30.14,1023.60,2.25,27.00,FEW,M,M,M,1000.00,M,M,M,HZ,M,M,M,M,M,M,-36.52,CYDN 120747Z AUTO 01017G27KT 2 1/4SM HZ FEW010 M24/M28 A3014 RMK VIS VRB 1 1/4-3 PRESRR SLP236
CYDN,2020-02-12 07:51,-100.0525,51.1008,305.00,-13.00,-18.40,76.02,10.00,21.00,0.00,30.14,1023.50,2.00,26.00,SCT,M,M,M,1000.00,M,M,M,HZ,M,M,M,M,M,M,-41.16,CYDN 120751Z AUTO 01021G26KT 2SM HZ SCT010 M25/M28 A3014 RMK SLP235
CYDN,2020-02-12 07:53,-100.0525,51.1008,305.00,-13.00,-18.40,76.02,10.00,19.00,0.00,30.14,1023.50,2.00,24.00,SCT,M,M,M,1000.00,M,M,M,-SN,M,M,M,M,M,M,-40.07,CYDN 120753Z AUTO 01019G24KT 2SM -SN SCT010 M25/M28 A3014 RMK SLP235
CYYQ,2020-02-12 07:55,-94.0650,58.7392,29.00,-29.20,-36.40,67.05,300.00,18.00,0.00,30.05,1018.50,0.75,M,VV ,M,M,M,1100.00,M,M,M,IC BLSN,M,M,M,M,M,M,-60.81,CYYQ 120755Z 30018KT 3/4SM IC BLSN VV011 M34/M38 A3005 RMK BLSN8 SLP185
CWWS,2020-02-12 08:00,-97.6164,52.8186,223.00,-23.10,-29.40,71.33,M,M,T,M,1024.40,M,M,M,M,M,M,M,M,M,M,M,M,M,M,M,M,M,M,CWWS 120800Z AUTO M31/M34 RMK AO1 1PAST HR M32 0710Z SOG 01 1040 SLP244 P0000 T13061341 50001
CXMD,2020-02-12 08:00,-98.0839,49.1878,301.00,-0.60,-5.10,80.73,350.00,19.00,0.00,M,1015.40,M,26.00,M,M,M,M,M,M,M,M,M,M,M,M,33.00,350.00,2020-02-12 07:31,-23.67,CXMD 120800Z AUTO 35019G26KT M18/M21 RMK AO1 PRESRR SOG 09 1068 PK WND 35033/0731 SLP154 T11811206
CYWG,2020-02-12 08:00,-97.2333,49.9167,239.00,-4.00,-11.20,70.41,360.00,30.00,0.00,29.93,1015.60,5.00,37.00,FEW,BKN,OVC,M,1200.00,5500.00,9500.00,M,-SN BLSN,M,M,M,M,M,M,-32.83,CYWG 120800Z 36030G37KT 5SM -SN BLSN FEW012 BKN055 OVC095 M20/M24 A2993 RMK SF1SC6AC2 PRESRR SLP156
CWCF,2020-02-12 08:00,-97.0219,52.3597,222.00,-21.50,-29.70,64.52,360.00,6.00,0.00,M,1022.60,M,M,M,M,M,M,M,M,M,M,M,M,M,M,17.00,10.00,2020-02-12 07:03,-38.90,CWCF 120800Z AUTO 36006KT M30/M34 RMK AO1 SOG 27 2047 PK WND 01017/0703 SLP226 T12971343
CWEQ,2020-02-12 08:00,-101.2331,52.1150,335.00,-16.80,-24.90,65.55,50.00,10.00,0.00,M,1026.40,M,M,M,M,M,M,M,M,M,M,M,M,M,M,17.00,40.00,2020-02-12 07:07,-38.23,CWEQ 120800Z AUTO 05010KT M27/M32 RMK AO1 SOG 06 1048 PK WND 04017/0707 SLP264 T12711316
CWGX,2020-02-12 08:00,-94.7000,56.3667,145.00,-35.90,-44.70,60.12,300.00,8.00,0.00,M,1022.30,M,M,M,M,M,M,M,M,M,M,M,M,M,M,M,M,M,-59.53,CWGX 120800Z AUTO 30008KT M38/M43 RMK AO1 SOG 31 1016 SLP223 T13771426
CWII,2020-02-12 08:00,-96.5622,50.6951,220.00,-8.50,-14.40,74.59,350.00,15.00,0.00,M,1017.60,M,23.00,M,M,M,M,M,M,M,M,M,M,M,M,23.00,350.00,2020-02-12 07:51,-31.72,CWII 120800Z AUTO 35015G23KT M23/M26 RMK AO1 PK WND 35023/0751 SLP176 T12251258 51063
CWJD,2020-02-12 08:00,-99.2678,53.1864,223.00,-23.80,-31.90,64.53,340.00,4.00,0.00,M,1027.60,M,M,M,M,M,M,M,M,M,M,M,M,M,M,M,M,M,-37.74,CWJD 120800Z AUTO 34004KT M31/M36 RMK AO1 SOG 45 1037 SLP276 T13101355
CWNK,2020-02-12 08:00,-98.0297,49.4981,268.00,-2.90,-8.30,77.07,M,M,0.00,M,M,M,M,M,M,M,M,M,M,M,M,M,M,M,M,M,M,M,M,CWNK 120800Z AUTO M19/M22 RMK AO1 28 0741Z T11941224 50002
CWPO,2020-02-12 08:00,-98.9050,49.1911,470.00,-3.50,-9.00,76.63,20.00,24.00,0.00,M,1016.90,M,31.00,M,M,M,M,M,M,M,M,M,M,M,M,33.00,10.00,2020-02-12 07:14,-29.83,CWPO 120800Z AUTO 02024G31KT M20/M23 RMK AO1 SOG 17 1063 PK WND 01033/0714 SLP169 T11971228
CXGH,2020-02-12 08:00,-96.9822,50.6311,217.00,-8.30,-13.90,75.75,350.00,15.00,0.00,M,1016.40,M,25.00,M,M,M,M,M,M,M,M,M,M,M,M,28.00,350.00,2020-02-12 07:20,-31.47,CXGH 120800Z AUTO 35015G25KT M22/M26 RMK AO1 PRESRR PK WND 35028/0720 SLP164 T12241255 51064
CXWN,2020-02-12 08:00,-97.1296,49.8885,230.00,-2.20,-7.80,76.39,360.00,11.00,0.00,M,1015.50,M,19.00,M,M,M,M,M,M,M,M,M,M,M,M,26.00,10.00,2020-02-12 07:08,-20.75,CXWN 120800Z AUTO 36011G19KT M19/M22 RMK AO1 PRESRR PK WND 01026/0708 SLP155 T11901221 53066
CYBR,2020-02-12 08:00,-99.9519,49.9100,409.00,-2.20,-11.20,64.62,30.00,21.00,0.00,29.98,1018.80,15.00,M,OVC,M,M,M,4800.00,M,M,M,-SN DRSN,M,M,M,M,M,M,-26.76,CYBR 120800Z 03021KT 15SM -SN DRSN OVC048 M19/M24 A2998 RMK SC8 SLP188
CYIV,2020-02-12 08:00,-94.6537,53.8571,237.00,-29.20,-36.40,67.05,320.00,7.00,0.00,30.09,1022.10,15.00,M,CLR,M,M,M,M,M,M,M,M,M,M,M,M,M,M,-49.82,CYIV 120800Z 32007KT 15SM SKC M34/M38 A3009 RMK SLP221
CYNE,2020-02-12 08:00,-97.8442,53.9583,223.00,-27.40,-34.60,67.31,320.00,6.00,0.00,30.19,1025.50,9.00,M,CLR,M,M,M,M,M,M,M,M,M,M,M,M,M,M,-46.01,CYNE 120800Z AUTO 32006KT 9SM CLR M33/M37 A3019 RMK SLP255
CYQD,2020-02-12 08:00,-101.0911,53.9714,271.00,-25.60,-32.80,67.56,320.00,10.00,0.00,30.30,1029.70,9.00,15.00,CLR,M,M,M,M,M,M,M,M,M,M,M,M,M,M,-49.26,CYQD 120800Z AUTO 32010G15KT 9SM CLR M32/M36 A3030 RMK SLP297
CYTH,2020-02-12 08:00,-97.8642,55.8011,218.00,-31.00,-38.20,66.79,300.00,7.00,0.00,30.18,1025.90,15.00,M,CLR,M,M,M,M,M,M,M,M,M,M,M,M,M,M,-52.01,CYTH 120800Z 30007KT 15SM SKC M35/M39 A3018 RMK SLP259
CYYL,2020-02-12 08:00,-101.0761,56.8639,357.00,-31.00,-38.20,66.79,300.00,7.00,0.00,30.24,1030.00,9.00,M,CLR,M,M,M,M,M,M,M,M,M,M,M,M,M,M,-52.01,CYYL 120800Z AUTO 30007KT 9SM CLR M35/M39 A3024 RMK SLP300
CYYQ,2020-02-12 08:00,-94.0650,58.7392,29.00,-29.20,-36.40,67.05,300.00,16.00,0.00,30.05,1018.50,0.75,21.00,VV ,M,M,M,1100.00,M,M,M,IC BLSN,M,M,M,M,M,M,-59.35,CYYQ 120800Z 30016G21KT 3/4SM IC BLSN VV011 M34/M38 A3005 RMK BLSN8 SLP185
CYGX,2020-02-12 08:00,-94.7106,56.3575,145.00,-36.40,-43.60,65.99,290.00,8.00,0.00,30.10,1022.20,15.00,M,CLR,M,M,M,M,M,M,M,M,M,M,M,M,M,M,-60.14,CYGX 120800Z 29008KT 15SM SKC M38/M42 A3010 RMK SLP222
CYDN,2020-02-12 08:03,-100.0525,51.1008,305.00,-13.00,-18.40,76.02,10.00,16.00,0.00,30.15,1023.80,2.25,27.00,SCT,M,M,M,1000.00,M,M,M,-SN,M,M,M,M,M,M,-38.24,CYDN 120803Z AUTO 01016G27KT 2 1/4SM -SN SCT010 M25/M28 A3015 RMK VIS VRB 1-3 SLP238
CYBQ,2020-02-12 08:03,-98.5122,58.7061,281.00,-29.20,-38.20,60.52,310.00,12.00,0.00,30.07,1023.60,5.00,21.00,BKN,M,M,M,3700.00,M,M,M,HZ,M,M,M,M,M,M,-55.89,CYBQ 120803Z AUTO 31012G21KT 5SM HZ BKN037 M34/M39 A3007 RMK SLP236
CYDN,2020-02-12 08:05,-100.0525,51.1008,305.00,-13.00,-18.40,76.02,10.00,15.00,0.00,30.15,1023.90,3.00,27.00,SCT,M,M,M,1000.00,M,M,M,-SN,M,M,M,M,M,M,-37.56,CYDN 120805Z AUTO 01015G27KT 3SM -SN SCT010 M25/M28 A3015 RMK SLP239
CYDN,2020-02-12 08:08,-100.0525,51.1008,305.00,-13.00,-18.40,76.02,10.00,15.00,0.00,30.15,1024.00,6.00,20.00,SCT,M,M,M,1000.00,M,M,M,-SN,M,M,M,M,M,M,-37.56,CYDN 120808Z AUTO 01015G20KT 6SM -SN SCT010 M25/M28 A3015 RMK SLP240
CYDN,2020-02-12 08:10,-100.0525,51.1008,305.00,-13.00,-18.40,76.02,10.00,17.00,0.00,30.15,1024.00,5.00,23.00,SCT,M,M,M,1000.00,M,M,M,HZ,M,M,M,M,M,M,-38.88,CYDN 120810Z AUTO 01017G23KT 5SM HZ SCT010 M25/M28 A3015 RMK SLP240
CYBQ,2020-02-12 08:14,-98.5122,58.7061,281.00,-29.20,-36.40,67.05,310.00,13.00,0.00,30.09,1024.00,2.50,21.00,BKN,M,M,M,3300.00,M,M,M,HZ,M,M,M,M,M,M,-56.84,CYBQ 120814Z AUTO 31013G21KT 2 1/2SM HZ BKN033 M34/M38 A3009 RMK SLP240
CYWG,2020-02-12 08:21,-97.2333,49.9167,239.00,-5.80,-13.00,70.19,360.00,25.00,0.00,29.96,1016.60,8.00,33.00,FEW,SCT,BKN,M,1200.00,5500.00,9500.00,M,DRSN,M,M,M,M,M,M,-33.36,CYWG 120821Z 36025G33KT 8SM DRSN FEW012 SCT055 BKN095 M21/M25 A2996 RMK SF1SC3AC2 SF TR OCNL BLSN PRESRR SLP166
CYDN,2020-02-12 08:22,-100.0525,51.1008,305.00,-13.00,-20.20,69.27,10.00,20.00,0.00,30.16,1024.50,2.25,25.00,FEW,M,M,M,1000.00,M,M,M,HZ,M,M,M,M,M,M,-40.63,CYDN 120822Z AUTO 01020G25KT 2 1/4SM HZ FEW010 M25/M29 A3016 RMK VIS VRB 1 1/2-3 PRESRR SLP245
CYBQ,2020-02-12 08:28,-98.5122,58.7061,281.00,-29.20,-36.40,67.05,310.00,10.00,0.00,30.08,1023.70,3.00,19.00,OVC,M,M,M,3300.00,M,M,M,HZ,M,M,M,M,M,M,-53.78,CYBQ 120828Z AUTO 31010G19KT 3SM HZ OVC033 M34/M38 A3008 RMK SLP237
CYBQ,2020-02-12 08:35,-98.5122,58.7061,281.00,-29.20,-36.40,67.05,310.00,12.00,0.00,30.08,1023.70,3.00,18.00,OVC,M,M,M,3100.00,M,M,M,-SN,M,M,M,M,M,M,-55.89,CYBQ 120835Z AUTO 31012G18KT 3SM -SN OVC031 M34/M38 A3008 RMK SLP237
CYDN,2020-02-12 08:38,-100.0525,51.1008,305.00,-14.80,-20.20,75.83,10.00,18.00,0.00,30.18,1025.00,3.00,24.00,CLR,M,M,M,M,M,M,M,HZ,M,M,M,M,M,M,-41.86,CYDN 120838Z AUTO 01018G24KT 3SM HZ CLR M26/M29 A3018 RMK PRESRR SLP250
CYBQ,2020-02-12 08:46,-98.5122,58.7061,281.00,-27.40,-34.60,67.31,310.00,11.00,0.00,30.08,1023.60,2.25,19.00,OVC,M,M,M,2900.00,M,M,M,-SN,M,M,M,M,M,M,-52.60,CYBQ 120846Z AUTO 31011G19KT 2 1/4SM -SN OVC029 M33/M37 A3008 RMK SLP236
CYDN,2020-02-12 08:59,-100.0525,51.1008,305.00,-14.80,-22.00,69.03,10.00,18.00,0.00,30.20,1025.90,2.50,25.00,CLR,M,M,M,M,M,M,M,HZ,M,M,M,M,M,M,-41.86,CYDN 120859Z AUTO 01018G25KT 2 1/2SM HZ CLR M26/M30 A3020 RMK VIS VRB 1 3/4-3 PRESRR SLP259
CWWS,2020-02-12 09:00,-97.6164,52.8186,223.00,-23.60,-29.70,72.05,M,M,0.00,M,1026.00,M,M,M,M,M,M,M,M,M,M,M,M,M,M,M,M,M,M,CWWS 120900Z AUTO M31/M34 RMK AO1 27 0824Z SOG 01 3036 SLP260 T13091343 50001
CXMD,2020-02-12 09:00,-98.0839,49.1878,301.00,-4.20,-9.20,78.46,360.00,18.00,0.01,M,1017.90,M,26.00,M,M,M,M,M,M,M,M,M,M,M,M,29.00,340.00,2020-02-12 08:16,-27.90,CXMD 120900Z AUTO 36018G26KT M20/M23 RMK AO1 2PAST HR PRESRR SOG 09 1068 PK WND 34029/0816 SLP179 P0001 T12011229 50002
CYWG,2020-02-12 09:00,-97.2333,49.9167,239.00,-7.60,-14.80,69.96,10.00,25.00,0.00,30.00,1018.00,8.00,30.00,SCT,M,M,M,9500.00,M,M,M,DRSN,M,M,M,M,M,M,-35.80,CYWG 120900Z 01025G30KT 8SM DRSN SCT095 M22/M26 A3000 RMK AC4 OCNL BLSN PRESRR SLP180
CWCF,2020-02-12 09:00,-97.0219,52.3597,222.00,-24.00,-32.80,62.05,350.00,7.00,0.00,M,1024.40,M,M,M,M,M,M,M,M,M,M,M,M,M,M,M,M,M,-43.48,CWCF 120900Z AUTO 35007KT M31/M36 RMK AO1 SOG 27 3047 SLP244 T13111360
CWEQ,2020-02-12 09:00,-101.2331,52.1150,335.00,-18.80,-24.70,73.42,50.00,10.00,0.00,M,1028.20,M,M,M,M,M,M,M,M,M,M,M,M,M,M,M,M,M,-40.74,CWEQ 120900Z AUTO 05010KT M28/M32 RMK AO1 SOG 06 3048 SLP282 T12821315
CWGX,2020-02-12 09:00,-94.7000,56.3667,145.00,-35.70,-42.70,66.88,300.00,9.00,0.00,M,1022.70,M,M,M,M,M,M,M,M,M,M,M,M,M,M,M,M,M,-60.67,CWGX 120900Z AUTO 30009KT M38/M42 RMK AO1 SOG 31 1013 SLP227 T13761415
CWII,2020-02-12 09:00,-96.5622,50.6951,220.00,-11.60,-17.50,74.25,350.00,14.00,0.00,M,1019.60,M,22.00,M,M,M,M,M,M,M,M,M,M,M,M,26.00,340.00,2020-02-12 08:30,-35.04,CWII 120900Z AUTO 35014G22KT M24/M28 RMK AO1 PK WND 34026/0830 SLP196 T12421275 51062
CWJD,2020-02-12 09:00,-99.2678,53.1864,223.00,-26.00,-33.30,67.13,320.00,3.00,0.00,M,1029.00,M,M,M,M,M,M,M,M,M,M,M,M,M,M,M,M,M,-37.62,CWJD 120900Z AUTO 32003KT M32/M36 RMK AO1 SOG 45 3032 SLP290 T13221363
CWNK,2020-02-12 09:00,-98.0297,49.4981,268.00,-6.90,-10.30,84.66,M,M,0.00,M,M,M,M,M,M,M,M,M,M,M,M,M,M,M,M,M,M,M,M,CWNK 120900Z AUTO M22/M24 RMK AO1 29 0808Z T12161235 50002
CWPO,2020-02-12 09:00,-98.9050,49.1911,470.00,-6.70,-13.40,71.86,20.00,22.00,0.00,M,1019.40,M,29.00,M,M,M,M,M,M,M,M,M,M,M,M,33.00,20.00,2020-02-12 08:35,-33.24,CWPO 120900Z AUTO 02022G29KT M22/M25 RMK AO1 PRESRR SOG 17 3062 PK WND 02033/0835 SLP194 T12151252
CXGH,2020-02-12 09:00,-96.9822,50.6311,217.00,-12.50,-19.10,71.52,350.00,13.00,0.00,M,1018.50,M,19.00,M,M,M,M,M,M,M,M,M,M,M,M,26.00,340.00,2020-02-12 08:25,-35.44,CXGH 120900Z AUTO 35013G19KT M25/M28 RMK AO1 PRESRR PK WND 34026/0825 SLP185 T12471284 51062
CXWN,2020-02-12 09:00,-97.1296,49.8885,230.00,-6.90,-12.80,74.77,350.00,11.00,0.00,M,1018.20,M,22.00,M,M,M,M,M,M,M,M,M,M,M,M,25.00,0.00,2020-02-12 08:06,-26.69,CXWN 120900Z AUTO 35011G22KT M22/M25 RMK AO1 PRESRR PK WND 00025/0806 SLP182 T12161249 52072
CYBR,2020-02-12 09:00,-99.9519,49.9100,409.00,-5.80,-16.60,58.51,30.00,17.00,0.00,30.05,1021.50,15.00,23.00,SCT,BKN,M,M,5800.00,25000.00,M,M,DRSN,M,M,M,M,M,M,-29.44,CYBR 120900Z 03017G23KT 15SM DRSN SCT058 BKN250 M21/M27 A3005 RMK SC3CI2 PRESRR SLP215
CYDN,2020-02-12 09:00,-100.0525,51.1008,305.00,-14.80,-22.00,69.03,10.00,20.00,0.00,30.20,1025.90,2.50,25.00,CLR,M,M,M,M,M,M,M,HZ,M,M,M,M,M,M,-43.02,CYDN 120900Z AUTO 01020G25KT 2 1/2SM HZ CLR M26/M30 A3020 RMK VIS VRB 1 3/4-3 PRESRR SLP259
CYIV,2020-02-12 09:00,-94.6537,53.8571,237.00,-29.20,-36.40,67.05,300.00,6.00,0.00,30.11,1023.10,15.00,M,CLR,M,M,M,M,M,M,M,M,M,M,M,M,M,M,-48.18,CYIV 120900Z 30006KT 15SM SKC M34/M38 A3011 RMK SLP231
CYNE,2020-02-12 09:00,-97.8442,53.9583,223.00,-27.40,-34.60,67.31,330.00,5.00,0.00,30.22,1026.70,9.00,M,CLR,M,M,M,M,M,M,M,M,M,M,M,M,M,M,-44.15,CYNE 120900Z AUTO 33005KT 9SM CLR M33/M37 A3022 RMK SLP267
CYQD,2020-02-12 09:00,-101.0911,53.9714,271.00,-25.60,-34.60,61.10,310.00,9.00,0.00,30.33,1030.70,9.00,16.00,CLR,M,M,M,M,M,M,M,M,M,M,M,M,M,M,-48.11,CYQD 120900Z AUTO 31009G16KT 9SM CLR M32/M37 A3033 RMK SLP307
CYTH,2020-02-12 09:00,-97.8642,55.8011,218.00,-31.00,-38.20,66.79,310.00,5.00,0.00,30.19,1026.30,15.00,M,CLR,M,M,M,M,M,M,M,M,M,M,M,M,M,M,-48.42,CYTH 120900Z 31005KT 15SM SKC M35/M39 A3019 RMK SLP263
CYYL,2020-02-12 09:00,-101.0761,56.8639,357.00,-31.00,-38.20,66.79,310.00,8.00,0.00,30.25,1030.40,9.00,M,CLR,M,M,M,M,M,M,M,M,M,M,M,M,M,M,-53.49,CYYL 120900Z AUTO 31008KT 9SM CLR M35/M39 A3025 RMK SLP304
CYYQ,2020-02-12 09:00,-94.0650,58.7392,29.00,-29.20,-34.60,74.20,310.00,15.00,0.00,30.06,1018.60,0.75,22.00,VV ,M,M,M,500.00,M,M,M,IC BLSN,M,M,M,M,M,M,-58.56,CYYQ 120900Z 31015G22KT 3/4SM IC BLSN VV005 M34/M37 A3006 RMK BLSN8 SLP186
CYGX,2020-02-12 09:00,-94.7106,56.3575,145.00,-36.40,-43.60,65.99,290.00,9.00,0.00,30.12,1022.60,15.00,M,CLR,M,M,M,M,M,M,M,M,M,M,M,M,M,M,-61.54,CYGX 120900Z 29009KT 15SM SKC M38/M42 A3012 RMK SLP226
CYBQ,2020-02-12 09:00,-98.5122,58.7061,281.00,-27.40,-34.60,67.31,310.00,12.00,0.00,30.08,1023.60,1.75,21.00,OVC,M,M,M,2900.00,M,M,M,-SN,M,M,M,M,M,M,-53.60,CYBQ 120900Z AUTO 31012G21KT 1 3/4SM -SN OVC029 M33/M37 A3008 RMK SLP236
CYDN,2020-02-12 09:09,-100.0525,51.1008,305.00,-14.80,-22.00,69.03,20.00,17.00,0.00,30.21,1026.10,3.00,25.00,CLR,M,M,M,M,M,M,M,HZ,M,M,M,M,M,M,-41.24,CYDN 120909Z AUTO 02017G25KT 3SM HZ CLR M26/M30 A3021 RMK PRESRR SLP261
CYDN,2020-02-12 09:18,-100.0525,51.1008,305.00,-16.60,-22.00,75.63,10.00,17.00,0.00,30.22,1026.50,6.00,22.00,CLR,M,M,M,M,M,M,M,HZ,M,M,M,M,M,M,-43.59,CYDN 120918Z AUTO 01017G22KT 6SM HZ CLR M27/M30 A3022 RMK PRESRR SLP265
CYYQ,2020-02-12 09:20,-94.0650,58.7392,29.00,-29.20,-34.60,74.20,310.00,15.00,0.00,30.05,1018.50,1.00,22.00,VV ,M,M,M,500.00,M,M,M,IC BLSN,M,M,M,M,M,M,-58.56,CYYQ 120920Z 31015G22KT 1SM IC BLSN VV005 M34/M37 A3005 RMK BLSN8 SLP185
CYBQ,2020-02-12 09:25,-98.5122,58.7061,281.00,-25.60,-34.60,61.10,310.00,13.00,0.00,30.09,1024.00,3.00,21.00,BKN,BKN,M,M,3500.00,7000.00,M,M,-SN,M,M,M,M,M,M,-52.22,CYBQ 120925Z AUTO 31013G21KT 3SM -SN BKN035 BKN070 M32/M37 A3009 RMK SLP240
CYBQ,2020-02-12 09:28,-98.5122,58.7061,281.00,-25.60,-34.60,61.10,310.00,13.00,0.00,30.09,1024.00,5.00,20.00,BKN,BKN,M,M,3700.00,9000.00,M,M,HZ,M,M,M,M,M,M,-52.22,CYBQ 120928Z AUTO 31013G20KT 5SM HZ BKN037 BKN090 M32/M37 A3009 RMK SLP240
CYBQ,2020-02-12 09:29,-98.5122,58.7061,281.00,-25.60,-34.60,61.10,310.00,13.00,0.00,30.09,1024.00,6.00,20.00,BKN,BKN,M,M,3700.00,9000.00,M,M,HZ,M,M,M,M,M,M,-52.22,CYBQ 120929Z AUTO 31013G20KT 6SM HZ BKN037 BKN090 M32/M37 A3009 RMK SLP240
CYDN,2020-02-12 09:44,-100.0525,51.1008,305.00,-16.60,-23.80,68.79,10.00,20.00,0.00,30.25,1027.40,5.00,25.00,CLR,M,M,M,M,M,M,M,HZ,M,M,M,M,M,M,-45.41,CYDN 120944Z AUTO 01020G25KT 5SM HZ CLR M27/M31 A3025 RMK PRESRR SLP274
CYDN,2020-02-12 09:49,-100.0525,51.1008,305.00,-16.60,-23.80,68.79,20.00,20.00,0.00,30.25,1027.40,3.00,26.00,CLR,M,M,M,M,M,M,M,-SN,M,M,M,M,M,M,-45.41,CYDN 120949Z AUTO 02020G26KT 3SM -SN CLR M27/M31 A3025 RMK SLP274
CYDN,2020-02-12 09:58,-100.0525,51.1008,305.00,-16.60,-23.80,68.79,20.00,17.00,0.00,30.26,1027.70,7.00,22.00,CLR,M,M,M,M,M,M,M,-SN,M,M,M,M,M,M,-43.59,CYDN 120958Z AUTO 02017G22KT 7SM -SN CLR M27/M31 A3026 RMK SLP277
CYDN,2020-02-12 09:59,-100.0525,51.1008,305.00,-16.60,-23.80,68.79,20.00,18.00,0.00,30.26,1027.70,9.00,23.00,CLR,M,M,M,M,M,M,M,M,M,M,M,M,M,M,-44.23,CYDN 120959Z AUTO 02018G23KT 9SM CLR M27/M31 A3026 RMK SLP277
CWWS,2020-02-12 10:00,-97.6164,52.8186,223.00,-24.50,-30.60,71.94,M,M,0.00,M,1027.30,M,M,M,M,M,M,M,M,M,M,M,M,M,M,M,M,M,M,CWWS 121000Z AUTO M31/M35 RMK AO1 26 0907Z SOG 01 2037 SLP273 T13141348 50001
CXMD,2020-02-12 10:00,-98.0839,49.1878,301.00,-7.60,-13.00,76.59,350.00,18.00,0.00,M,1020.10,M,26.00,M,M,M,M,M,M,M,M,M,M,M,M,29.00,10.00,2020-02-12 09:00,-32.38,CXMD 121000Z AUTO 35018G26KT M22/M25 RMK AO1 PRESRR SOG 09 3065 PK WND 01029/0900 SLP201 T12201250 50002
CYWG,2020-02-12 10:00,-97.2333,49.9167,239.00,-11.20,-20.20,63.32,360.00,19.00,0.00,30.06,1020.40,8.00,29.00,FEW,M,M,M,7500.00,M,M,M,DRSN,M,M,M,M,M,M,-37.69,CYWG 121000Z 36019G29KT 8SM DRSN FEW075 M24/M29 A3006 RMK AC1 AC TR OCNL BLSN PRESRR SLP204
CWCF,2020-02-12 10:00,-97.0219,52.3597,222.00,-25.40,-34.40,61.14,350.00,5.00,0.01,M,1025.70,M,M,M,M,M,M,M,M,M,M,M,M,M,M,M,M,M,-41.77,CWCF 121000Z AUTO 35005KT M32/M37 RMK AO1 2PAST HR SOG 27 1046 SLP257 P0001 T13191369 50002
CWEQ,2020-02-12 10:00,-101.2331,52.1150,335.00,-20.00,-27.40,67.60,80.00,3.00,0.00,M,1029.50,M,M,M,M,M,M,M,M,M,M,M,M,M,M,M,M,M,-30.76,CWEQ 121000Z AUTO 08003KT M29/M33 RMK AO1 SOG 06 1045 SLP295 T12891330
CWGX,2020-02-12 10:00,-94.7000,56.3667,145.00,-35.10,-43.60,61.33,300.00,9.00,0.00,M,1023.00,M,M,M,M,M,M,M,M,M,M,M,M,M,M,M,M,M,-59.92,CWGX 121000Z AUTO 30009KT M37/M42 RMK AO1 SOG 31 1010 SLP230 T13731420
CWII,2020-02-12 10:00,-96.5622,50.6951,220.00,-15.30,-24.00,63.71,360.00,13.00,0.00,M,1021.90,M,21.00,M,M,M,M,M,M,M,M,M,M,M,M,23.00,340.00,2020-02-12 09:19,-39.03,CWII 121000Z AUTO 36013G21KT M26/M31 RMK AO1 PRESRR PK WND 34023/0919 SLP219 T12631311 53061
CWJD,2020-02-12 10:00,-99.2678,53.1864,223.00,-26.00,-33.00,68.26,320.00,5.00,0.00,M,1029.70,M,M,M,M,M,M,M,M,M,M,M,M,M,M,M,M,M,-42.49,CWJD 121000Z AUTO 32005KT M32/M36 RMK AO1 SOG 45 1027 SLP297 T13221361
CWNK,2020-02-12 10:00,-98.0297,49.4981,268.00,-8.50,-16.10,68.44,M,M,0.00,M,M,M,M,M,M,M,M,M,M,M,M,M,M,M,M,M,M,M,M,CWNK 121000Z AUTO M23/M27 RMK AO1 30 0921Z T12251267 50002
CWPO,2020-02-12 10:00,-98.9050,49.1911,470.00,-9.90,-17.10,69.67,10.00,21.00,0.00,M,1021.40,M,29.00,M,M,M,M,M,M,M,M,M,M,M,M,29.00,0.00,2020-02-12 09:45,-37.03,CWPO 121000Z AUTO 01021G29KT M23/M27 RMK AO1 SOG 17 2059 PK WND 00029/0945 SLP214 T12331273
CXGH,2020-02-12 10:00,-96.9822,50.6311,217.00,-15.00,-23.30,65.12,360.00,17.00,0.00,M,1020.70,M,25.00,M,M,M,M,M,M,M,M,M,M,M,M,25.00,350.00,2020-02-12 09:39,-41.50,CXGH 121000Z AUTO 36017G25KT M26/M31 RMK AO1 PRESRR PK WND 35025/0939 SLP207 T12611307 53061
CXWN,2020-02-12 10:00,-97.1296,49.8885,230.00,-10.50,-17.00,72.13,350.00,10.00,0.00,M,1020.30,M,17.00,M,M,M,M,M,M,M,M,M,M,M,M,21.00,350.00,2020-02-12 09:45,-30.33,CXWN 121000Z AUTO 35010G17KT M24/M27 RMK AO1 PK WND 35021/0945 SLP203 T12361272 51066
CYBR,2020-02-12 10:00,-99.9519,49.9100,409.00,-11.20,-20.20,63.32,50.00,8.00,0.00,30.11,1023.80,15.00,15.00,FEW,M,M,M,25000.00,M,M,M,M,M,M,M,M,M,M,-29.10,CYBR 121000Z 05008G15KT 15SM FEW250 M24/M29 A3011 RMK CI2 SLP238
CYDN,2020-02-12 10:00,-100.0525,51.1008,305.00,-16.60,-23.80,68.79,20.00,18.00,0.00,30.26,1027.70,9.00,23.00,CLR,M,M,M,M,M,M,M,M,M,M,M,M,M,M,-44.23,CYDN 121000Z AUTO 02018G23KT 9SM CLR M27/M31 A3026 RMK SLP277
CYIV,2020-02-12 10:00,-94.6537,53.8571,237.00,-31.00,-38.20,66.79,280.00,6.00,0.00,30.13,1024.10,15.00,M,CLR,M,M,M,M,M,M,M,M,M,M,M,M,M,M,-50.34,CYIV 121000Z 28006KT 15SM SKC M35/M39 A3013 RMK SLP241
CYNE,2020-02-12 10:00,-97.8442,53.9583,223.00,-29.20,-34.60,74.20,310.00,6.00,0.00,30.24,1027.60,9.00,M,CLR,M,M,M,M,M,M,M,M,M,M,M,M,M,M,-48.18,CYNE 121000Z AUTO 31006KT 9SM CLR M34/M37 A3024 RMK SLP276
CYQD,2020-02-12 10:00,-101.0911,53.9714,271.00,-27.40,-34.60,67.31,300.00,9.00,0.00,30.35,1031.40,9.00,M,CLR,M,M,M,M,M,M,M,M,M,M,M,M,M,M,-50.35,CYQD 121000Z AUTO 30009KT 9SM CLR M33/M37 A3035 RMK SLP314
CYTH,2020-02-12 10:00,-97.8642,55.8011,218.00,-31.00,-38.20,66.79,300.00,7.00,0.00,30.20,1026.70,15.00,M,CLR,M,M,M,M,M,M,M,M,M,M,M,M,M,M,-52.01,CYTH 121000Z 30007KT 15SM SKC M35/M39 A3020 RMK SLP267
CYYL,2020-02-12 10:00,-101.0761,56.8639,357.00,-31.00,-38.20,66.79,300.00,13.00,0.00,30.25,1030.30,9.00,18.00,CLR,M,M,M,M,M,M,M,M,M,M,M,M,M,M,-59.14,CYYL 121000Z AUTO 30013G18KT 9SM CLR M35/M39 A3025 RMK SLP303
CYYQ,2020-02-12 10:00,-94.0650,58.7392,29.00,-27.40,-32.80,74.41,310.00,17.00,0.00,30.05,1018.30,1.50,M,VV ,M,M,M,900.00,M,M,M,IC BLSN,M,M,M,M,M,M,-57.74,CYYQ 121000Z 31017KT 1 1/2SM IC BLSN VV009 M33/M36 A3005 RMK BLSN8 SLP183
CYGX,2020-02-12 10:00,-94.7106,56.3575,145.00,-36.40,-41.80,73.33,280.00,9.00,0.00,30.12,1022.90,15.00,M,CLR,M,M,M,M,M,M,M,M,M,M,M,M,M,M,-61.54,CYGX 121000Z 28009KT 15SM SKC M38/M41 A3012 RMK SLP229
CYBQ,2020-02-12 10:00,-98.5122,58.7061,281.00,-25.60,-32.80,67.56,300.00,13.00,0.00,30.08,1023.80,9.00,21.00,OVC,M,M,M,9000.00,M,M,M,M,M,M,M,M,M,M,-52.22,CYBQ 121000Z AUTO 30013G21KT 9SM OVC090 M32/M36 A3008 RMK SLP238
CYYQ,2020-02-12 10:18,-94.0650,58.7392,29.00,-25.60,-31.00,74.62,310.00,17.00,0.00,30.05,1018.30,1.00,22.00,VV ,M,M,M,1300.00,M,M,M,IC BLSN,M,M,M,M,M,M,-55.38,CYYQ 121018Z 31017G22KT 1SM IC BLSN VV013 M32/M35 A3005 RMK BLSN8 SLP183
CWWS,2020-02-12 11:00,-97.6164,52.8186,223.00,-25.10,-31.20,71.86,M,M,0.00,M,1028.30,M,M,M,M,M,M,M,M,M,M,M,M,M,M,M,M,M,M,CWWS 121100Z AUTO M32/M35 RMK AO1 26 SOG 01 1034 SLP283 T13171351 50001
CXMD,2020-02-12 11:00,-98.0839,49.1878,301.00,-11.70,-18.00,72.73,360.00,18.00,0.00,M,1022.20,M,27.00,M,M,M,M,M,M,M,M,M,M,M,M,27.00,10.00,2020-02-12 10:54,-37.78,CXMD 121100Z AUTO 36018G27KT M24/M28 RMK AO1 SOG 22 1063 PK WND 01027/1054 SLP222 T12431278 50002
CYWG,2020-02-12 11:00,-97.2333,49.9167,239.00,-14.80,-23.80,62.78,350.00,17.00,0.00,30.12,1022.30,10.00,28.00,FEW,M,M,M,7500.00,M,M,M,DRSN,M,M,M,M,M,M,-41.24,CYWG 121100Z 35017G28KT 10SM DRSN FEW075 M26/M31 A3012 RMK AC1 AC TR SLP223
CWCF,2020-02-12 11:00,-97.0219,52.3597,222.00,-26.30,-34.80,62.73,330.00,7.00,0.00,M,1026.90,M,M,M,M,M,M,M,M,M,M,M,M,M,M,M,M,M,-46.28,CWCF 121100Z AUTO 33007KT M32/M37 RMK AO1 SOG 27 1039 SLP269 T13241371 50002
CWEQ,2020-02-12 11:00,-101.2331,52.1150,335.00,-21.80,-28.70,69.21,90.00,2.00,0.00,M,1030.80,M,M,M,M,M,M,M,M,M,M,M,M,M,M,M,M,M,M,CWEQ 121100Z AUTO 09002KT M30/M34 RMK AO1 SOG 06 1038 SLP308 T12991337
CWGX,2020-02-12 11:00,-94.7000,56.3667,145.00,-34.20,-42.70,61.47,290.00,9.00,0.00,M,1022.90,M,M,M,M,M,M,M,M,M,M,M,M,M,M,M,M,M,-58.80,CWGX 121100Z AUTO 29009KT M37/M42 RMK AO1 SOG 31 0005 SLP229 T13681415
CWII,2020-02-12 11:00,-96.5622,50.6951,220.00,-17.90,-26.70,62.99,360.00,12.00,0.00,M,1023.80,M,19.00,M,M,M,M,M,M,M,M,M,M,M,M,22.00,0.00,2020-02-12 10:21,-41.51,CWII 121100Z AUTO 36012G19KT M28/M33 RMK AO1 PK WND 00022/1021 SLP238 T12771326 51059
CWJD,2020-02-12 11:00,-99.2678,53.1864,223.00,-26.30,-31.90,73.72,320.00,4.00,0.00,M,1030.50,M,M,M,M,M,M,M,M,M,M,M,M,M,M,M,M,M,-40.66,CWJD 121100Z AUTO 32004KT M32/M36 RMK AO1 SOG 45 1025 SLP305 T13241355
CWNK,2020-02-12 11:00,-98.0297,49.4981,268.00,-13.70,-20.60,70.26,M,M,0.00,M,M,M,M,M,M,M,M,M,M,M,M,M,M,M,M,M,M,M,M,CWNK 121100Z AUTO M25/M29 RMK AO1 28 T12541292 50002
CWPO,2020-02-12 11:00,-98.9050,49.1911,470.00,-14.10,-21.30,69.12,10.00,21.00,0.00,M,1023.20,M,29.00,M,M,M,M,M,M,M,M,M,M,M,M,29.00,20.00,2020-02-12 10:01,-42.63,CWPO 121100Z AUTO 01021G29KT M26/M30 RMK AO1 SOG 17 1057 PK WND 02029/1001 SLP232 T12561296
CXGH,2020-02-12 11:00,-96.9822,50.6311,217.00,-17.00,-25.20,65.18,360.00,15.00,0.00,M,1022.80,M,22.00,M,M,M,M,M,M,M,M,M,M,M,M,25.00,350.00,2020-02-12 10:34,-42.74,CXGH 121100Z AUTO 36015G22KT M27/M32 RMK AO1 PK WND 35025/1034 SLP228 T12721318 51061
CXWN,2020-02-12 11:00,-97.1296,49.8885,230.00,-13.90,-20.90,69.87,340.00,10.00,0.00,M,1022.40,M,19.00,M,M,M,M,M,M,M,M,M,M,M,M,22.00,0.00,2020-02-12 10:37,-34.59,CXWN 121100Z AUTO 34010G19KT M26/M29 RMK AO1 PK WND 00022/1037 SLP224 T12551294 51065
CYBR,2020-02-12 11:00,-99.9519,49.9100,409.00,-13.00,-23.80,57.35,30.00,10.00,0.00,30.16,1025.40,15.00,M,FEW,M,M,M,25000.00,M,M,M,M,M,M,M,M,M,M,-33.46,CYBR 121100Z 03010KT 15SM FEW250 M25/M31 A3016 RMK CI2 SLP254
CYDN,2020-02-12 11:00,-100.0525,51.1008,305.00,-18.40,-25.60,68.55,360.00,6.00,0.00,30.30,1029.30,9.00,M,CLR,M,M,M,M,M,M,M,M,M,M,M,M,M,M,-35.17,CYDN 121100Z AUTO 36006KT 9SM CLR M28/M32 A3030 RMK SLP293
CYIV,2020-02-12 11:00,-94.6537,53.8571,237.00,-32.80,-38.20,73.77,280.00,7.00,0.00,30.15,1024.80,15.00,M,CLR,M,M,M,M,M,M,M,M,M,M,M,M,M,M,-54.21,CYIV 121100Z 28007KT 15SM SKC M36/M39 A3015 RMK SLP248
CYNE,2020-02-12 11:00,-97.8442,53.9583,223.00,-29.20,-36.40,67.05,300.00,5.00,0.00,30.26,1028.20,9.00,M,CLR,M,M,M,M,M,M,M,M,M,M,M,M,M,M,-46.29,CYNE 121100Z AUTO 30005KT 9SM CLR M34/M38 A3026 RMK SLP282
CYQD,2020-02-12 11:00,-101.0911,53.9714,271.00,-27.40,-34.60,67.31,300.00,9.00,0.00,30.37,1032.20,9.00,M,CLR,M,M,M,M,M,M,M,M,M,M,M,M,M,M,-50.35,CYQD 121100Z AUTO 30009KT 9SM CLR M33/M37 A3037 RMK SLP322
CYTH,2020-02-12 11:00,-97.8642,55.8011,218.00,-29.20,-36.40,67.05,300.00,8.00,0.00,30.20,1026.80,15.00,M,CLR,M,M,M,M,M,M,M,M,M,M,M,M,M,M,-51.27,CYTH 121100Z 30008KT 15SM SKC M34/M38 A3020 RMK SLP268
CYYL,2020-02-12 11:00,-101.0761,56.8639,357.00,-31.00,-38.20,66.79,300.00,10.00,0.00,30.25,1030.40,9.00,16.00,CLR,M,M,M,M,M,M,M,M,M,M,M,M,M,M,-56.03,CYYL 121100Z AUTO 30010G16KT 9SM CLR M35/M39 A3025 RMK SLP304
CYYQ,2020-02-12 11:00,-94.0650,58.7392,29.00,-25.60,-31.00,74.62,300.00,17.00,0.00,30.05,1018.20,1.50,23.00,VV ,M,M,M,1800.00,M,M,M,IC BLSN,M,M,M,M,M,M,-55.38,CYYQ 121100Z 30017G23KT 1 1/2SM IC BLSN VV018 M32/M35 A3005 RMK BLSN8 SLP182
CYGX,2020-02-12 11:00,-94.7106,56.3575,145.00,-34.60,-41.80,66.26,280.00,9.00,0.00,30.12,1022.90,14.00,M,CLR,M,M,M,M,M,M,M,M,M,M,M,M,M,M,-59.30,CYGX 121100Z 28009KT 14SM SKC M37/M41 A3012 RMK SLP229
CYBQ,2020-02-12 11:00,-98.5122,58.7061,281.00,-23.80,-32.80,61.39,310.00,10.00,0.00,30.08,1023.70,9.00,20.00,BKN,OVC,M,M,7500.00,8700.00,M,M,M,M,M,M,M,M,M,-47.01,CYBQ 121100Z AUTO 31010G20KT 9SM BKN075 OVC087 M31/M36 A3008 RMK SLP237
CYBQ,2020-02-12 11:11,-98.5122,58.7061,281.00,-23.80,-32.80,61.39,300.00,13.00,0.00,30.06,1023.20,8.00,23.00,BKN,OVC,M,M,7000.00,8700.00,M,M,-SN,M,M,M,M,M,M,-49.92,CYBQ 121111Z AUTO 30013G23KT 8SM -SN BKN070 OVC087 M31/M36 A3006 RMK PRESFR SLP232
CYBQ,2020-02-12 11:21,-98.5122,58.7061,281.00,-23.80,-32.80,61.39,300.00,11.00,0.00,30.06,1023.20,9.00,21.00,BKN,OVC,M,M,6000.00,7500.00,M,M,M,M,M,M,M,M,M,-48.05,CYBQ 121121Z AUTO 30011G21KT 9SM BKN060 OVC075 M31/M36 A3006 RMK SLP232
CWWS,2020-02-12 12:00,-97.6164,52.8186,223.00,-25.60,-31.90,71.01,M,M,0.00,M,1029.20,M,M,M,M,M,M,M,M,M,M,M,M,M,M,M,M,M,M,CWWS 121200Z AUTO M32/M36 RMK AO1 24 SOG 01 1029 SLP292 T13201355 50001
CXMD,2020-02-12 12:00,-98.0839,49.1878,301.00,-14.60,-20.90,72.38,350.00,16.00,0.00,M,1024.10,M,23.00,M,M,M,M,M,M,M,M,M,M,M,M,25.00,0.00,2020-02-12 11:19,-40.32,CXMD 121200Z AUTO 35016G23KT M26/M29 RMK AO1 SOG 09 1057 PK WND 00025/1119 SLP241 T12591294 50002
CYWG,2020-02-12 12:00,-97.2333,49.9167,239.00,-16.60,-25.60,62.51,360.00,16.00,0.00,30.18,1024.70,15.00,25.00,FEW,M,M,M,7500.00,M,M,M,DRSN,M,M,M,M,M,M,-42.93,CYWG 121200Z 36016G25KT 15SM DRSN FEW075 M27/M32 A3018 RMK AC1 PRESRR SLP247
CWCF,2020-02-12 12:00,-97.0219,52.3597,222.00,-27.00,-35.00,64.41,320.00,5.00,0.00,M,1028.20,M,M,M,M,M,M,M,M,M,M,M,M,M,M,M,M,M,-43.67,CWCF 121200Z AUTO 32005KT M33/M37 RMK AO1 SOG 27 2034 SLP282 T13281372 50002
CWEQ,2020-02-12 12:00,-101.2331,52.1150,335.00,-24.70,-32.80,64.39,170.00,1.00,0.00,M,1032.10,M,M,M,M,M,M,M,M,M,M,M,M,M,M,M,M,M,M,CWEQ 121200Z AUTO 17001KT M32/M36 RMK AO1 SOG 06 1031 SLP321 T13151360
CWGX,2020-02-12 12:00,-94.7000,56.3667,145.00,-31.90,-42.00,56.35,290.00,8.00,0.00,M,1023.00,M,M,M,M,M,M,M,M,M,M,M,M,M,M,M,M,M,-54.60,CWGX 121200Z AUTO 29008KT M36/M41 RMK AO1 SOG 31 1002 SLP230 T13551411
CWII,2020-02-12 12:00,-96.5622,50.6951,220.00,-19.30,-26.90,66.97,350.00,13.00,0.00,M,1025.50,M,20.00,M,M,M,M,M,M,M,M,M,M,M,M,20.00,340.00,2020-02-12 11:52,-44.15,CWII 121200Z AUTO 35013G20KT M29/M33 RMK AO1 PK WND 34020/1152 SLP255 T12851327 51056
CWJD,2020-02-12 12:00,-99.2678,53.1864,223.00,-26.70,-34.20,66.28,310.00,7.00,0.00,M,1031.30,M,M,M,M,M,M,M,M,M,M,M,M,M,M,M,M,M,-46.77,CWJD 121200Z AUTO 31007KT M33/M37 RMK AO1 SOG 45 3019 SLP313 T13261368
CWNK,2020-02-12 12:00,-98.0297,49.4981,268.00,-16.40,-23.40,69.55,M,M,0.00,M,M,M,M,M,M,M,M,M,M,M,M,M,M,M,M,M,M,M,M,CWNK 121200Z AUTO M27/M31 RMK AO1 27 T12691308 50002
CWPO,2020-02-12 12:00,-98.9050,49.1911,470.00,-16.80,-23.30,71.36,360.00,20.00,0.00,M,1024.90,M,26.00,M,M,M,M,M,M,M,M,M,M,M,M,26.00,0.00,2020-02-12 11:55,-45.68,CWPO 121200Z AUTO 36020G26KT M27/M31 RMK AO1 SOG 17 1048 PK WND 00026/1155 SLP249 T12711307
CXGH,2020-02-12 12:00,-96.9822,50.6311,217.00,-20.20,-28.30,65.06,350.00,14.00,0.00,M,1024.70,M,21.00,M,M,M,M,M,M,M,M,M,M,M,M,21.00,350.00,2020-02-12 11:53,-46.12,CXGH 121200Z AUTO 35014G21KT M29/M34 RMK AO1 PK WND 35021/1153 SLP247 T12901335 51058
CXWN,2020-02-12 12:00,-97.1296,49.8885,230.00,-16.20,-23.60,68.12,350.00,10.00,0.00,M,1024.50,M,21.00,M,M,M,M,M,M,M,M,M,M,M,M,21.00,330.00,2020-02-12 11:52,-37.48,CXWN 121200Z AUTO 35010G21KT M27/M31 RMK AO1 PRESRR PK WND 33021/1152 SLP245 T12681309 52060
CYBR,2020-02-12 12:00,-99.9519,49.9100,409.00,-14.80,-25.60,57.05,10.00,10.00,0.00,30.20,1026.90,15.00,M,FEW,M,M,M,25000.00,M,M,M,M,M,M,M,M,M,M,-35.72,CYBR 121200Z 01010KT 15SM FEW250 M26/M32 A3020 RMK CI1 SLP269
CYDN,2020-02-12 12:00,-100.0525,51.1008,305.00,-20.20,-27.40,68.31,10.00,10.00,0.00,30.34,1030.60,9.00,M,CLR,M,M,M,M,M,M,M,M,M,M,M,M,M,M,-42.49,CYDN 121200Z AUTO 01010KT 9SM CLR M29/M33 A3034 RMK SLP306
CYFO,2020-02-12 12:00,-101.6817,54.6781,304.00,-27.40,-34.60,67.31,310.00,7.00,0.00,30.37,1033.10,15.00,M,CLR,M,M,M,M,M,M,M,M,M,M,M,M,M,M,-47.62,CYFO 121200Z 31007KT 280V340 15SM SKC M33/M37 A3037 RMK SNW CVR/MUCH LOOSE SLP331
CYIV,2020-02-12 12:00,-94.6537,53.8571,237.00,-32.80,-40.00,66.53,290.00,8.00,0.00,30.16,1025.40,15.00,M,CLR,M,M,M,M,M,M,M,M,M,M,M,M,M,M,-55.71,CYIV 121200Z 29008KT 15SM SKC M36/M40 A3016 RMK SLP254
CYNE,2020-02-12 12:00,-97.8442,53.9583,223.00,-29.20,-36.40,67.05,300.00,6.00,0.00,30.27,1028.70,9.00,M,CLR,M,M,M,M,M,M,M,M,M,M,M,M,M,M,-48.18,CYNE 121200Z AUTO 30006KT 9SM CLR M34/M38 A3027 RMK SLP287
CYPG,2020-02-12 12:00,-98.2739,49.9031,269.00,-18.40,-23.80,75.44,340.00,22.00,0.00,30.24,1026.50,4.00,27.00,FEW,M,M,M,24000.00,M,M,M,BLSN,M,M,M,M,M,M,-48.91,CYPG 121200Z 34022G27KT 4SM BLSN FEW240 M28/M31 A3024 RMK CI2 FST OBS SLP265
CYQD,2020-02-12 12:00,-101.0911,53.9714,271.00,-25.60,-34.60,61.10,290.00,11.00,0.00,30.38,1032.90,9.00,M,CLR,M,M,M,M,M,M,M,M,M,M,M,M,M,M,-50.32,CYQD 121200Z AUTO 29011KT 9SM CLR M32/M37 A3038 RMK SLP329
CYTH,2020-02-12 12:00,-97.8642,55.8011,218.00,-29.20,-38.20,60.52,280.00,8.00,0.00,30.21,1027.10,15.00,M,CLR,M,M,M,M,M,M,M,M,M,M,M,M,M,M,-51.27,CYTH 121200Z 28008KT 15SM SKC M34/M39 A3021 RMK SLP271
CYYQ,2020-02-12 12:00,-94.0650,58.7392,29.00,-22.00,-27.40,75.04,310.00,15.00,0.00,30.05,1018.20,1.50,M,VV ,M,M,M,1300.00,M,M,M,IC BLSN,M,M,M,M,M,M,-49.23,CYYQ 121200Z 31015KT 1 1/2SM IC BLSN VV013 M30/M33 A3005 RMK BLSN8 SLP182
CYGX,2020-02-12 12:00,-94.7106,56.3575,145.00,-34.60,-41.80,66.26,270.00,9.00,0.00,30.13,1023.00,15.00,M,CLR,M,M,M,M,M,M,M,M,M,M,M,M,M,M,-59.30,CYGX 121200Z 27009KT 15SM SKC M37/M41 A3013 RMK SLP230
CYBQ,2020-02-12 12:00,-98.5122,58.7061,281.00,-23.80,-31.00,67.81,300.00,12.00,0.00,30.07,1023.40,9.00,20.00,OVC,M,M,M,5000.00,M,M,M,M,M,M,M,M,M,M,-49.02,CYBQ 121200Z AUTO 30012G20KT 9SM OVC050 M31/M35 A3007 RMK SLP234
CYBQ,2020-02-12 12:14,-98.5122,58.7061,281.00,-23.80,-31.00,67.81,300.00,8.00,0.00,30.07,1023.40,7.00,17.00,OVC,M,M,M,4400.00,M,M,M,-SN,M,M,M,M,M,M,-44.62,CYBQ 121214Z AUTO 30008G17KT 7SM -SN OVC044 M31/M35 A3007 RMK SLP234
CYBQ,2020-02-12 12:19,-98.5122,58.7061,281.00,-23.80,-31.00,67.81,300.00,11.00,0.00,30.07,1023.40,5.00,16.00,OVC,M,M,M,4000.00,M,M,M,-SN,M,M,M,M,M,M,-48.05,CYBQ 121219Z AUTO 30011G16KT 5SM -SN OVC040 M31/M35 A3007 RMK SLP234
CYBQ,2020-02-12 12:24,-98.5122,58.7061,281.00,-23.80,-31.00,67.81,310.00,9.00,0.00,30.08,1023.60,2.50,16.00,OVC,M,M,M,3400.00,M,M,M,-SN,M,M,M,M,M,M,-45.87,CYBQ 121224Z AUTO 31009G16KT 2 1/2SM -SN OVC034 M31/M35 A3008 RMK SLP236
CYBQ,2020-02-12 12:34,-98.5122,58.7061,281.00,-23.80,-31.00,67.81,300.00,11.00,0.00,30.07,1023.40,1.25,19.00,OVC,M,M,M,2400.00,M,M,M,-SN,M,M,M,M,M,M,-48.05,CYBQ 121234Z AUTO 30011G19KT 1 1/4SM -SN OVC024 M31/M35 A3007 RMK SLP234
CYYQ,2020-02-12 12:37,-94.0650,58.7392,29.00,-22.00,-27.40,75.04,300.00,15.00,0.00,30.06,1018.50,3.00,20.00,VV ,M,M,M,1300.00,M,M,M,IC BLSN,M,M,M,M,M,M,-49.23,CYYQ 121237Z 30015G20KT 3SM IC BLSN VV013 M30/M33 A3006 RMK BLSN8 SLP185
CYYQ,2020-02-12 12:49,-94.0650,58.7392,29.00,-22.00,-29.20,68.06,300.00,17.00,0.00,30.06,1018.60,2.50,M,VV ,M,M,M,1300.00,M,M,M,IC BLSN,M,M,M,M,M,M,-50.67,CYYQ 121249Z 30017KT 2 1/2SM IC BLSN VV013 M30/M34 A3006 RMK BLSN8 SLP186
CYBQ,2020-02-12 12:53,-98.5122,58.7061,281.00,-23.80,-31.00,67.81,300.00,13.00,0.00,30.06,1023.00,1.50,19.00,OVC,M,M,M,2600.00,M,M,M,-SN,M,M,M,M,M,M,-49.92,CYBQ 121253Z AUTO 30013G19KT 1 1/2SM -SN OVC026 M31/M35 A3006 RMK SLP230
CWWS,2020-02-12 13:00,-97.6164,52.8186,223.00,-26.00,-32.10,71.75,M,M,0.00,M,1030.00,M,M,M,M,M,M,M,M,M,M,M,M,M,M,M,M,M,M,CWWS 121300Z AUTO M32/M36 RMK AO1 24 SOG 01 1023 SLP300 T13221356
CXMD,2020-02-12 13:00,-98.0839,49.1878,301.00,-17.10,-23.80,70.57,360.00,17.00,0.01,M,1026.20,M,25.00,M,M,M,M,M,M,M,M,M,M,M,M,26.00,350.00,2020-02-12 12:03,-44.25,CXMD 121300Z AUTO 36017G25KT M27/M31 RMK AO1 2PAST HR SOG 09 3056 PK WND 35026/1203 SLP262 P0001 T12731310 50002
CYWG,2020-02-12 13:00,-97.2333,49.9167,239.00,-20.20,-29.20,61.96,350.00,21.00,0.00,30.22,1026.10,15.00,M,FEW,M,M,M,2000.00,M,M,M,DRSN,M,M,M,M,M,M,-50.77,CYWG 121300Z 35021KT 15SM DRSN FEW020 M29/M34 A3022 RMK SC1 SLP261
CWCF,2020-02-12 13:00,-97.0219,52.3597,222.00,-26.90,-35.00,64.06,330.00,8.00,0.00,M,1029.10,M,M,M,M,M,M,M,M,M,M,M,M,M,M,M,M,M,-48.44,CWCF 121300Z AUTO 33008KT M33/M37 RMK AO1 SOG 27 1029 SLP291 T13271372
CWEQ,2020-02-12 13:00,-101.2331,52.1150,335.00,-24.90,-30.50,73.89,200.00,5.00,0.00,M,1032.90,M,M,M,M,M,M,M,M,M,M,M,M,M,M,M,M,M,-41.18,CWEQ 121300Z AUTO 20005KT M32/M35 RMK AO1 SOG 06 1026 SLP329 T13161347
CWGX,2020-02-12 13:00,-94.7000,56.3667,145.00,-33.20,-41.40,62.72,280.00,8.00,0.00,M,1023.40,M,M,M,M,M,M,M,M,M,M,M,M,M,M,M,M,M,-56.20,CWGX 121300Z AUTO 28008KT M36/M41 RMK AO1 SOG 31 3004 SLP234 T13621408
CWII,2020-02-12 13:00,-96.5622,50.6951,220.00,-21.10,-28.70,66.72,350.00,13.00,0.00,M,1027.30,M,20.00,M,M,M,M,M,M,M,M,M,M,M,M,22.00,340.00,2020-02-12 12:23,-46.46,CWII 121300Z AUTO 35013G20KT M30/M34 RMK AO1 PK WND 34022/1223 SLP273 T12951337 51051
CWJD,2020-02-12 13:00,-99.2678,53.1864,223.00,-27.40,-35.00,65.81,300.00,4.00,0.00,M,1031.90,M,M,M,M,M,M,M,M,M,M,M,M,M,M,M,M,M,-41.94,CWJD 121300Z AUTO 30004KT M33/M37 RMK AO1 SOG 45 1018 SLP319 T13301372
CWNK,2020-02-12 13:00,-98.0297,49.4981,268.00,-18.80,-26.00,68.50,M,M,0.00,M,M,M,M,M,M,M,M,M,M,M,M,M,M,M,M,M,M,M,M,CWNK 121300Z AUTO M28/M32 RMK AO1 24 T12821322
CWPO,2020-02-12 13:00,-98.9050,49.1911,470.00,-18.60,-25.40,70.00,360.00,16.00,0.00,M,1026.80,M,22.00,M,M,M,M,M,M,M,M,M,M,M,M,25.00,350.00,2020-02-12 12:07,-45.53,CWPO 121300Z AUTO 36016G22KT M28/M32 RMK AO1 SOG 17 3048 PK WND 35025/1207 SLP268 T12811319
CXGH,2020-02-12 13:00,-96.9822,50.6311,217.00,-22.00,-28.30,71.47,350.00,14.00,0.00,M,1026.40,M,19.00,M,M,M,M,M,M,M,M,M,M,M,M,21.00,330.00,2020-02-12 12:01,-48.44,CXGH 121300Z AUTO 35014G19KT M30/M34 RMK AO1 PK WND 33021/1201 SLP264 T13001335 51054
CXWN,2020-02-12 13:00,-97.1296,49.8885,230.00,-18.40,-26.00,67.10,350.00,10.00,0.00,M,1026.00,M,19.00,M,M,M,M,M,M,M,M,M,M,M,M,20.00,0.00,2020-02-12 12:29,-40.23,CXWN 121300Z AUTO 35010G19KT M28/M32 RMK AO1 PK WND 00020/1229 SLP260 T12801322 51053
CYBR,2020-02-12 13:00,-99.9519,49.9100,409.00,-16.60,-27.40,56.75,360.00,8.00,0.00,30.26,1029.00,15.00,15.00,FEW,M,M,M,25000.00,M,M,M,M,M,M,M,M,M,M,-35.75,CYBR 121300Z 36008G15KT 15SM FEW250 M27/M33 A3026 RMK CI1 SLP290
CYDN,2020-02-12 13:00,-100.0525,51.1008,305.00,-22.00,-29.20,68.06,250.00,4.00,0.00,30.37,1031.90,9.00,M,CLR,M,M,M,M,M,M,M,M,M,M,M,M,M,M,-35.64,CYDN 121300Z AUTO 25004KT 9SM CLR M30/M34 A3037 RMK SLP319
CYFO,2020-02-12 13:00,-101.6817,54.6781,304.00,-27.40,-34.60,67.31,310.00,5.00,0.00,30.37,1033.50,15.00,M,CLR,M,M,M,M,M,M,M,M,M,M,M,M,M,M,-44.15,CYFO 121300Z 31005KT 280V340 15SM SKC M33/M37 A3037 RMK SLP335
CYIV,2020-02-12 13:00,-94.6537,53.8571,237.00,-32.80,-40.00,66.53,300.00,8.00,0.00,30.18,1026.10,15.00,M,CLR,M,M,M,M,M,M,M,M,M,M,M,M,M,M,-55.71,CYIV 121300Z 30008KT 15SM SKC M36/M40 A3018 RMK SLP261
CYNE,2020-02-12 13:00,-97.8442,53.9583,223.00,-29.20,-36.40,67.05,290.00,5.00,0.00,30.29,1029.30,9.00,M,CLR,M,M,M,M,M,M,M,M,M,M,M,M,M,M,-46.29,CYNE 121300Z AUTO 29005KT 270V330 9SM CLR M34/M38 A3029 RMK SLP293
CYPG,2020-02-12 13:00,-98.2739,49.9031,269.00,-18.40,-27.40,62.24,340.00,22.00,0.00,30.28,1028.10,4.00,27.00,FEW,M,M,M,24000.00,M,M,M,BLSN,M,M,M,M,M,M,-48.91,CYPG 121300Z 34022G27KT 4SM BLSN FEW240 M28/M33 A3028 RMK CI2 SLP281
CYQD,2020-02-12 13:00,-101.0911,53.9714,271.00,-25.60,-34.60,61.10,280.00,10.00,0.00,30.40,1033.50,9.00,M,CLR,M,M,M,M,M,M,M,M,M,M,M,M,M,M,-49.26,CYQD 121300Z AUTO 28010KT 9SM CLR M32/M37 A3040 RMK SLP335
CYTH,2020-02-12 13:00,-97.8642,55.8011,218.00,-29.20,-36.40,67.05,280.00,10.00,0.00,30.21,1027.20,15.00,M,CLR,M,M,M,M,M,M,M,M,M,M,M,M,M,M,-53.78,CYTH 121300Z 28010KT 15SM SKC M34/M38 A3021 RMK SLP272
CYYQ,2020-02-12 13:00,-94.0650,58.7392,29.00,-22.00,-27.40,75.04,310.00,17.00,0.00,30.06,1018.60,2.50,23.00,CLR,M,M,M,M,M,M,M,IC BLSN,M,M,M,M,M,M,-50.67,CYYQ 121300Z 31017G23KT 2 1/2SM IC BLSN SKC M30/M33 A3006 RMK BLSN6 SLP186
CYBV,2020-02-12 13:00,-97.0183,52.3589,222.00,-27.40,-34.60,67.31,340.00,6.00,0.00,30.30,1029.10,15.00,M,CLR,M,M,M,M,M,M,M,M,M,M,M,M,M,M,-46.01,CYBV 121300Z 34006KT 15SM SKC M33/M37 A3030 RMK SNW CVR/MUCH LOOSE SLP291
CYGX,2020-02-12 13:00,-94.7106,56.3575,145.00,-32.80,-40.00,66.53,270.00,8.00,0.00,30.13,1023.30,15.00,M,CLR,M,M,M,M,M,M,M,M,M,M,M,M,M,M,-55.71,CYGX 121300Z 27008KT 15SM SKC M36/M40 A3013 RMK SLP233
CYBQ,2020-02-12 13:00,-98.5122,58.7061,281.00,-23.80,-31.00,67.81,300.00,11.00,0.00,30.06,1023.00,2.00,19.00,OVC,M,M,M,3400.00,M,M,M,-SN,M,M,M,M,M,M,-48.05,CYBQ 121300Z AUTO 30011G19KT 2SM -SN OVC034 M31/M35 A3006 RMK SLP230
CYBQ,2020-02-12 13:20,-98.5122,58.7061,281.00,-23.80,-31.00,67.81,300.00,11.00,0.00,30.06,1023.10,3.00,17.00,OVC,M,M,M,4600.00,M,M,M,-SN,M,M,M,M,M,M,-48.05,CYBQ 121320Z AUTO 30011G17KT 3SM -SN OVC046 M31/M35 A3006 RMK SLP231
CYYQ,2020-02-12 13:28,-94.0650,58.7392,29.00,-22.00,-29.20,68.06,300.00,17.00,0.00,30.06,1018.60,3.00,23.00,CLR,M,M,M,M,M,M,M,IC BLSN,M,M,M,M,M,M,-50.67,CYYQ 121328Z 30017G23KT 3SM IC BLSN SKC M30/M34 A3006 RMK SLP186
CYBQ,2020-02-12 13:38,-98.5122,58.7061,281.00,-23.80,-31.00,67.81,290.00,12.00,0.00,30.06,1022.80,2.50,17.00,OVC,M,M,M,3600.00,M,M,M,-SN,M,M,M,M,M,M,-49.02,CYBQ 121338Z AUTO 29012G17KT 2 1/2SM -SN OVC036 M31/M35 A3006 RMK SLP228
CWWS,2020-02-12 14:00,-97.6164,52.8186,223.00,-25.80,-32.30,70.21,M,M,0.00,M,1030.70,M,M,M,M,M,M,M,M,M,M,M,M,M,M,M,M,M,M,CWWS 121400Z AUTO M32/M36 RMK AO1 23 SOG 01 1020 SLP307 T13211357
CXMD,2020-02-12 14:00,-98.0839,49.1878,301.00,-18.90,-25.60,70.34,350.00,13.00,0.00,M,1028.50,M,20.00,M,M,M,M,M,M,M,M,M,M,M,M,24.00,10.00,2020-02-12 13:22,-43.64,CXMD 121400Z AUTO 35013G20KT M28/M32 RMK AO1 PRESRR SOG 09 3059 PK WND 01024/1322 SLP285 T12831320 50002
CYWG,2020-02-12 14:00,-97.2333,49.9167,239.00,-22.00,-31.00,61.68,350.00,16.00,0.00,30.29,1028.40,15.00,23.00,FEW,M,M,M,1500.00,M,M,M,DRSN,M,M,M,M,M,M,-49.97,CYWG 121400Z 35016G23KT 15SM DRSN FEW015 M30/M35 A3029 RMK SC1 PRESRR SLP284
CWCF,2020-02-12 14:00,-97.0219,52.3597,222.00,-26.50,-34.40,64.85,320.00,8.00,0.00,M,1030.00,M,M,M,M,M,M,M,M,M,M,M,M,M,M,M,M,M,-47.95,CWCF 121400Z AUTO 32008KT M33/M37 RMK AO1 SOG 27 1027 SLP300 T13251369
CWEQ,2020-02-12 14:00,-101.2331,52.1150,335.00,-23.30,-29.40,72.09,240.00,5.00,0.00,M,1033.60,M,M,M,M,M,M,M,M,M,M,M,M,M,M,M,M,M,-39.28,CWEQ 121400Z AUTO 24005KT M31/M34 RMK AO1 SOG 06 1022 SLP336 T13071341
CWGX,2020-02-12 14:00,-94.7000,56.3667,145.00,-32.30,-40.00,64.71,260.00,6.00,0.00,M,1023.60,M,M,M,M,M,M,M,M,M,M,M,M,M,M,M,M,M,-51.91,CWGX 121400Z AUTO 26006KT M36/M40 RMK AO1 SOG 31 3007 SLP236 T13571400
CWII,2020-02-12 14:00,-96.5622,50.6951,220.00,-22.40,-30.50,64.74,350.00,14.00,0.00,M,1028.50,M,24.00,M,M,M,M,M,M,M,M,M,M,M,M,24.00,350.00,2020-02-12 13:50,-48.96,CWII 121400Z AUTO 35014G24KT M30/M35 RMK AO1 PK WND 35024/1350 SLP285 T13021347 51043
CWJD,2020-02-12 14:00,-99.2678,53.1864,223.00,-27.20,-34.80,65.84,290.00,7.00,0.00,M,1032.30,M,M,M,M,M,M,M,M,M,M,M,M,M,M,M,M,M,-47.38,CWJD 121400Z AUTO 29007KT M33/M37 RMK AO1 SOG 45 1015 SLP323 T13291371
CWNK,2020-02-12 14:00,-98.0297,49.4981,268.00,-20.20,-27.20,69.05,M,M,0.00,M,M,M,M,M,M,M,M,M,M,M,M,M,M,M,M,M,M,M,M,CWNK 121400Z AUTO M29/M33 RMK AO1 25 T12901329
CWPO,2020-02-12 14:00,-98.9050,49.1911,470.00,-20.00,-27.60,66.87,360.00,15.00,0.00,M,1029.00,M,21.00,M,M,M,M,M,M,M,M,M,M,M,M,24.00,350.00,2020-02-12 13:10,-46.63,CWPO 121400Z AUTO 36015G21KT M29/M33 RMK AO1 PRESRR SOG 18 3052 PK WND 35024/1310 SLP290 T12891331
CXGH,2020-02-12 14:00,-96.9822,50.6311,217.00,-23.10,-31.20,64.63,350.00,13.00,0.00,M,1027.50,M,18.00,M,M,M,M,M,M,M,M,M,M,M,M,21.00,350.00,2020-02-12 13:06,-49.02,CXGH 121400Z AUTO 35013G18KT M31/M35 RMK AO1 PK WND 35021/1306 SLP275 T13061351 51044
CXWN,2020-02-12 14:00,-97.1296,49.8885,230.00,-20.90,-28.80,65.67,340.00,10.00,0.00,M,1028.30,M,17.00,M,M,M,M,M,M,M,M,M,M,M,M,19.00,10.00,2020-02-12 13:00,-43.37,CXWN 121400Z AUTO 34010G17KT M29/M34 RMK AO1 PRESRR PK WND 01019/1300 SLP283 T12941338 53055
CYBR,2020-02-12 14:00,-99.9519,49.9100,409.00,-20.20,-29.20,61.96,330.00,10.00,0.00,30.30,1030.50,15.00,M,FEW,M,M,M,25000.00,M,M,M,M,M,M,M,M,M,M,-42.49,CYBR 121400Z 33010KT 15SM FEW250 M29/M34 A3030 RMK CI1 SLP305
CYDN,2020-02-12 14:00,-100.0525,51.1008,305.00,-23.80,-31.00,67.81,290.00,6.00,0.00,30.39,1033.00,9.00,M,CLR,M,M,M,M,M,M,M,M,M,M,M,M,M,M,-41.67,CYDN 121400Z AUTO 29006KT 9SM CLR M31/M35 A3039 RMK SLP330
CYFO,2020-02-12 14:00,-101.6817,54.6781,304.00,-27.40,-36.40,60.82,280.00,4.00,0.00,30.38,1033.90,15.00,M,CLR,M,M,M,M,M,M,M,M,M,M,M,M,M,M,-41.94,CYFO 121400Z 28004KT 240V330 15SM SKC M33/M38 A3038 RMK SLP339
CYIV,2020-02-12 14:00,-94.6537,53.8571,237.00,-34.60,-40.00,73.55,290.00,9.00,0.00,30.20,1026.90,15.00,M,CLR,M,M,M,M,M,M,M,M,M,M,M,M,M,M,-59.30,CYIV 121400Z 29009KT 15SM SKC M37/M40 A3020 RMK SLP269
CYNE,2020-02-12 14:00,-97.8442,53.9583,223.00,-29.20,-36.40,67.05,300.00,6.00,0.00,30.30,1029.70,9.00,M,CLR,M,M,M,M,M,M,M,M,M,M,M,M,M,M,-48.18,CYNE 121400Z AUTO 30006KT 280V340 9SM CLR M34/M38 A3030 RMK SLP297
CYPG,2020-02-12 14:00,-98.2739,49.9031,269.00,-20.20,-27.40,68.31,350.00,21.00,0.00,30.33,1029.80,4.00,26.00,CLR,M,M,M,M,M,M,M,BLSN,M,M,M,M,M,M,-50.77,CYPG 121400Z 35021G26KT 4SM BLSN SKC M29/M33 A3033 RMK SLP298
CYQD,2020-02-12 14:00,-101.0911,53.9714,271.00,-25.60,-34.60,61.10,280.00,10.00,0.00,30.41,1033.90,9.00,M,CLR,M,M,M,M,M,M,M,M,M,M,M,M,M,M,-49.26,CYQD 121400Z AUTO 28010KT 9SM CLR M32/M37 A3041 RMK SLP339
CYTH,2020-02-12 14:00,-97.8642,55.8011,218.00,-29.20,-36.40,67.05,290.00,10.00,0.00,30.21,1027.30,15.00,M,SCT,M,M,M,21000.00,M,M,M,M,M,M,M,M,M,M,-53.78,CYTH 121400Z 29010KT 15SM SCT210 M34/M38 A3021 RMK CI3 SLP273
CYYQ,2020-02-12 14:00,-94.0650,58.7392,29.00,-23.80,-29.20,74.83,290.00,13.00,0.00,30.07,1018.90,2.50,18.00,CLR,M,M,M,M,M,M,M,IC BLSN,M,M,M,M,M,M,-49.92,CYYQ 121400Z 29013G18KT 2 1/2SM IC BLSN SKC M31/M34 A3007 RMK SLP189
CYBV,2020-02-12 14:00,-97.0183,52.3589,222.00,-27.40,-32.80,74.41,330.00,9.00,0.00,30.32,1030.00,15.00,15.00,CLR,M,M,M,M,M,M,M,M,M,M,M,M,M,M,-50.35,CYBV 121400Z 33009G15KT 15SM SKC M33/M36 A3032 RMK SLP300
CYGX,2020-02-12 14:00,-94.7106,56.3575,145.00,-32.80,-40.00,66.53,250.00,6.00,0.00,30.14,1023.50,15.00,M,FEW,M,M,M,13000.00,M,M,M,M,M,M,M,M,M,M,-52.51,CYGX 121400Z 25006KT 15SM FEW130 M36/M40 A3014 RMK AS2 SLP235
CYBQ,2020-02-12 14:00,-98.5122,58.7061,281.00,-22.00,-29.20,68.06,300.00,12.00,0.00,30.06,1023.10,2.50,19.00,OVC,M,M,M,3000.00,M,M,M,-SN,M,M,M,M,M,M,-46.73,CYBQ 121400Z AUTO 30012G19KT 2 1/2SM -SN OVC030 M30/M34 A3006 RMK VIS VRB 1 3/4-3 SLP231
CYBQ,2020-02-12 14:10,-98.5122,58.7061,281.00,-22.00,-29.20,68.06,290.00,12.00,0.00,30.06,1022.90,3.00,22.00,OVC,M,M,M,3600.00,M,M,M,-SN,M,M,M,M,M,M,-46.73,CYBQ 121410Z AUTO 29012G22KT 3SM -SN OVC036 M30/M34 A3006 RMK SLP229
CYBQ,2020-02-12 14:16,-98.5122,58.7061,281.00,-22.00,-29.20,68.06,300.00,9.00,0.00,30.06,1022.90,2.50,22.00,OVC,M,M,M,3600.00,M,M,M,-SN,M,M,M,M,M,M,-43.63,CYBQ 121416Z AUTO 30009G22KT 2 1/2SM -SN OVC036 M30/M34 A3006 RMK SLP229
CYTH,2020-02-12 14:28,-97.8642,55.8011,218.00,-29.20,-36.40,67.05,280.00,10.00,0.00,30.22,1027.40,6.00,M,FEW,BKN,M,M,9000.00,21000.00,M,M,IC,M,M,M,M,M,M,-53.78,CYTH 121428Z 28010KT 6SM IC FEW090 BKN210 M34/M38 A3022 RMK AS2CI5 SLP274
CYYQ,2020-02-12 14:30,-94.0650,58.7392,29.00,-23.80,-29.20,74.83,300.00,14.00,0.00,30.07,1019.00,5.00,M,CLR,M,M,M,M,M,M,M,IC BLSN,M,M,M,M,M,M,-50.76,CYYQ 121430Z 30014KT 5SM IC BLSN SKC M31/M34 A3007 RMK SLP190
CYBQ,2020-02-12 14:55,-98.5122,58.7061,281.00,-22.00,-27.40,75.04,310.00,10.00,0.00,30.06,1023.10,3.00,16.00,BKN,OVC,M,M,3400.00,8500.00,M,M,-SN,M,M,M,M,M,M,-44.75,CYBQ 121455Z AUTO 31010G16KT 270V340 3SM -SN BKN034 OVC085 M30/M33 A3006 RMK SLP231
CWWS,2020-02-12 15:00,-97.6164,52.8186,223.00,-25.40,-31.90,70.26,M,M,0.00,M,1031.40,M,M,M,M,M,M,M,M,M,M,M,M,M,M,M,M,M,M,CWWS 121500Z AUTO M32/M36 RMK AO1 22 SOG 01 2018 SLP314 T13191355
CXMD,2020-02-12 15:00,-98.0839,49.1878,301.00,-19.70,-24.70,76.91,350.00,13.00,0.00,M,1030.00,M,20.00,M,M,M,M,M,M,M,M,M,M,M,M,21.00,340.00,2020-02-12 14:46,-44.67,CXMD 121500Z AUTO 35013G20KT M29/M32 RMK AO1 SOG 08 1056 PK WND 34021/1446 SLP300 T12871315 50002
CYWG,2020-02-12 15:00,-97.2333,49.9167,239.00,-22.00,-31.00,61.68,360.00,16.00,0.00,30.33,1029.80,15.00,21.00,CLR,M,M,M,M,M,M,M,DRSN,M,M,M,M,M,M,-49.97,CYWG 121500Z 36016G21KT 15SM DRSN SKC M30/M35 A3033 RMK SLP298
CWCF,2020-02-12 15:00,-97.0219,52.3597,222.00,-25.40,-34.20,61.83,320.00,10.00,0.00,M,1030.70,M,17.00,M,M,M,M,M,M,M,M,M,M,M,M,17.00,320.00,2020-02-12 14:55,-49.01,CWCF 121500Z AUTO 32010G17KT M32/M37 RMK AO1 SOG 27 1021 PK WND 32017/1455 SLP307 T13191368
CWEQ,2020-02-12 15:00,-101.2331,52.1150,335.00,-20.90,-29.70,62.53,250.00,7.00,0.00,M,1034.30,M,M,M,M,M,M,M,M,M,M,M,M,M,M,M,M,M,-39.70,CWEQ 121500Z AUTO 25007KT M29/M34 RMK AO1 SOG 06 1019 SLP343 T12941343
CWGX,2020-02-12 15:00,-94.7000,56.3667,145.00,-29.40,-37.50,63.68,280.00,8.00,0.00,M,1023.90,M,M,M,M,M,M,M,M,M,M,M,M,M,M,M,M,M,-51.52,CWGX 121500Z AUTO 28008KT M34/M39 RMK AO1 SOG 32 1009 SLP239 T13411386
CWII,2020-02-12 15:00,-96.5622,50.6951,220.00,-23.10,-31.20,64.63,350.00,16.00,0.00,M,1030.10,M,22.00,M,M,M,M,M,M,M,M,M,M,M,M,24.00,350.00,2020-02-12 14:30,-51.40,CWII 121500Z AUTO 35016G22KT M31/M35 RMK AO1 PK WND 35024/1430 SLP301 T13061351 51042
CWJD,2020-02-12 15:00,-99.2678,53.1864,223.00,-25.40,-31.90,70.26,290.00,9.00,0.00,M,1032.90,M,16.00,M,M,M,M,M,M,M,M,M,M,M,M,M,M,M,-47.86,CWJD 121500Z AUTO 29009G16KT M32/M36 RMK AO1 SOG 45 2013 SLP329 T13191355
CWNK,2020-02-12 15:00,-98.0297,49.4981,268.00,-20.70,-28.10,67.50,M,M,0.00,M,M,M,M,M,M,M,M,M,M,M,M,M,M,M,M,M,M,M,M,CWNK 121500Z AUTO M29/M33 RMK AO1 23 T12931334
CWPO,2020-02-12 15:00,-98.9050,49.1911,470.00,-20.60,-28.50,65.71,360.00,15.00,0.00,M,1030.50,M,M,M,M,M,M,M,M,M,M,M,M,M,M,23.00,10.00,2020-02-12 14:31,-47.41,CWPO 121500Z AUTO 36015KT M29/M34 RMK AO1 SOG 18 1051 PK WND 01023/1431 SLP305 T12921336
CXGH,2020-02-12 15:00,-96.9822,50.6311,217.00,-21.10,-31.50,57.24,340.00,13.00,0.00,M,1029.20,M,20.00,M,M,M,M,M,M,M,M,M,M,M,M,21.00,350.00,2020-02-12 14:05,-46.46,CXGH 121500Z AUTO 34013G20KT M30/M35 RMK AO1 PK WND 35021/1405 SLP292 T12951353 51040
CXWN,2020-02-12 15:00,-97.1296,49.8885,230.00,-21.60,-29.70,64.86,350.00,9.00,0.00,M,1029.70,M,20.00,M,M,M,M,M,M,M,M,M,M,M,M,20.00,340.00,2020-02-12 14:54,-43.13,CXWN 121500Z AUTO 35009G20KT M30/M34 RMK AO1 PK WND 34020/1454 SLP297 T12981343 52048
CYBR,2020-02-12 15:00,-99.9519,49.9100,409.00,-20.20,-29.20,61.96,330.00,10.00,0.00,30.34,1032.10,15.00,M,CLR,M,M,M,M,M,M,M,M,M,M,M,M,M,M,-42.49,CYBR 121500Z 33010KT 15SM SKC M29/M34 A3034 RMK SLP321
CYDN,2020-02-12 15:00,-100.0525,51.1008,305.00,-22.00,-31.00,61.68,280.00,6.00,0.00,30.41,1033.80,9.00,M,CLR,M,M,M,M,M,M,M,M,M,M,M,M,M,M,-39.51,CYDN 121500Z AUTO 28006KT 9SM CLR M30/M35 A3041 RMK SLP338
CYFO,2020-02-12 15:00,-101.6817,54.6781,304.00,-27.40,-34.60,67.31,290.00,8.00,0.00,30.39,1034.20,15.00,M,CLR,M,M,M,M,M,M,M,M,M,M,M,M,M,M,-49.06,CYFO 121500Z 29008KT 260V320 15SM SKC M33/M37 A3039 RMK SLP342
CYIV,2020-02-12 15:00,-94.6537,53.8571,237.00,-31.00,-38.20,66.79,300.00,8.00,0.00,30.21,1027.00,15.00,M,CLR,M,M,M,M,M,M,M,M,M,M,M,M,M,M,-53.49,CYIV 121500Z 30008KT 15SM SKC M35/M39 A3021 RMK SLP270
CYNE,2020-02-12 15:00,-97.8442,53.9583,223.00,-27.40,-34.60,67.31,300.00,9.00,0.00,30.30,1030.00,9.00,M,CLR,M,M,M,M,M,M,M,M,M,M,M,M,M,M,-50.35,CYNE 121500Z AUTO 30009KT 260V330 9SM CLR M33/M37 A3030 RMK SLP300
CYPG,2020-02-12 15:00,-98.2739,49.9031,269.00,-20.20,-27.40,68.31,330.00,17.00,0.00,30.37,1031.30,4.00,23.00,CLR,M,M,M,M,M,M,M,BLSN,M,M,M,M,M,M,-48.31,CYPG 121500Z 33017G23KT 4SM BLSN SKC M29/M33 A3037 RMK SLP313
CYQD,2020-02-12 15:00,-101.0911,53.9714,271.00,-25.60,-32.80,67.56,280.00,11.00,0.00,30.42,1034.40,9.00,M,CLR,M,M,M,M,M,M,M,M,M,M,M,M,M,M,-50.32,CYQD 121500Z AUTO 28011KT 9SM CLR M32/M36 A3042 RMK SLP344
CYTH,2020-02-12 15:00,-97.8642,55.8011,218.00,-27.40,-34.60,67.31,290.00,10.00,0.00,30.22,1027.50,15.00,15.00,SCT,BKN,M,M,9000.00,21000.00,M,M,IC,M,M,M,M,M,M,-51.52,CYTH 121500Z 29010G15KT 15SM IC SCT090 BKN210 M33/M37 A3022 RMK AC3CI3 SLP275
CYYQ,2020-02-12 15:00,-94.0650,58.7392,29.00,-23.80,-29.20,74.83,300.00,12.00,0.00,30.08,1019.20,15.00,M,CLR,M,M,M,M,M,M,M,IC,M,M,M,M,M,M,-49.02,CYYQ 121500Z 30012KT 15SM IC SKC M31/M34 A3008 RMK SLP192
CYBV,2020-02-12 15:00,-97.0183,52.3589,222.00,-25.60,-32.80,67.56,340.00,11.00,0.00,30.34,1030.70,10.00,17.00,CLR,M,M,M,M,M,M,M,DRSN,M,M,M,M,M,M,-50.32,CYBV 121500Z 34011G17KT 10SM DRSN SKC M32/M36 A3034 RMK SLP307
CYGX,2020-02-12 15:00,-94.7106,56.3575,145.00,-29.20,-36.40,67.05,270.00,8.00,0.00,30.15,1023.80,15.00,M,SCT,M,M,M,15000.00,M,M,M,M,M,M,M,M,M,M,-51.27,CYGX 121500Z 27008KT 15SM SCT150 M34/M38 A3015 RMK AS3 SLP238
CYBQ,2020-02-12 15:00,-98.5122,58.7061,281.00,-20.20,-27.40,68.31,300.00,9.00,0.00,30.06,1023.00,3.00,17.00,BKN,OVC,M,M,3800.00,8500.00,M,M,-SN,M,M,M,M,M,M,-41.39,CYBQ 121500Z AUTO 30009G17KT 3SM -SN BKN038 OVC085 M29/M33 A3006 RMK SLP230
CYYL,2020-02-12 15:27,-101.0761,56.8639,357.00,-25.60,-32.80,67.56,300.00,12.00,0.00,30.24,1030.00,9.00,19.00,BKN,M,M,M,14000.00,M,M,M,-SN,M,M,M,M,M,M,-51.31,CYYL 121527Z AUTO 30012G19KT 9SM -SN BKN140 M32/M36 A3024 RMK SLP300
CYBQ,2020-02-12 15:42,-98.5122,58.7061,281.00,-20.20,-25.60,75.24,320.00,12.00,0.00,30.07,1023.30,2.00,18.00,SCT,OVC,M,M,2300.00,8000.00,M,M,-SN,M,M,M,M,M,M,-44.43,CYBQ 121542Z AUTO 32012G18KT 2SM -SN SCT023 OVC080 M29/M32 A3007 RMK SLP233
CYYL,2020-02-12 15:54,-101.0761,56.8639,357.00,-23.80,-32.80,61.39,290.00,9.00,0.00,30.23,1029.80,9.00,16.00,SCT,M,M,M,14000.00,M,M,M,M,M,M,M,M,M,M,-45.87,CYYL 121554Z AUTO 29009G16KT 9SM SCT140 M31/M36 A3023 RMK SLP298
CWWS,2020-02-12 16:00,-97.6164,52.8186,223.00,-24.50,-31.50,68.46,M,M,0.00,M,1031.70,M,M,M,M,M,M,M,M,M,M,M,M,M,M,M,M,M,M,CWWS 121600Z AUTO M31/M35 RMK AO1 22 1015 SLP317 T13141353
CXMD,2020-02-12 16:00,-98.0839,49.1878,301.00,-19.30,-24.70,75.34,350.00,13.00,0.00,M,1031.10,M,20.00,M,M,M,M,M,M,M,M,M,M,M,M,24.00,340.00,2020-02-12 15:05,-44.15,CXMD 121600Z AUTO 35013G20KT M29/M32 RMK AO1 SOG 07 1047 PK WND 34024/1505 SLP311 T12851315 50002
CYWG,2020-02-12 16:00,-97.2333,49.9167,239.00,-20.20,-31.00,56.14,350.00,15.00,0.00,30.37,1031.30,15.00,M,CLR,M,M,M,M,M,M,M,DRSN,M,M,M,M,M,M,-46.89,CYWG 121600Z 35015KT 15SM DRSN SKC M29/M35 A3037 RMK SLP313
CWCF,2020-02-12 16:00,-97.0219,52.3597,222.00,-23.80,-33.00,60.71,320.00,10.00,0.00,M,1031.40,M,16.00,M,M,M,M,M,M,M,M,M,M,M,M,17.00,330.00,2020-02-12 15:30,-47.01,CWCF 121600Z AUTO 32010G16KT M31/M36 RMK AO1 SOG 27 1020 PK WND 33017/1530 SLP314 T13101361
CWEQ,2020-02-12 16:00,-101.2331,52.1150,335.00,-20.40,-30.50,58.31,240.00,8.00,0.00,M,1034.90,M,M,M,M,M,M,M,M,M,M,M,M,M,M,M,M,M,-40.43,CWEQ 121600Z AUTO 24008KT M29/M35 RMK AO1 SOG 06 2016 SLP349 T12911347
CWGX,2020-02-12 16:00,-94.7000,56.3667,145.00,-27.20,-35.70,62.59,290.00,9.00,0.00,M,1024.10,M,M,M,M,M,M,M,M,M,M,M,M,M,M,M,M,M,-50.10,CWGX 121600Z AUTO 29009KT M33/M38 RMK AO1 SOG 32 2007 SLP241 T13291376
CWII,2020-02-12 16:00,-96.5622,50.6951,220.00,-22.40,-31.00,62.98,340.00,16.00,0.00,M,1031.30,M,M,M,M,M,M,M,M,M,M,M,M,M,M,24.00,350.00,2020-02-12 15:25,-50.49,CWII 121600Z AUTO 34016KT M30/M35 RMK AO1 PK WND 35024/1525 SLP313 T13021350 52035
CWJD,2020-02-12 16:00,-99.2678,53.1864,223.00,-21.50,-32.30,55.92,300.00,7.00,0.00,M,1033.20,M,16.00,M,M,M,M,M,M,M,M,M,M,M,M,18.00,290.00,2020-02-12 15:13,-40.43,CWJD 121600Z AUTO 30007G16KT M30/M36 RMK AO1 SOG 45 2012 PK WND 29018/1513 SLP332 T12971357
CWNK,2020-02-12 16:00,-98.0297,49.4981,268.00,-20.40,-28.70,64.33,M,M,0.00,M,M,M,M,M,M,M,M,M,M,M,M,M,M,M,M,M,M,M,M,CWNK 121600Z AUTO M29/M34 RMK AO1 23 T12911337
CWPO,2020-02-12 16:00,-98.9050,49.1911,470.00,-20.20,-28.80,63.32,350.00,16.00,0.00,M,1031.80,M,22.00,M,M,M,M,M,M,M,M,M,M,M,M,25.00,350.00,2020-02-12 15:19,-47.62,CWPO 121600Z AUTO 35016G22KT M29/M34 RMK AO1 SOG 18 1046 PK WND 35025/1519 SLP318 T12901338
CXGH,2020-02-12 16:00,-96.9822,50.6311,217.00,-21.50,-31.20,59.42,340.00,11.00,0.00,M,1030.40,M,M,M,M,M,M,M,M,M,M,M,M,M,M,18.00,350.00,2020-02-12 15:49,-45.14,CXGH 121600Z AUTO 34011KT M30/M35 RMK AO1 PK WND 35018/1549 SLP304 T12971351 53035
CXWN,2020-02-12 16:00,-97.1296,49.8885,230.00,-21.60,-28.30,69.99,350.00,9.00,0.00,M,1031.30,M,17.00,M,M,M,M,M,M,M,M,M,M,M,M,17.00,350.00,2020-02-12 15:58,-43.13,CXWN 121600Z AUTO 35009G17KT M30/M34 RMK AO1 PK WND 35017/1558 SLP313 T12981335 51048
CYBR,2020-02-12 16:00,-99.9519,49.9100,409.00,-18.40,-29.20,56.45,310.00,7.00,0.00,30.38,1033.70,15.00,M,CLR,M,M,M,M,M,M,M,M,M,M,M,M,M,M,-36.65,CYBR 121600Z 31007KT 15SM SKC M28/M34 A3038 RMK SLP337
CYDN,2020-02-12 16:00,-100.0525,51.1008,305.00,-18.40,-29.20,56.45,290.00,5.00,0.00,30.43,1034.50,9.00,M,CLR,M,M,M,M,M,M,M,M,M,M,M,M,M,M,-33.46,CYDN 121600Z AUTO 29005KT 270V330 9SM CLR M28/M34 A3043 RMK SLP345
CYFO,2020-02-12 16:00,-101.6817,54.6781,304.00,-23.80,-32.80,61.39,290.00,8.00,0.00,30.39,1034.20,15.00,M,FEW,M,M,M,25000.00,M,M,M,M,M,M,M,M,M,M,-44.62,CYFO 121600Z 29008KT 250V320 15SM FEW250 M31/M36 A3039 RMK CI1 SLP342
CYIV,2020-02-12 16:00,-94.6537,53.8571,237.00,-29.20,-36.40,67.05,290.00,10.00,0.00,30.22,1027.30,15.00,M,CLR,M,M,M,M,M,M,M,M,M,M,M,M,M,M,-53.78,CYIV 121600Z 29010KT 15SM SKC M34/M38 A3022 RMK SLP273
CYNE,2020-02-12 16:00,-97.8442,53.9583,223.00,-23.80,-32.80,61.39,300.00,6.00,0.00,30.31,1030.40,9.00,M,CLR,M,M,M,M,M,M,M,M,M,M,M,M,M,M,-41.67,CYNE 121600Z AUTO 30006KT 250V330 9SM CLR M31/M36 A3031 RMK SLP304
CYPG,2020-02-12 16:00,-98.2739,49.9031,269.00,-20.20,-27.40,68.31,340.00,21.00,0.00,30.41,1033.00,5.00,M,CLR,M,M,M,M,M,M,M,BLSN,M,M,M,M,M,M,-50.77,CYPG 121600Z 34021KT 5SM BLSN SKC M29/M33 A3041 RMK SLP330
CYQD,2020-02-12 16:00,-101.0911,53.9714,271.00,-23.80,-32.80,61.39,270.00,11.00,0.00,30.42,1034.30,9.00,M,CLR,M,M,M,M,M,M,M,M,M,M,M,M,M,M,-48.05,CYQD 121600Z AUTO 27011KT 9SM CLR M31/M36 A3042 RMK SLP343
CYTH,2020-02-12 16:00,-97.8642,55.8011,218.00,-25.60,-32.80,67.56,300.00,11.00,0.00,30.22,1027.40,15.00,M,SCT,BKN,M,M,6500.00,21000.00,M,M,IC,M,M,M,M,M,M,-50.32,CYTH 121600Z 30011KT 15SM IC SCT065 BKN210 M32/M36 A3022 RMK SC3CI4 SLP274
CYYL,2020-02-12 16:00,-101.0761,56.8639,357.00,-23.80,-31.00,67.81,290.00,11.00,0.00,30.23,1029.90,9.00,16.00,FEW,M,M,M,14000.00,M,M,M,M,M,M,M,M,M,M,-48.05,CYYL 121600Z AUTO 29011G16KT 9SM FEW140 M31/M35 A3023 RMK SLP299
CYYQ,2020-02-12 16:00,-94.0650,58.7392,29.00,-22.00,-29.20,68.06,300.00,13.00,0.00,30.08,1019.20,15.00,M,CLR,M,M,M,M,M,M,M,IC,M,M,M,M,M,M,-47.61,CYYQ 121600Z 30013KT 15SM IC SKC M30/M34 A3008 RMK SLP192
CZKD,2020-02-12 16:00,-96.5097,56.0375,183.00,-24.30,-28.30,80.69,280.00,8.00,0.00,M,M,M,M,M,M,M,M,M,M,M,M,M,M,M,M,M,M,M,-45.24,CZKD 121600Z AUTO 28008KT M31/M34 RMK AO1 SOG 51 T13131335
CYBV,2020-02-12 16:00,-97.0183,52.3589,222.00,-23.80,-31.00,67.81,340.00,10.00,0.00,30.36,1031.40,10.00,18.00,FEW,M,M,M,700.00,M,M,M,DRSN,M,M,M,M,M,M,-47.01,CYBV 121600Z 34010G18KT 10SM DRSN FEW007 M31/M35 A3036 RMK ST1 SLP314
CYGX,2020-02-12 16:00,-94.7106,56.3575,145.00,-27.40,-34.60,67.31,280.00,9.00,0.00,30.15,1023.90,15.00,M,SCT,M,M,M,15000.00,M,M,M,M,M,M,M,M,M,M,-50.35,CYGX 121600Z 28009KT 15SM SCT150 M33/M37 A3015 RMK AS3 SLP239
CYBQ,2020-02-12 16:00,-98.5122,58.7061,281.00,-18.40,-25.60,68.55,310.00,12.00,0.00,30.08,1023.40,2.00,19.00,SCT,OVC,M,M,1900.00,8000.00,M,M,-SN,M,M,M,M,M,M,-42.14,CYBQ 121600Z AUTO 31012G19KT 290V360 2SM -SN SCT019 OVC080 M28/M32 A3008 RMK SLP234
CYYL,2020-02-12 16:13,-101.0761,56.8639,357.00,-23.80,-31.00,67.81,300.00,12.00,0.00,30.23,1029.70,9.00,17.00,FEW,M,M,M,12000.00,M,M,M,-SN,M,M,M,M,M,M,-49.02,CYYL 121613Z AUTO 30012G17KT 9SM -SN FEW120 M31/M35 A3023 RMK SLP297
CYYL,2020-02-12 16:23,-101.0761,56.8639,357.00,-22.00,-31.00,61.68,300.00,13.00,0.00,30.23,1029.60,5.00,19.00,BKN,M,M,M,13000.00,M,M,M,-SN,M,M,M,M,M,M,-47.61,CYYL 121623Z AUTO 30013G19KT 5SM -SN BKN130 M30/M35 A3023 RMK SLP296
CYYL,2020-02-12 16:26,-101.0761,56.8639,357.00,-22.00,-31.00,61.68,290.00,14.00,0.00,30.23,1029.60,2.50,20.00,FEW,BKN,M,M,11000.00,13000.00,M,M,-SN,M,M,M,M,M,M,-48.44,CYYL 121626Z AUTO 29014G20KT 2 1/2SM -SN FEW110 BKN130 M30/M35 A3023 RMK VIS VRB 5/8-3 SLP296
CYYL,2020-02-12 16:28,-101.0761,56.8639,357.00,-22.00,-31.00,61.68,290.00,13.00,0.00,30.23,1029.60,2.00,20.00,FEW,BKN,M,M,11000.00,13000.00,M,M,-SN,M,M,M,M,M,M,-47.61,CYYL 121628Z AUTO 29013G20KT 2SM -SN FEW110 BKN130 M30/M35 A3023 RMK VIS VRB 5/8-3 SLP296
CYBQ,2020-02-12 16:28,-98.5122,58.7061,281.00,-18.40,-27.40,62.24,310.00,12.00,0.00,30.08,1023.50,1.75,19.00,SCT,OVC,M,M,1700.00,8000.00,M,M,HZ,M,M,M,M,M,M,-42.14,CYBQ 121628Z AUTO 31012G19KT 280V360 1 3/4SM HZ SCT017 OVC080 M28/M33 A3008 RMK SLP235
CYYL,2020-02-12 16:37,-101.0761,56.8639,357.00,-22.00,-31.00,61.68,290.00,12.00,0.00,30.23,1029.60,2.50,21.00,SCT,BKN,M,M,11000.00,13000.00,M,M,-SN,M,M,M,M,M,M,-46.73,CYYL 121637Z AUTO 29012G21KT 2 1/2SM -SN SCT110 BKN130 M30/M35 A3023 RMK VIS VRB 1-3 SLP296
CYYL,2020-02-12 16:42,-101.0761,56.8639,357.00,-22.00,-31.00,61.68,290.00,14.00,0.00,30.23,1029.60,3.00,20.00,SCT,BKN,M,M,11000.00,13000.00,M,M,-SN,M,M,M,M,M,M,-48.44,CYYL 121642Z AUTO 29014G20KT 3SM -SN SCT110 BKN130 M30/M35 A3023 RMK SLP296
CYYL,2020-02-12 16:44,-101.0761,56.8639,357.00,-22.00,-31.00,61.68,300.00,12.00,0.00,30.23,1029.60,6.00,20.00,FEW,BKN,M,M,11000.00,13000.00,M,M,-SN,M,M,M,M,M,M,-46.73,CYYL 121644Z AUTO 30012G20KT 6SM -SN FEW110 BKN130 M30/M35 A3023 RMK SLP296
CYBQ,2020-02-12 16:46,-98.5122,58.7061,281.00,-20.20,-27.40,68.31,320.00,10.00,0.00,30.09,1023.70,2.00,20.00,BKN,OVC,M,M,1700.00,7500.00,M,M,HZ,M,M,M,M,M,M,-42.49,CYBQ 121646Z AUTO 32010G20KT 280V350 2SM HZ BKN017 OVC075 M29/M33 A3009 RMK SLP237
CWWS,2020-02-12 17:00,-97.6164,52.8186,223.00,-23.10,-30.30,67.91,M,M,0.00,M,1032.10,M,M,M,M,M,M,M,M,M,M,M,M,M,M,M,M,M,M,CWWS 121700Z AUTO M31/M35 RMK AO1 23 1012 SLP321 T13061346
CXMD,2020-02-12 17:00,-98.0839,49.1878,301.00,-18.40,-26.00,67.10,350.00,12.00,0.01,M,1032.70,M,19.00,M,M,M,M,M,M,M,M,M,M,M,M,23.00,340.00,2020-02-12 16:35,-42.14,CXMD 121700Z AUTO 35012G19KT M28/M32 RMK AO1 2PAST HR SOG 08 1037 PK WND 34023/1635 SLP327 P0001 T12801322 50004
CYWG,2020-02-12 17:00,-97.2333,49.9167,239.00,-20.20,-29.20,61.96,340.00,15.00,0.00,30.40,1032.30,15.00,M,CLR,M,M,M,M,M,M,M,DRSN,M,M,M,M,M,M,-46.89,CYWG 121700Z 34015KT 15SM DRSN SKC M29/M34 A3040 RMK SLP323
CWCF,2020-02-12 17:00,-97.0219,52.3597,222.00,-23.10,-32.40,60.49,310.00,11.00,0.00,M,1031.90,M,17.00,M,M,M,M,M,M,M,M,M,M,M,M,19.00,310.00,2020-02-12 16:36,-47.16,CWCF 121700Z AUTO 31011G17KT M31/M36 RMK AO1 SOG 27 1017 PK WND 31019/1636 SLP319 T13061358
CWEQ,2020-02-12 17:00,-101.2331,52.1150,335.00,-17.90,-28.70,56.53,230.00,9.00,0.00,M,1035.20,M,M,M,M,M,M,M,M,M,M,M,M,M,M,M,M,M,-38.53,CWEQ 121700Z AUTO 23009KT M28/M34 RMK AO1 SOG 06 1014 SLP352 T12771337
CWGX,2020-02-12 17:00,-94.7000,56.3667,145.00,-24.50,-33.30,61.97,290.00,9.00,0.00,M,1024.10,M,M,M,M,M,M,M,M,M,M,M,M,M,M,M,M,M,-46.74,CWGX 121700Z AUTO 29009KT M31/M36 RMK AO1 SOG 32 1005 SLP241 T13141363
CWII,2020-02-12 17:00,-96.5622,50.6951,220.00,-21.10,-30.80,59.49,340.00,13.00,0.00,M,1032.30,M,M,M,M,M,M,M,M,M,M,M,M,M,M,18.00,340.00,2020-02-12 16:01,-46.46,CWII 121700Z AUTO 34013KT M30/M35 RMK AO1 PK WND 34018/1601 SLP323 T12951349 51035
CWJD,2020-02-12 17:00,-99.2678,53.1864,223.00,-17.90,-31.40,48.77,290.00,8.00,0.00,M,1033.00,M,17.00,M,M,M,M,M,M,M,M,M,M,M,M,18.00,290.00,2020-02-12 16:32,-37.35,CWJD 121700Z AUTO 29008G17KT M28/M35 RMK AO1 SOG 45 0006 PK WND 29018/1632 SLP330 T12771352
CWNK,2020-02-12 17:00,-98.0297,49.4981,268.00,-18.60,-27.90,61.20,M,M,0.00,M,M,M,M,M,M,M,M,M,M,M,M,M,M,M,M,M,M,M,M,CWNK 121700Z AUTO M28/M33 RMK AO1 19 T12811333
CWPO,2020-02-12 17:00,-98.9050,49.1911,470.00,-19.10,-28.10,62.13,350.00,11.00,0.00,M,1033.60,M,16.00,M,M,M,M,M,M,M,M,M,M,M,M,24.00,360.00,2020-02-12 16:03,-42.11,CWPO 121700Z AUTO 35011G16KT M28/M33 RMK AO1 SOG 18 1036 PK WND 36024/1603 SLP336 T12841334
CXGH,2020-02-12 17:00,-96.9822,50.6311,217.00,-20.20,-30.60,57.39,330.00,10.00,0.00,M,1031.20,M,M,M,M,M,M,M,M,M,M,M,M,M,M,M,M,M,-42.49,CXGH 121700Z AUTO 33010KT M29/M35 RMK AO1 SLP312 T12901348 51033
CXWN,2020-02-12 17:00,-97.1296,49.8885,230.00,-20.00,-28.70,63.01,350.00,7.00,0.00,M,1032.20,M,15.00,M,M,M,M,M,M,M,M,M,M,M,M,M,M,M,-38.60,CXWN 121700Z AUTO 35007G15KT M29/M34 RMK AO1 SLP322 T12891337 51036
CYBR,2020-02-12 17:00,-99.9519,49.9100,409.00,-16.60,-27.40,56.75,310.00,8.00,0.00,30.40,1034.50,15.00,M,CLR,M,M,M,M,M,M,M,M,M,M,M,M,M,M,-35.75,CYBR 121700Z 31008KT 15SM SKC M27/M33 A3040 RMK SLP345
CYDN,2020-02-12 17:00,-100.0525,51.1008,305.00,-16.60,-27.40,56.75,240.00,8.00,0.00,30.44,1035.00,9.00,M,CLR,M,M,M,M,M,M,M,M,M,M,M,M,M,M,-35.75,CYDN 121700Z AUTO 24008KT 9SM CLR M27/M33 A3044 RMK SLP350
CYFO,2020-02-12 17:00,-101.6817,54.6781,304.00,-20.20,-31.00,56.14,290.00,9.00,0.00,30.39,1034.20,15.00,15.00,FEW,M,M,M,25000.00,M,M,M,M,M,M,M,M,M,M,-41.39,CYFO 121700Z 29009G15KT 15SM FEW250 M29/M35 A3039 RMK CI2 SLP342
CYIV,2020-02-12 17:00,-94.6537,53.8571,237.00,-27.40,-34.60,67.31,290.00,8.00,0.00,30.23,1027.80,15.00,M,CLR,M,M,M,M,M,M,M,M,M,M,M,M,M,M,-49.06,CYIV 121700Z 29008KT 15SM SKC M33/M37 A3023 RMK SLP278
CYNE,2020-02-12 17:00,-97.8442,53.9583,223.00,-22.00,-31.00,61.68,290.00,9.00,0.00,30.31,1030.10,9.00,M,CLR,M,M,M,M,M,M,M,M,M,M,M,M,M,M,-43.63,CYNE 121700Z AUTO 29009KT 260V330 9SM CLR M30/M35 A3031 RMK SLP301
CYPG,2020-02-12 17:00,-98.2739,49.9031,269.00,-18.40,-27.40,62.24,340.00,14.00,0.00,30.43,1033.80,7.00,19.00,CLR,M,M,M,M,M,M,M,DRSN,M,M,M,M,M,M,-43.80,CYPG 121700Z 34014G19KT 7SM DRSN SKC M28/M33 A3043 RMK SLP338
CYQD,2020-02-12 17:00,-101.0911,53.9714,271.00,-20.20,-31.00,56.14,270.00,12.00,0.00,30.41,1034.10,9.00,17.00,CLR,M,M,M,M,M,M,M,M,M,M,M,M,M,M,-44.43,CYQD 121700Z AUTO 27012G17KT 9SM CLR M29/M35 A3041 RMK SLP341
CYTH,2020-02-12 17:00,-97.8642,55.8011,218.00,-22.00,-31.00,61.68,280.00,11.00,0.00,30.22,1027.30,15.00,17.00,FEW,BKN,M,M,6500.00,21000.00,M,M,IC,M,M,M,M,M,M,-45.77,CYTH 121700Z 28011G17KT 15SM IC FEW065 BKN210 M30/M35 A3022 RMK SC1CI5 SLP273
CYYL,2020-02-12 17:00,-101.0761,56.8639,357.00,-20.20,-29.20,61.96,300.00,11.00,0.00,30.23,1029.80,9.00,19.00,FEW,BKN,M,M,11000.00,14000.00,M,M,-SN,M,M,M,M,M,M,-43.50,CYYL 121700Z AUTO 30011G19KT 9SM -SN FEW110 BKN140 M29/M34 A3023 RMK SLP298
CYYQ,2020-02-12 17:00,-94.0650,58.7392,29.00,-20.20,-27.40,68.31,310.00,15.00,0.00,30.08,1019.40,15.00,21.00,CLR,M,M,M,M,M,M,M,IC,M,M,M,M,M,M,-46.89,CYYQ 121700Z 31015G21KT 15SM IC SKC M29/M33 A3008 RMK SLP194
CYBV,2020-02-12 17:00,-97.0183,52.3589,222.00,-22.00,-31.00,61.68,330.00,12.00,0.00,30.37,1031.90,10.00,19.00,FEW,M,M,M,900.00,M,M,M,DRSN,M,M,M,M,M,M,-46.73,CYBV 121700Z 33012G19KT 10SM DRSN FEW009 M30/M35 A3037 RMK ST2 VIS W 6 SLP319
CYGX,2020-02-12 17:00,-94.7106,56.3575,145.00,-23.80,-32.80,61.39,280.00,9.00,0.00,30.16,1024.00,15.00,M,CLR,M,M,M,M,M,M,M,M,M,M,M,M,M,M,-45.87,CYGX 121700Z 28009KT 15SM SKC M31/M36 A3016 RMK SLP240
CYBQ,2020-02-12 17:00,-98.5122,58.7061,281.00,-18.40,-27.40,62.24,320.00,10.00,0.00,30.09,1023.70,2.00,20.00,FEW,BKN,OVC,M,1300.00,1800.00,7500.00,M,HZ,M,M,M,M,M,M,-40.23,CYBQ 121700Z AUTO 32010G20KT 290V360 2SM HZ FEW013 BKN018 OVC075 M28/M33 A3009 RMK SLP237
CYBQ,2020-02-12 17:09,-98.5122,58.7061,281.00,-18.40,-27.40,62.24,330.00,10.00,0.00,30.09,1023.90,3.00,17.00,BKN,OVC,M,M,1800.00,7500.00,M,M,HZ,M,M,M,M,M,M,-40.23,CYBQ 121709Z AUTO 33010G17KT 3SM HZ BKN018 OVC075 M28/M33 A3009 RMK SLP239
CYYL,2020-02-12 17:18,-101.0761,56.8639,357.00,-18.40,-27.40,62.24,300.00,10.00,0.00,30.23,1029.60,9.00,18.00,SCT,BKN,BKN,M,9000.00,11000.00,14000.00,M,M,M,M,M,M,M,M,-40.23,CYYL 121718Z AUTO 30010G18KT 9SM SCT090 BKN110 BKN140 M28/M33 A3023 RMK SLP296
CYYQ,2020-02-12 17:18,-94.0650,58.7392,29.00,-18.40,-25.60,68.55,310.00,14.00,0.00,30.09,1019.50,2.50,22.00,CLR,M,M,M,M,M,M,M,IC BR,M,M,M,M,M,M,-43.80,CYYQ 121718Z 31014G22KT 2 1/2SM IC BR SKC M28/M32 A3009 RMK SLP195
CYYQ,2020-02-12 17:25,-94.0650,58.7392,29.00,-18.40,-25.60,68.55,310.00,16.00,0.00,30.09,1019.50,0.75,22.00,CLR,M,M,M,M,M,M,M,IC BLSN,M,M,M,M,M,M,-45.27,CYYQ 121725Z 31016G22KT 3/4SM IC BLSN SKC M28/M32 A3009 RMK SLP195
CYBQ,2020-02-12 17:33,-98.5122,58.7061,281.00,-18.40,-27.40,62.24,320.00,14.00,0.00,30.09,1023.90,4.00,22.00,SCT,BKN,M,M,1800.00,2600.00,M,M,HZ,M,M,M,M,M,M,-43.80,CYBQ 121733Z AUTO 32014G22KT 4SM HZ SCT018 BKN026 M28/M33 A3009 RMK SLP239
CYYQ,2020-02-12 17:38,-94.0650,58.7392,29.00,-18.40,-23.80,75.44,310.00,19.00,0.00,30.08,1019.40,1.00,24.00,BKN,M,M,M,1500.00,M,M,M,IC BLSN,M,M,M,M,M,M,-47.21,CYYQ 121738Z 31019G24KT 1SM IC BLSN BKN015 M28/M31 A3008 RMK SF7 SLP194
CYBQ,2020-02-12 17:39,-98.5122,58.7061,281.00,-18.40,-27.40,62.24,310.00,11.00,0.00,30.09,1024.00,4.00,22.00,OVC,M,M,M,2400.00,M,M,M,HZ,M,M,M,M,M,M,-41.23,CYBQ 121739Z AUTO 31011G22KT 4SM HZ OVC024 M28/M33 A3009 RMK SLP240
CYYQ,2020-02-12 17:46,-94.0650,58.7392,29.00,-18.40,-25.60,68.55,320.00,17.00,0.00,30.09,1019.60,2.00,25.00,BKN,M,M,M,1700.00,M,M,M,IC BLSN,M,M,M,M,M,M,-45.95,CYYQ 121746Z 32017G25KT 2SM IC BLSN BKN017 M28/M32 A3009 RMK SF7 SLP196
CYBQ,2020-02-12 17:47,-98.5122,58.7061,281.00,-18.40,-27.40,62.24,320.00,11.00,0.00,30.10,1024.10,3.00,19.00,FEW,OVC,M,M,2000.00,2600.00,M,M,HZ,M,M,M,M,M,M,-41.23,CYBQ 121747Z AUTO 32011G19KT 3SM HZ FEW020 OVC026 M28/M33 A3010 RMK SLP241
CYBQ,2020-02-12 17:53,-98.5122,58.7061,281.00,-18.40,-27.40,62.24,330.00,14.00,0.00,30.10,1024.10,2.50,20.00,OVC,M,M,M,2600.00,M,M,M,HZ,M,M,M,M,M,M,-43.80,CYBQ 121753Z AUTO 33014G20KT 290V360 2 1/2SM HZ OVC026 M28/M33 A3010 RMK SLP241
CYBQ,2020-02-12 17:57,-98.5122,58.7061,281.00,-18.40,-27.40,62.24,340.00,12.00,0.00,30.10,1024.10,3.00,20.00,OVC,M,M,M,2600.00,M,M,M,HZ,M,M,M,M,M,M,-42.14,CYBQ 121757Z AUTO 34012G20KT 290V360 3SM HZ OVC026 M28/M33 A3010 RMK SLP241
CWWS,2020-02-12 18:00,-97.6164,52.8186,223.00,-20.40,-28.50,65.03,M,M,0.00,M,1032.10,M,M,M,M,M,M,M,M,M,M,M,M,M,M,M,M,M,M,CWWS 121800Z AUTO M29/M34 RMK AO1 23 SOG 01 1006 SLP321 T12911336
CXMD,2020-02-12 18:00,-98.0839,49.1878,301.00,-17.50,-25.40,66.16,340.00,10.00,0.00,M,1033.80,M,17.00,M,M,M,M,M,M,M,M,M,M,M,M,21.00,350.00,2020-02-12 17:02,-39.11,CXMD 121800Z AUTO 34010G17KT M28/M32 RMK AO1 SOG 08 1032 PK WND 35021/1702 SLP338 T12751319 50004
CYWG,2020-02-12 18:00,-97.2333,49.9167,239.00,-18.40,-29.20,56.45,320.00,14.00,0.00,30.42,1033.20,15.00,M,CLR,M,M,M,M,M,M,M,DRSN,M,M,M,M,M,M,-43.80,CYWG 121800Z 32014KT 15SM DRSN SKC M28/M34 A3042 RMK SLP332
CWCF,2020-02-12 18:00,-97.0219,52.3597,222.00,-21.50,-31.40,58.77,310.00,11.00,0.00,M,1032.40,M,16.00,M,M,M,M,M,M,M,M,M,M,M,M,18.00,310.00,2020-02-12 17:20,-45.14,CWCF 121800Z AUTO 31011G16KT M30/M35 RMK AO1 SOG 27 1015 PK WND 31018/1720 SLP324 T12971352
CWEQ,2020-02-12 18:00,-101.2331,52.1150,335.00,-16.60,-24.70,65.58,210.00,13.00,0.00,M,1035.40,M,M,M,M,M,M,M,M,M,M,M,M,M,M,M,M,M,-40.69,CWEQ 121800Z AUTO 21013KT M27/M32 RMK AO1 SOG 06 1009 SLP354 T12701315
CWGX,2020-02-12 18:00,-94.7000,56.3667,145.00,-21.50,-30.50,61.75,290.00,9.00,0.00,M,1024.20,M,M,M,M,M,M,M,M,M,M,M,M,M,M,M,M,M,-43.01,CWGX 121800Z AUTO 29009KT M30/M35 RMK AO1 SOG 32 2004 SLP242 T12971347
CWII,2020-02-12 18:00,-96.5622,50.6951,220.00,-20.60,-29.90,60.89,320.00,10.00,0.00,M,1033.10,M,M,M,M,M,M,M,M,M,M,M,M,M,M,M,M,M,-42.99,CWII 121800Z AUTO 32010KT M29/M34 RMK AO1 SLP331 T12921344 51026
CWJD,2020-02-12 18:00,-99.2678,53.1864,223.00,-14.60,-29.70,45.26,280.00,8.00,0.00,M,1033.10,M,16.00,M,M,M,M,M,M,M,M,M,M,M,M,M,M,M,-33.29,CWJD 121800Z AUTO 28008G16KT M26/M34 RMK AO1 SOG 45 1003 SLP331 T12591343
CWNK,2020-02-12 18:00,-98.0297,49.4981,268.00,-15.70,-27.20,54.80,M,M,0.00,M,M,M,M,M,M,M,M,M,M,M,M,M,M,M,M,M,M,M,M,CWNK 121800Z AUTO M27/M33 RMK AO1 19 T12651329
CWPO,2020-02-12 18:00,-98.9050,49.1911,470.00,-17.30,-24.70,67.97,330.00,12.00,0.00,M,1034.40,M,M,M,M,M,M,M,M,M,M,M,M,M,M,17.00,340.00,2020-02-12 17:06,-40.74,CWPO 121800Z AUTO 33012KT M27/M32 RMK AO1 SOG 18 1030 PK WND 34017/1706 SLP344 T12741315
CXGH,2020-02-12 18:00,-96.9822,50.6311,217.00,-18.90,-29.70,56.37,320.00,9.00,0.00,M,1031.60,M,M,M,M,M,M,M,M,M,M,M,M,M,M,M,M,M,-39.78,CXGH 121800Z AUTO 32009KT M28/M34 RMK AO1 SLP316 T12831343 51022
CXWN,2020-02-12 18:00,-97.1296,49.8885,230.00,-15.70,-26.70,56.29,340.00,5.00,0.00,M,1032.90,M,M,M,M,M,M,M,M,M,M,M,M,M,M,M,M,M,-30.25,CXWN 121800Z AUTO 34005KT M27/M33 RMK AO1 SLP329 T12651326 51028
CYBR,2020-02-12 18:00,-99.9519,49.9100,409.00,-14.80,-25.60,57.05,300.00,11.00,0.00,30.42,1035.10,15.00,M,CLR,M,M,M,M,M,M,M,M,M,M,M,M,M,M,-36.68,CYBR 121800Z 30011KT 15SM SKC M26/M32 A3042 RMK SLP351
CYDN,2020-02-12 18:00,-100.0525,51.1008,305.00,-13.00,-23.80,57.35,260.00,11.00,0.00,30.45,1035.10,9.00,M,CLR,M,M,M,M,M,M,M,M,M,M,M,M,M,M,-34.40,CYDN 121800Z AUTO 26011KT 9SM CLR M25/M31 A3045 RMK SLP351
CYFO,2020-02-12 18:00,-101.6817,54.6781,304.00,-14.80,-29.20,46.98,270.00,8.00,0.00,30.39,1033.80,15.00,M,SCT,M,M,M,25000.00,M,M,M,M,M,M,M,M,M,M,-33.54,CYFO 121800Z 27008KT 15SM SCT250 M26/M34 A3039 RMK CI4 SLP338
CYIV,2020-02-12 18:00,-94.6537,53.8571,237.00,-23.80,-32.80,61.39,290.00,6.00,0.00,30.23,1027.70,15.00,M,FEW,FEW,M,M,1000.00,22000.00,M,M,IC,M,M,M,M,M,M,-41.67,CYIV 121800Z 29006KT 15SM IC FEW010 FEW220 M31/M36 A3023 RMK SF1CI1 CI TR SLP277
CYNE,2020-02-12 18:00,-97.8442,53.9583,223.00,-18.40,-29.20,56.45,280.00,7.00,0.00,30.30,1030.00,9.00,M,CLR,M,M,M,M,M,M,M,M,M,M,M,M,M,M,-36.65,CYNE 121800Z AUTO 28007KT 250V310 9SM CLR M28/M34 A3030 RMK SLP300
CYPG,2020-02-12 18:00,-98.2739,49.9031,269.00,-18.40,-27.40,62.24,310.00,15.00,0.00,30.45,1034.60,10.00,M,CLR,M,M,M,M,M,M,M,M,M,M,M,M,M,M,-44.56,CYPG 121800Z 31015KT 10SM SKC M28/M33 A3045 RMK SLP346
CYQD,2020-02-12 18:00,-101.0911,53.9714,271.00,-16.60,-29.20,51.48,270.00,11.00,0.00,30.42,1034.20,9.00,16.00,CLR,M,M,M,M,M,M,M,M,M,M,M,M,M,M,-38.95,CYQD 121800Z AUTO 27011G16KT 9SM CLR M27/M34 A3042 RMK SLP342
CYTH,2020-02-12 18:00,-97.8642,55.8011,218.00,-18.40,-27.40,62.24,280.00,12.00,0.00,30.22,1027.40,15.00,M,SCT,OVC,M,M,7000.00,21000.00,M,M,IC,M,M,M,M,M,M,-42.14,CYTH 121800Z 28012KT 15SM IC SCT070 OVC210 M28/M33 A3022 RMK AC3CI5 SLP274
CYYL,2020-02-12 18:00,-101.0761,56.8639,357.00,-18.40,-27.40,62.24,310.00,11.00,0.00,30.23,1029.70,9.00,23.00,OVC,M,M,M,11000.00,M,M,M,M,M,M,M,M,M,M,-41.23,CYYL 121800Z AUTO 31011G23KT 9SM OVC110 M28/M33 A3023 RMK SLP297
CYBV,2020-02-12 18:00,-97.0183,52.3589,222.00,-22.00,-29.20,68.06,310.00,10.00,0.00,30.38,1032.30,10.00,20.00,FEW,M,M,M,1000.00,M,M,M,DRSN,M,M,M,M,M,M,-44.75,CYBV 121800Z 31010G20KT 10SM DRSN FEW010 M30/M34 A3038 RMK ST2 VIS W 6 SLP323
CYGX,2020-02-12 18:00,-94.7106,56.3575,145.00,-22.00,-31.00,61.68,280.00,9.00,0.00,30.16,1024.20,15.00,M,CLR,M,M,M,M,M,M,M,M,M,M,M,M,M,M,-43.63,CYGX 121800Z 28009KT 15SM SKC M30/M35 A3016 RMK SLP242
CYBQ,2020-02-12 18:03,-98.5122,58.7061,281.00,-18.40,-27.40,62.24,340.00,11.00,0.00,30.10,1024.10,7.00,21.00,OVC,M,M,M,2600.00,M,M,M,M,M,M,M,M,M,M,-41.23,CYBQ 121803Z AUTO 34011G21KT 7SM OVC026 M28/M33 A3010 RMK SLP241
CYYQ,2020-02-12 18:16,-94.0650,58.7392,29.00,-18.40,-25.60,68.55,320.00,19.00,0.00,30.10,1019.80,3.00,26.00,BKN,M,M,M,2100.00,M,M,M,IC BLSN,M,M,M,M,M,M,-47.21,CYYQ 121816Z 32019G26KT 3SM IC BLSN BKN021 M28/M32 A3010 RMK SC6 VIS VRB 2-4 SLP198
CYIV,2020-02-12 18:20,-94.6537,53.8571,237.00,-23.80,-32.80,61.39,290.00,7.00,0.00,30.22,1027.40,15.00,M,FEW,M,M,M,1000.00,M,M,M,M,M,M,M,M,M,M,-43.24,CYIV 121820Z 29007KT 15SM FEW010 M31/M36 A3022 RMK SF1 SF TR SLP274
CYBQ,2020-02-12 18:21,-98.5122,58.7061,281.00,-18.40,-27.40,62.24,320.00,7.00,0.00,30.10,1024.30,6.00,26.00,OVC,M,M,M,2600.00,M,M,M,HZ,M,M,M,M,M,M,-36.65,CYBQ 121821Z AUTO 32007G26KT 290V360 6SM HZ OVC026 M28/M33 A3010 RMK SLP243
CYBQ,2020-02-12 18:27,-98.5122,58.7061,281.00,-18.40,-27.40,62.24,320.00,9.00,0.00,30.10,1024.20,5.00,18.00,OVC,M,M,M,2600.00,M,M,M,HZ,M,M,M,M,M,M,-39.16,CYBQ 121827Z AUTO 32009G18KT 290V360 5SM HZ OVC026 M28/M33 A3010 RMK SLP242
CYBQ,2020-02-12 18:41,-98.5122,58.7061,281.00,-18.40,-27.40,62.24,320.00,13.00,0.00,30.11,1024.50,5.00,18.00,OVC,M,M,M,2400.00,M,M,M,HZ,M,M,M,M,M,M,-43.00,CYBQ 121841Z AUTO 32013G18KT 290V350 5SM HZ OVC024 M28/M33 A3011 RMK SLP245
CYYL,2020-02-12 18:45,-101.0761,56.8639,357.00,-14.80,-23.80,62.78,300.00,14.00,0.00,30.23,1029.60,9.00,20.00,CLR,M,M,M,M,M,M,M,-SN,M,M,M,M,M,M,-39.16,CYYL 121845Z AUTO 30014G20KT 9SM -SN CLR M26/M31 A3023 RMK SLP296
CYBQ,2020-02-12 18:47,-98.5122,58.7061,281.00,-18.40,-27.40,62.24,310.00,10.00,0.00,30.11,1024.60,6.00,18.00,OVC,M,M,M,2400.00,M,M,M,HZ,M,M,M,M,M,M,-40.23,CYBQ 121847Z AUTO 31010G18KT 290V360 6SM HZ OVC024 M28/M33 A3011 RMK SLP246
CWWS,2020-02-12 19:00,-97.6164,52.8186,223.00,-17.70,-25.60,66.13,M,M,0.00,M,1031.50,M,M,M,M,M,M,M,M,M,M,M,M,M,M,M,M,M,M,CWWS 121900Z AUTO M28/M32 RMK AO1 21 SOG 01 8003 SLP315 T12761320
CXMD,2020-02-12 19:00,-98.0839,49.1878,301.00,-16.10,-24.20,65.66,340.00,11.00,0.00,M,1034.00,M,M,M,M,M,M,M,M,M,M,M,M,M,M,17.00,340.00,2020-02-12 18:08,-38.32,CXMD 121900Z AUTO 34011KT M27/M31 RMK AO1 SOG 07 1022 PK WND 34017/1808 SLP340 T12671312
CYWG,2020-02-12 19:00,-97.2333,49.9167,239.00,-18.40,-29.20,56.45,320.00,15.00,0.00,30.42,1033.30,15.00,M,CLR,M,M,M,M,M,M,M,M,M,M,M,M,M,M,-44.56,CYWG 121900Z 32015KT 15SM SKC M28/M34 A3042 RMK SLP333
CWCF,2020-02-12 19:00,-97.0219,52.3597,222.00,-20.20,-30.30,58.34,280.00,11.00,0.00,M,1032.20,M,M,M,M,M,M,M,M,M,M,M,M,M,M,17.00,300.00,2020-02-12 18:42,-43.50,CWCF 121900Z AUTO 28011KT M29/M35 RMK AO1 SOG 27 0007 PK WND 30017/1842 SLP322 T12901346
CWEQ,2020-02-12 19:00,-101.2331,52.1150,335.00,-14.40,-24.70,58.66,220.00,16.00,0.00,M,1034.80,M,M,M,M,M,M,M,M,M,M,M,M,M,M,20.00,210.00,2020-02-12 18:53,-40.06,CWEQ 121900Z AUTO 22016KT M26/M32 RMK AO1 SOG 06 8002 PK WND 21020/1853 SLP348 T12581315
CWGX,2020-02-12 19:00,-94.7000,56.3667,145.00,-18.20,-27.40,61.60,290.00,8.00,0.00,M,1023.90,M,M,M,M,M,M,M,M,M,M,M,M,M,M,M,M,M,-37.72,CWGX 121900Z AUTO 29008KT M28/M33 RMK AO1 SOG 32 8001 SLP239 T12791330
CWII,2020-02-12 19:00,-96.5622,50.6951,220.00,-17.50,-28.80,55.09,310.00,12.00,0.00,M,1032.90,M,M,M,M,M,M,M,M,M,M,M,M,M,M,M,M,M,-41.00,CWII 121900Z AUTO 31012KT M28/M34 RMK AO1 SLP329 T12751338 50013
CWJD,2020-02-12 19:00,-99.2678,53.1864,223.00,-12.60,-26.90,47.64,290.00,11.00,0.00,M,1032.50,M,18.00,M,M,M,M,M,M,M,M,M,M,M,M,20.00,280.00,2020-02-12 18:38,-33.90,CWJD 121900Z AUTO 29011G18KT M25/M33 RMK AO1 SOG 45 8006 PK WND 28020/1838 SLP325 T12481327
CWNK,2020-02-12 19:00,-98.0297,49.4981,268.00,-17.10,-27.00,59.49,M,M,0.00,M,M,M,M,M,M,M,M,M,M,M,M,M,M,M,M,M,M,M,M,CWNK 121900Z AUTO M27/M33 RMK AO1 17 T12731328
CWPO,2020-02-12 19:00,-98.9050,49.1911,470.00,-16.10,-26.00,59.65,330.00,12.00,0.00,M,1034.90,M,18.00,M,M,M,M,M,M,M,M,M,M,M,M,18.00,320.00,2020-02-12 18:50,-39.22,CWPO 121900Z AUTO 33012G18KT M27/M32 RMK AO1 SOG 18 1021 PK WND 32018/1850 SLP349 T12671322
CXGH,2020-02-12 19:00,-96.9822,50.6311,217.00,-15.70,-28.70,50.53,320.00,9.00,0.00,M,1031.60,M,M,M,M,M,M,M,M,M,M,M,M,M,M,M,M,M,-35.80,CXGH 121900Z AUTO 32009KT M27/M34 RMK AO1 SLP316 T12651337 50010
CXWN,2020-02-12 19:00,-97.1296,49.8885,230.00,-17.00,-26.70,60.15,320.00,4.00,0.00,M,1033.20,M,M,M,M,M,M,M,M,M,M,M,M,M,M,M,M,M,-29.80,CXWN 121900Z AUTO 32004KT M27/M33 RMK AO1 SLP332 T12721326 51017
CYBR,2020-02-12 19:00,-99.9519,49.9100,409.00,-13.00,-23.80,57.35,310.00,13.00,0.00,30.41,1035.10,15.00,M,CLR,M,M,M,M,M,M,M,M,M,M,M,M,M,M,-36.08,CYBR 121900Z 31013KT 15SM SKC M25/M31 A3041 RMK SLP351
CYDN,2020-02-12 19:00,-100.0525,51.1008,305.00,-11.20,-22.00,57.64,270.00,12.00,0.00,30.44,1034.80,9.00,M,CLR,M,M,M,M,M,M,M,M,M,M,M,M,M,M,-32.98,CYDN 121900Z AUTO 27012KT 9SM CLR M24/M30 A3044 RMK SLP348
CYFO,2020-02-12 19:00,-101.6817,54.6781,304.00,-11.20,-25.60,47.64,270.00,11.00,0.00,30.38,1033.40,15.00,M,SCT,M,M,M,25000.00,M,M,M,M,M,M,M,M,M,M,-32.13,CYFO 121900Z 27011KT 15SM SCT250 M24/M32 A3038 RMK CI4 SLP334
CYIV,2020-02-12 19:00,-94.6537,53.8571,237.00,-20.20,-29.20,61.96,280.00,7.00,0.00,30.21,1027.10,15.00,M,SCT,M,M,M,22000.00,M,M,M,M,M,M,M,M,M,M,-38.85,CYIV 121900Z 28007KT 15SM SCT220 M29/M34 A3021 RMK CI3 SLP271
CYNE,2020-02-12 19:00,-97.8442,53.9583,223.00,-14.80,-25.60,57.05,290.00,6.00,0.00,30.30,1029.70,9.00,M,CLR,M,M,M,M,M,M,M,M,M,M,M,M,M,M,-30.83,CYNE 121900Z AUTO 29006KT 260V330 9SM CLR M26/M32 A3030 RMK SLP297
CYPG,2020-02-12 19:00,-98.2739,49.9031,269.00,-16.60,-25.60,62.51,300.00,14.00,0.00,30.45,1034.60,15.00,M,CLR,M,M,M,M,M,M,M,M,M,M,M,M,M,M,-41.48,CYPG 121900Z 30014KT 15SM SKC M27/M32 A3045 RMK SLP346
CYQD,2020-02-12 19:00,-101.0911,53.9714,271.00,-14.80,-27.40,51.80,250.00,13.00,0.00,30.41,1033.90,9.00,M,SCT,M,M,M,16000.00,M,M,M,M,M,M,M,M,M,M,-38.39,CYQD 121900Z AUTO 25013KT 9SM SCT160 M26/M33 A3041 RMK SLP339
CYTH,2020-02-12 19:00,-97.8642,55.8011,218.00,-16.60,-25.60,62.51,300.00,10.00,0.00,30.21,1027.10,15.00,16.00,BKN,OVC,M,M,7000.00,21000.00,M,M,IC,M,M,M,M,M,M,-37.98,CYTH 121900Z 30010G16KT 15SM IC BKN070 OVC210 M27/M32 A3021 RMK AC7CI1 SLP271
CYYL,2020-02-12 19:00,-101.0761,56.8639,357.00,-13.00,-23.80,57.35,300.00,11.00,0.00,30.23,1029.50,9.00,19.00,CLR,M,M,M,M,M,M,M,-SN,M,M,M,M,M,M,-34.40,CYYL 121900Z AUTO 30011G19KT 9SM -SN CLR M25/M31 A3023 RMK SLP295
CYYQ,2020-02-12 19:00,-94.0650,58.7392,29.00,-18.40,-27.40,62.24,320.00,20.00,0.00,30.11,1020.10,3.00,25.00,BKN,M,M,M,1600.00,M,M,M,IC BLSN,M,M,M,M,M,M,-47.80,CYYQ 121900Z 32020G25KT 3SM IC BLSN BKN016 M28/M33 A3011 RMK SC6 VIS VRB 2-4 SLP201
CZKD,2020-02-12 19:00,-96.5097,56.0375,183.00,-15.70,-23.10,68.19,270.00,7.00,0.00,M,M,M,M,M,M,M,M,M,M,M,M,M,M,M,M,M,M,M,-33.36,CZKD 121900Z AUTO 27007KT M27/M31 RMK AO1 SOG 52 0003 T12651306
CYBV,2020-02-12 19:00,-97.0183,52.3589,222.00,-20.20,-27.40,68.31,300.00,11.00,0.00,30.37,1032.00,12.00,M,FEW,M,M,M,1000.00,M,M,M,DRSN,M,M,M,M,M,M,-43.50,CYBV 121900Z 30011KT 12SM DRSN FEW010 M29/M33 A3037 RMK ST1 SLP320
CYGX,2020-02-12 19:00,-94.7106,56.3575,145.00,-18.40,-27.40,62.24,270.00,8.00,0.00,30.15,1023.80,15.00,M,CLR,M,M,M,M,M,M,M,M,M,M,M,M,M,M,-37.97,CYGX 121900Z 27008KT 15SM SKC M28/M33 A3015 RMK SLP238
CYBQ,2020-02-12 19:01,-98.5122,58.7061,281.00,-18.40,-27.40,62.24,320.00,11.00,0.00,30.11,1024.40,5.00,19.00,BKN,OVC,M,M,2200.00,3900.00,M,M,HZ,M,M,M,M,M,M,-41.23,CYBQ 121901Z AUTO 32011G19KT 5SM HZ BKN022 OVC039 M28/M33 A3011 RMK SLP244
CYTH,2020-02-12 19:12,-97.8642,55.8011,218.00,-16.60,-25.60,62.51,290.00,12.00,0.00,30.21,1027.00,10.00,M,OVC,M,M,M,7300.00,M,M,M,IC -SN,M,M,M,M,M,M,-39.85,CYTH 121912Z 29012KT 10SM IC -SN OVC073 M27/M32 A3021 RMK AC8 SLP270
CYBQ,2020-02-12 19:17,-98.5122,58.7061,281.00,-18.40,-27.40,62.24,320.00,10.00,0.00,30.10,1024.20,2.50,20.00,BKN,OVC,M,M,2200.00,3900.00,M,M,HZ,M,M,M,M,M,M,-40.23,CYBQ 121917Z AUTO 32010G20KT 2 1/2SM HZ BKN022 OVC039 M28/M33 A3010 RMK VIS VRB 1 1/2-3 SLP242
CYYL,2020-02-12 19:21,-101.0761,56.8639,357.00,-13.00,-23.80,57.35,310.00,13.00,0.00,30.23,1029.60,9.00,19.00,BKN,M,M,M,12000.00,M,M,M,M,M,M,M,M,M,M,-36.08,CYYL 121921Z AUTO 31013G19KT 9SM BKN120 M25/M31 A3023 RMK SLP296
CYIV,2020-02-12 19:22,-94.6537,53.8571,237.00,-18.40,-27.40,62.24,270.00,10.00,0.00,30.21,1027.00,15.00,M,BKN,M,M,M,22000.00,M,M,M,M,M,M,M,M,M,M,-40.23,CYIV 121922Z 27010KT 15SM BKN220 M28/M33 A3021 RMK CI6 SLP270
CYBQ,2020-02-12 19:22,-98.5122,58.7061,281.00,-18.40,-27.40,62.24,320.00,12.00,0.00,30.11,1024.30,2.25,19.00,SCT,OVC,M,M,2200.00,3900.00,M,M,HZ,M,M,M,M,M,M,-42.14,CYBQ 121922Z AUTO 32012G19KT 2 1/4SM HZ SCT022 OVC039 M28/M33 A3011 RMK VIS VRB 1 1/2-3 SLP243
CYBQ,2020-02-12 19:27,-98.5122,58.7061,281.00,-18.40,-25.60,68.55,320.00,11.00,0.00,30.11,1024.30,2.25,19.00,BKN,OVC,M,M,2200.00,3900.00,M,M,HZ,M,M,M,M,M,M,-41.23,CYBQ 121927Z AUTO 32011G19KT 2 1/4SM HZ BKN022 OVC039 M28/M32 A3011 RMK SLP243
CYIV,2020-02-12 19:33,-94.6537,53.8571,237.00,-18.40,-27.40,62.24,270.00,10.00,0.00,30.21,1026.90,15.00,15.00,BKN,M,M,M,22000.00,M,M,M,IC,M,M,M,M,M,M,-40.23,CYIV 121933Z 27010G15KT 15SM IC BKN220 M28/M33 A3021 RMK CI6 SLP269
CYBQ,2020-02-12 19:47,-98.5122,58.7061,281.00,-18.40,-25.60,68.55,310.00,6.00,0.00,30.11,1024.40,3.00,18.00,OVC,M,M,M,2200.00,M,M,M,HZ,M,M,M,M,M,M,-35.17,CYBQ 121947Z AUTO 31006G18KT 280V350 3SM HZ OVC022 M28/M32 A3011 RMK SLP244
CYIV,2020-02-12 19:53,-94.6537,53.8571,237.00,-18.40,-27.40,62.24,280.00,12.00,0.00,30.21,1026.90,15.00,M,FEW,M,M,M,22000.00,M,M,M,IC,M,M,M,M,M,M,-42.14,CYIV 121953Z 28012KT 15SM IC FEW220 M28/M33 A3021 RMK CI2 SLP269
CWWS,2020-02-12 20:00,-97.6164,52.8186,223.00,-14.30,-21.10,70.56,M,M,0.00,M,1031.50,M,M,M,M,M,M,M,M,M,M,M,M,M,M,M,M,M,M,CWWS 122000Z AUTO M26/M30 RMK AO1 20 SOG 01 5005 SLP315 T12571295
CXMD,2020-02-12 20:00,-98.0839,49.1878,301.00,-13.50,-21.60,66.02,340.00,8.00,0.00,M,1033.90,M,M,M,M,M,M,M,M,M,M,M,M,M,M,M,M,M,-31.93,CXMD 122000Z AUTO 34008KT M25/M30 RMK AO1 SOG 08 0009 SLP339 T12531298
CYWG,2020-02-12 20:00,-97.2333,49.9167,239.00,-16.60,-27.40,56.75,310.00,14.00,0.00,30.43,1033.70,15.00,M,CLR,M,M,M,M,M,M,M,M,M,M,M,M,M,M,-41.48,CYWG 122000Z 31014KT 15SM SKC M27/M33 A3043 RMK SLP337
CWCF,2020-02-12 20:00,-97.0219,52.3597,222.00,-18.60,-28.70,58.61,280.00,11.00,0.00,M,1032.20,M,M,M,M,M,M,M,M,M,M,M,M,M,M,M,M,M,-41.48,CWCF 122000Z AUTO 28011KT M28/M34 RMK AO1 SOG 27 1002 SLP322 T12811337
CWEQ,2020-02-12 20:00,-101.2331,52.1150,335.00,-12.30,-22.20,60.25,220.00,14.00,0.00,M,1034.30,M,20.00,M,M,M,M,M,M,M,M,M,M,M,M,20.00,210.00,2020-02-12 19:32,-35.94,CWEQ 122000Z AUTO 22014G20KT M25/M30 RMK AO1 SOG 06 8010 PK WND 21020/1932 SLP343 T12461301
CWGX,2020-02-12 20:00,-94.7000,56.3667,145.00,-16.40,-25.60,61.88,290.00,10.00,0.00,M,1023.90,M,M,M,M,M,M,M,M,M,M,M,M,M,M,M,M,M,-37.73,CWGX 122000Z AUTO 29010KT M27/M32 RMK AO1 SOG 32 8001 SLP239 T12691320
CWII,2020-02-12 20:00,-96.5622,50.6951,220.00,-18.20,-27.90,59.96,300.00,11.00,0.00,M,1033.10,M,M,M,M,M,M,M,M,M,M,M,M,M,M,M,M,M,-40.97,CWII 122000Z AUTO 30011KT M28/M33 RMK AO1 SLP331 T12791333 51005
CWJD,2020-02-12 20:00,-99.2678,53.1864,223.00,-11.20,-25.10,48.93,290.00,11.00,0.00,M,1032.30,M,20.00,M,M,M,M,M,M,M,M,M,M,M,M,22.00,310.00,2020-02-12 19:48,-32.13,CWJD 122000Z AUTO 29011G20KT M24/M32 RMK AO1 SOG 45 8006 PK WND 31022/1948 SLP323 T12401317
CWNK,2020-02-12 20:00,-98.0297,49.4981,268.00,-15.50,-25.80,58.48,M,M,0.00,M,M,M,M,M,M,M,M,M,M,M,M,M,M,M,M,M,M,M,M,CWNK 122000Z AUTO M26/M32 RMK AO1 17 T12641321
CWPO,2020-02-12 20:00,-98.9050,49.1911,470.00,-14.40,-24.50,59.29,320.00,12.00,0.00,M,1035.10,M,M,M,M,M,M,M,M,M,M,M,M,M,M,18.00,320.00,2020-02-12 19:01,-37.05,CWPO 122000Z AUTO 32012KT M26/M31 RMK AO1 SOG 18 1011 PK WND 32018/1901 SLP351 T12581314
CXGH,2020-02-12 20:00,-96.9822,50.6311,217.00,-14.80,-27.40,51.80,320.00,9.00,0.00,M,1031.60,M,M,M,M,M,M,M,M,M,M,M,M,M,M,M,M,M,-34.68,CXGH 122000Z AUTO 32009KT M26/M33 RMK AO1 SLP316 T12601330 51002
CXWN,2020-02-12 20:00,-97.1296,49.8885,230.00,-16.10,-26.10,59.33,330.00,5.00,0.00,M,1033.70,M,M,M,M,M,M,M,M,M,M,M,M,M,M,M,M,M,-30.73,CXWN 122000Z AUTO 33005KT M27/M32 RMK AO1 SLP337 T12671323 51013
CYBR,2020-02-12 20:00,-99.9519,49.9100,409.00,-11.20,-23.80,52.43,290.00,13.00,0.00,30.40,1034.70,15.00,M,CLR,M,M,M,M,M,M,M,M,M,M,M,M,M,M,-33.78,CYBR 122000Z 29013KT 15SM SKC M24/M31 A3040 RMK SLP347
CYDN,2020-02-12 20:00,-100.0525,51.1008,305.00,-9.40,-20.20,57.94,290.00,11.00,0.00,30.43,1034.50,9.00,M,CLR,M,M,M,M,M,M,M,M,M,M,M,M,M,M,-29.85,CYDN 122000Z AUTO 29011KT 9SM CLR M23/M29 A3043 RMK SLP345
CYFO,2020-02-12 20:00,-101.6817,54.6781,304.00,-7.60,-23.80,43.92,270.00,8.00,0.00,30.37,1032.90,15.00,15.00,BKN,M,M,M,25000.00,M,M,M,M,M,M,M,M,M,M,-24.67,CYFO 122000Z 27008G15KT 15SM BKN250 M22/M31 A3037 RMK CI6 SLP329
CYIV,2020-02-12 20:00,-94.6537,53.8571,237.00,-18.40,-27.40,62.24,270.00,11.00,0.00,30.21,1027.00,15.00,M,FEW,M,M,M,22000.00,M,M,M,IC,M,M,M,M,M,M,-41.23,CYIV 122000Z 27011KT 15SM IC FEW220 M28/M33 A3021 RMK CI1 SLP270
CYNE,2020-02-12 20:00,-97.8442,53.9583,223.00,-13.00,-23.80,57.35,280.00,8.00,0.00,30.28,1029.00,9.00,15.00,FEW,M,M,M,10000.00,M,M,M,M,M,M,M,M,M,M,-31.32,CYNE 122000Z AUTO 28008G15KT 240V320 9SM FEW100 M25/M31 A3028 RMK SLP290
CYPG,2020-02-12 20:00,-98.2739,49.9031,269.00,-14.80,-23.80,62.78,300.00,13.00,0.00,30.44,1034.40,15.00,M,CLR,M,M,M,M,M,M,M,M,M,M,M,M,M,M,-38.39,CYPG 122000Z 30013KT 15SM SKC M26/M31 A3044 RMK SLP344
CYQD,2020-02-12 20:00,-101.0911,53.9714,271.00,-13.00,-25.60,52.11,270.00,14.00,0.00,30.40,1033.50,9.00,20.00,FEW,M,M,M,11000.00,M,M,M,M,M,M,M,M,M,M,-36.84,CYQD 122000Z AUTO 27014G20KT 9SM FEW110 M25/M32 A3040 RMK SLP335
CYTH,2020-02-12 20:00,-97.8642,55.8011,218.00,-14.80,-23.80,62.78,270.00,13.00,0.00,30.21,1027.00,12.00,M,OVC,M,M,M,9100.00,M,M,M,-SN DRSN,M,M,M,M,M,M,-38.39,CYTH 122000Z 27013KT 12SM -SN DRSN OVC091 M26/M31 A3021 RMK AC8 SLP270
CYYL,2020-02-12 20:00,-101.0761,56.8639,357.00,-11.20,-22.00,57.64,310.00,15.00,0.00,30.23,1029.50,9.00,21.00,FEW,OVC,M,M,9000.00,12000.00,M,M,M,M,M,M,M,M,M,-35.22,CYYL 122000Z AUTO 31015G21KT 9SM FEW090 OVC120 M24/M30 A3023 RMK SLP295
CYYQ,2020-02-12 20:00,-94.0650,58.7392,29.00,-20.20,-27.40,68.31,320.00,17.00,0.00,30.12,1020.50,5.00,24.00,FEW,M,M,M,1700.00,M,M,M,IC BLSN,M,M,M,M,M,M,-48.31,CYYQ 122000Z 32017G24KT 5SM IC BLSN FEW017 M29/M33 A3012 RMK SC2 SLP205
CYBV,2020-02-12 20:00,-97.0183,52.3589,222.00,-18.40,-25.60,68.55,300.00,13.00,0.00,30.37,1032.00,15.00,M,FEW,M,M,M,1000.00,M,M,M,DRSN,M,M,M,M,M,M,-43.00,CYBV 122000Z 30013KT 15SM DRSN FEW010 M28/M32 A3037 RMK ST1 SLP320
CYGX,2020-02-12 20:00,-94.7106,56.3575,145.00,-16.60,-25.60,62.51,270.00,11.00,0.00,30.15,1023.80,15.00,M,FEW,M,M,M,8000.00,M,M,M,M,M,M,M,M,M,M,-38.95,CYGX 122000Z 27011KT 15SM FEW080 M27/M32 A3015 RMK AC2 SLP238
CYBQ,2020-02-12 20:00,-98.5122,58.7061,281.00,-18.40,-25.60,68.55,320.00,13.00,0.00,30.11,1024.40,3.00,19.00,OVC,M,M,M,2200.00,M,M,M,HZ,M,M,M,M,M,M,-43.00,CYBQ 122000Z AUTO 32013G19KT 3SM HZ OVC022 M28/M32 A3011 RMK SLP244
CYTH,2020-02-12 20:17,-97.8642,55.8011,218.00,-14.80,-23.80,62.78,280.00,11.00,0.00,30.21,1026.90,15.00,17.00,OVC,M,M,M,8900.00,M,M,M,DRSN,M,M,M,M,M,M,-36.68,CYTH 122017Z 28011G17KT 15SM DRSN OVC089 M26/M31 A3021 RMK AC8 SLP269
CYBQ,2020-02-12 20:25,-98.5122,58.7061,281.00,-16.60,-25.60,62.51,320.00,10.00,0.00,30.11,1024.30,6.00,18.00,OVC,M,M,M,2000.00,M,M,M,HZ,M,M,M,M,M,M,-37.98,CYBQ 122025Z AUTO 32010G18KT 6SM HZ OVC020 M27/M32 A3011 RMK SLP243
CWWS,2020-02-12 21:00,-97.6164,52.8186,223.00,-12.30,-21.30,63.16,M,M,0.00,M,1031.10,M,M,M,M,M,M,M,M,M,M,M,M,M,M,M,M,M,M,CWWS 122100Z AUTO M25/M30 RMK AO1 18 SOG 01 6009 SLP311 T12461296
CXMD,2020-02-12 21:00,-98.0839,49.1878,301.00,-11.40,-20.00,64.62,330.00,10.00,0.00,M,1033.60,M,15.00,M,M,M,M,M,M,M,M,M,M,M,M,M,M,M,-31.46,CXMD 122100Z AUTO 33010G15KT M24/M29 RMK AO1 SOG 07 8003 SLP336 T12411289
CYWG,2020-02-12 21:00,-97.2333,49.9167,239.00,-16.60,-25.60,62.51,310.00,15.00,0.00,30.43,1033.90,15.00,M,CLR,M,M,M,M,M,M,M,M,M,M,M,M,M,M,-42.23,CYWG 122100Z 31015KT 15SM SKC M27/M32 A3043 RMK SLP339
CWCF,2020-02-12 21:00,-97.0219,52.3597,222.00,-15.00,-25.40,58.25,280.00,10.00,0.00,M,1031.80,M,M,M,M,M,M,M,M,M,M,M,M,M,M,M,M,M,-35.97,CWCF 122100Z AUTO 28010KT M26/M32 RMK AO1 SOG 27 8006 SLP318 T12611319
CWEQ,2020-02-12 21:00,-101.2331,52.1150,335.00,-8.50,-20.90,53.45,230.00,13.00,0.00,M,1033.90,M,M,M,M,M,M,M,M,M,M,M,M,M,M,19.00,220.00,2020-02-12 20:06,-30.32,CWEQ 122100Z AUTO 23013KT M23/M29 RMK AO1 SOG 06 6014 PK WND 22019/2006 SLP339 T12251294
CWGX,2020-02-12 21:00,-94.7000,56.3667,145.00,-15.50,-24.50,62.68,290.00,11.00,0.00,M,1023.70,M,M,M,M,M,M,M,M,M,M,M,M,M,M,M,M,M,-37.56,CWGX 122100Z AUTO 29011KT M26/M31 RMK AO1 SOG 32 6005 SLP237 T12641314
CWII,2020-02-12 21:00,-96.5622,50.6951,220.00,-16.40,-26.90,57.71,300.00,11.00,0.00,M,1033.20,M,M,M,M,M,M,M,M,M,M,M,M,M,M,M,M,M,-38.70,CWII 122100Z AUTO 30011KT M27/M33 RMK AO1 SLP332 T12691327 55001
CWJD,2020-02-12 21:00,-99.2678,53.1864,223.00,-8.50,-24.00,45.41,280.00,11.00,0.00,M,1032.00,M,20.00,M,M,M,M,M,M,M,M,M,M,M,M,23.00,260.00,2020-02-12 20:08,-28.71,CWJD 122100Z AUTO 28011G20KT M23/M31 RMK AO1 SOG 45 6010 PK WND 26023/2008 SLP320 T12251311
CWNK,2020-02-12 21:00,-98.0297,49.4981,268.00,-13.20,-23.60,58.54,M,M,0.00,M,M,M,M,M,M,M,M,M,M,M,M,M,M,M,M,M,M,M,M,CWNK 122100Z AUTO M25/M31 RMK AO1 T12511309
CWPO,2020-02-12 21:00,-98.9050,49.1911,470.00,-13.40,-23.80,58.51,310.00,13.00,0.00,M,1035.00,M,M,M,M,M,M,M,M,M,M,M,M,M,M,M,M,M,-36.59,CWPO 122100Z AUTO 31013KT M25/M31 RMK AO1 SOG 18 0002 SLP350 T12521310
CXGH,2020-02-12 21:00,-96.9822,50.6311,217.00,-12.80,-26.70,48.64,330.00,8.00,0.00,M,1031.70,M,M,M,M,M,M,M,M,M,M,M,M,M,M,M,M,M,-31.07,CXGH 122100Z AUTO 33008KT M25/M33 RMK AO1 SLP317 T12491326 55000
CXWN,2020-02-12 21:00,-97.1296,49.8885,230.00,-14.40,-24.20,60.24,300.00,5.00,0.00,M,1033.40,M,M,M,M,M,M,M,M,M,M,M,M,M,M,M,M,M,-28.71,CXWN 122100Z AUTO 30005KT M26/M31 RMK AO1 SLP334 T12581312 50003
CYBR,2020-02-12 21:00,-99.9519,49.9100,409.00,-9.40,-22.00,52.74,310.00,16.00,0.00,30.40,1034.80,15.00,M,CLR,M,M,M,M,M,M,M,M,M,M,M,M,M,M,-33.54,CYBR 122100Z 31016KT 15SM SKC M23/M30 A3040 RMK SLP348
CYDN,2020-02-12 21:00,-100.0525,51.1008,305.00,-7.60,-20.20,53.05,290.00,14.00,0.00,30.41,1033.90,9.00,M,CLR,M,M,M,M,M,M,M,M,M,M,M,M,M,M,-29.88,CYDN 122100Z AUTO 29014KT 9SM CLR M22/M29 A3041 RMK SLP339
CYFO,2020-02-12 21:00,-101.6817,54.6781,304.00,-7.60,-23.80,43.92,280.00,9.00,0.00,30.36,1032.70,15.00,15.00,BKN,M,M,M,25000.00,M,M,M,M,M,M,M,M,M,M,-25.73,CYFO 122100Z 28009G15KT 15SM BKN250 M22/M31 A3036 RMK CI6 SLP327
CYIV,2020-02-12 21:00,-94.6537,53.8571,237.00,-14.80,-25.60,57.05,270.00,8.00,0.00,30.20,1026.70,15.00,M,FEW,M,M,M,22000.00,M,M,M,IC,M,M,M,M,M,M,-33.54,CYIV 122100Z 27008KT 15SM IC FEW220 M26/M32 A3020 RMK CI1 CI TR SLP267
CYNE,2020-02-12 21:00,-97.8442,53.9583,223.00,-9.40,-23.80,47.97,290.00,10.00,0.00,30.27,1028.80,9.00,M,FEW,M,M,M,12000.00,M,M,M,M,M,M,M,M,M,M,-28.95,CYNE 122100Z AUTO 29010KT 230V320 9SM FEW120 M23/M31 A3027 RMK SLP288
CYPG,2020-02-12 21:00,-98.2739,49.9031,269.00,-13.00,-22.00,63.05,290.00,16.00,0.00,30.44,1034.40,15.00,M,CLR,M,M,M,M,M,M,M,M,M,M,M,M,M,M,-38.24,CYPG 122100Z 29016KT 15SM SKC M25/M30 A3044 RMK SLP344
CYQD,2020-02-12 21:00,-101.0911,53.9714,271.00,-9.40,-23.80,47.97,260.00,15.00,0.00,30.38,1032.80,9.00,21.00,BKN,BKN,M,M,10000.00,12000.00,M,M,M,M,M,M,M,M,M,-32.89,CYQD 122100Z AUTO 26015G21KT 9SM BKN100 BKN120 M23/M31 A3038 RMK SLP328
CYTH,2020-02-12 21:00,-97.8642,55.8011,218.00,-14.80,-23.80,62.78,270.00,13.00,0.00,30.21,1026.70,15.00,M,OVC,M,M,M,8500.00,M,M,M,DRSN,M,M,M,M,M,M,-38.39,CYTH 122100Z 27013KT 15SM DRSN OVC085 M26/M31 A3021 RMK AC8 SLP267
CYYL,2020-02-12 21:00,-101.0761,56.8639,357.00,-11.20,-20.20,63.32,300.00,11.00,0.00,30.22,1029.20,9.00,20.00,OVC,M,M,M,11000.00,M,M,M,M,M,M,M,M,M,M,-32.13,CYYL 122100Z AUTO 30011G20KT 9SM OVC110 M24/M29 A3022 RMK SLP292
CYYQ,2020-02-12 21:00,-94.0650,58.7392,29.00,-20.20,-27.40,68.31,320.00,17.00,0.00,30.13,1020.80,4.00,24.00,BKN,M,M,M,2300.00,M,M,M,IC BLSN,M,M,M,M,M,M,-48.31,CYYQ 122100Z 32017G24KT 4SM IC BLSN BKN023 M29/M33 A3013 RMK SC6 SLP208
CYBV,2020-02-12 21:00,-97.0183,52.3589,222.00,-14.80,-23.80,62.78,300.00,12.00,0.00,30.36,1031.60,15.00,M,FEW,M,M,M,22000.00,M,M,M,DRSN,M,M,M,M,M,M,-37.56,CYBV 122100Z 30012KT 15SM DRSN FEW220 M26/M31 A3036 RMK CS1 SLP316
CYGX,2020-02-12 21:00,-94.7106,56.3575,145.00,-16.60,-25.60,62.51,280.00,12.00,0.00,30.15,1023.60,15.00,M,SCT,M,M,M,8200.00,M,M,M,M,M,M,M,M,M,M,-39.85,CYGX 122100Z 28012KT 15SM SCT082 M27/M32 A3015 RMK AC3 SLP236
CYBQ,2020-02-12 21:06,-98.5122,58.7061,281.00,-14.80,-23.80,62.78,320.00,11.00,0.00,30.12,1024.50,9.00,18.00,SCT,M,M,M,2000.00,M,M,M,M,M,M,M,M,M,M,-36.68,CYBQ 122106Z AUTO 32011G18KT 270V340 9SM SCT020 M26/M31 A3012 RMK SLP245
CYYL,2020-02-12 21:26,-101.0761,56.8639,357.00,-9.40,-20.20,57.94,300.00,11.00,0.00,30.23,1029.30,9.00,18.00,SCT,M,M,M,11000.00,M,M,M,-SN,M,M,M,M,M,M,-29.85,CYYL 122126Z AUTO 30011G18KT 9SM -SN SCT110 M23/M29 A3023 RMK SLP293
CYYQ,2020-02-12 21:35,-94.0650,58.7392,29.00,-18.40,-25.60,68.55,300.00,19.00,0.00,30.13,1020.90,2.00,26.00,SCT,M,M,M,2300.00,M,M,M,IC BLSN,M,M,M,M,M,M,-47.21,CYYQ 122135Z 30019G26KT 2SM IC BLSN SCT023 M28/M32 A3013 RMK SC4 SLP209
CYTH,2020-02-12 21:42,-97.8642,55.8011,218.00,-13.00,-22.00,63.05,290.00,12.00,0.00,30.20,1026.50,12.00,M,BKN,M,M,M,8000.00,M,M,M,-SN DRSN,M,M,M,M,M,M,-35.27,CYTH 122142Z 29012KT 12SM -SN DRSN BKN080 M25/M30 A3020 RMK AC7 SLP265
CWWS,2020-02-12 22:00,-97.6164,52.8186,223.00,-11.00,-20.00,63.35,M,M,0.00,M,1030.70,M,M,M,M,M,M,M,M,M,M,M,M,M,M,M,M,M,M,CWWS 122200Z AUTO M24/M29 RMK AO1 17 SOG 01 8006 SLP307 T12391289
CXMD,2020-02-12 22:00,-98.0839,49.1878,301.00,-9.80,-18.40,64.85,350.00,7.00,0.00,M,1033.40,M,M,M,M,M,M,M,M,M,M,M,M,M,M,M,M,M,-26.17,CXMD 122200Z AUTO 35007KT M23/M28 RMK AO1 SOG 07 8007 SLP334 T12321280
CYWG,2020-02-12 22:00,-97.2333,49.9167,239.00,-14.80,-23.80,62.78,310.00,14.00,0.00,30.43,1033.80,15.00,M,CLR,M,M,M,M,M,M,M,M,M,M,M,M,M,M,-39.16,CYWG 122200Z 31014KT 15SM SKC M26/M31 A3043 RMK SLP338
CWCF,2020-02-12 22:00,-97.0219,52.3597,222.00,-12.30,-23.30,56.86,290.00,11.00,0.00,M,1031.40,M,M,M,M,M,M,M,M,M,M,M,M,M,M,17.00,290.00,2020-02-12 21:39,-33.52,CWCF 122200Z AUTO 29011KT M25/M31 RMK AO1 SOG 27 8008 PK WND 29017/2139 SLP314 T12461307
CWEQ,2020-02-12 22:00,-101.2331,52.1150,335.00,-9.00,-19.80,58.00,220.00,14.00,0.00,M,1033.90,M,M,M,M,M,M,M,M,M,M,M,M,M,M,18.00,230.00,2020-02-12 21:56,-31.69,CWEQ 122200Z AUTO 22014KT M23/M29 RMK AO1 SOG 06 6009 PK WND 23018/2156 SLP339 T12281288
CWGX,2020-02-12 22:00,-94.7000,56.3667,145.00,-15.70,-23.80,65.71,290.00,8.00,0.00,M,1024.20,M,M,M,M,M,M,M,M,M,M,M,M,M,M,M,M,M,-34.64,CWGX 122200Z AUTO 29008KT M27/M31 RMK AO1 SOG 32 3003 SLP242 T12651310
CWII,2020-02-12 22:00,-96.5622,50.6951,220.00,-14.40,-25.40,56.51,300.00,12.00,0.00,M,1033.00,M,M,M,M,M,M,M,M,M,M,M,M,M,M,M,M,M,-37.05,CWII 122200Z AUTO 30012KT M26/M32 RMK AO1 SLP330 T12581319 58001
CWJD,2020-02-12 22:00,-99.2678,53.1864,223.00,-9.90,-23.80,49.16,280.00,9.00,0.00,M,1031.60,M,16.00,M,M,M,M,M,M,M,M,M,M,M,M,20.00,310.00,2020-02-12 21:13,-28.59,CWJD 122200Z AUTO 28009G16KT M23/M31 RMK AO1 SOG 45 8008 PK WND 31020/2113 SLP316 T12331310
CWNK,2020-02-12 22:00,-98.0297,49.4981,268.00,-11.70,-22.20,58.48,M,M,0.00,M,M,M,M,M,M,M,M,M,M,M,M,M,M,M,M,M,M,M,M,CWNK 122200Z AUTO M24/M30 RMK AO1 T12431301
CWPO,2020-02-12 22:00,-98.9050,49.1911,470.00,-12.30,-21.10,63.82,310.00,12.00,0.00,M,1035.20,M,M,M,M,M,M,M,M,M,M,M,M,M,M,19.00,310.00,2020-02-12 21:19,-34.38,CWPO 122200Z AUTO 31012KT M25/M30 RMK AO1 SOG 18 4000 PK WND 31019/2119 SLP352 T12461295
CXGH,2020-02-12 22:00,-96.9822,50.6311,217.00,-11.40,-25.20,49.16,300.00,7.00,0.00,M,1031.60,M,M,M,M,M,M,M,M,M,M,M,M,M,M,M,M,M,-28.12,CXGH 122200Z AUTO 30007KT M24/M32 RMK AO1 SLP316 T12411318 58001
CXWN,2020-02-12 22:00,-97.1296,49.8885,230.00,-13.90,-23.10,62.26,300.00,5.00,0.00,M,1033.50,M,M,M,M,M,M,M,M,M,M,M,M,M,M,M,M,M,-28.12,CXWN 122200Z AUTO 30005KT M26/M31 RMK AO1 SLP335 T12551306 51001
CYBR,2020-02-12 22:00,-99.9519,49.9100,409.00,-9.40,-22.00,52.74,300.00,13.00,0.00,30.39,1034.70,15.00,M,CLR,M,M,M,M,M,M,M,M,M,M,M,M,M,M,-31.47,CYBR 122200Z 30013KT 15SM SKC M23/M30 A3039 RMK SLP347
CYDN,2020-02-12 22:00,-100.0525,51.1008,305.00,-9.40,-18.40,63.59,280.00,14.00,0.00,30.40,1033.90,9.00,19.00,CLR,M,M,M,M,M,M,M,M,M,M,M,M,M,M,-32.20,CYDN 122200Z AUTO 28014G19KT 9SM CLR M23/M28 A3040 RMK SLP339
CYFO,2020-02-12 22:00,-101.6817,54.6781,304.00,-5.80,-22.00,44.26,290.00,12.00,0.00,30.36,1032.60,15.00,M,SCT,BKN,M,M,11000.00,25000.00,M,M,M,M,M,M,M,M,M,-26.11,CYFO 122200Z 29012KT 260V320 15SM SCT110 BKN250 M21/M30 A3036 RMK AC4CI2 SLP326
CYIV,2020-02-12 22:00,-94.6537,53.8571,237.00,-14.80,-23.80,62.78,270.00,9.00,0.00,30.20,1026.60,15.00,M,CLR,M,M,M,M,M,M,M,IC,M,M,M,M,M,M,-34.68,CYIV 122200Z 27009KT 15SM IC SKC M26/M31 A3020 RMK SLP266
CYNE,2020-02-12 22:00,-97.8442,53.9583,223.00,-9.40,-23.80,47.97,280.00,8.00,0.00,30.27,1028.70,9.00,M,CLR,M,M,M,M,M,M,M,M,M,M,M,M,M,M,-26.88,CYNE 122200Z AUTO 28008KT 260V320 9SM CLR M23/M31 A3027 RMK SLP287
CYPG,2020-02-12 22:00,-98.2739,49.9031,269.00,-11.20,-22.00,57.64,310.00,14.00,0.00,30.44,1034.40,15.00,M,CLR,M,M,M,M,M,M,M,M,M,M,M,M,M,M,-34.52,CYPG 122200Z 31014KT 15SM SKC M24/M30 A3044 RMK SLP344
CYQD,2020-02-12 22:00,-101.0911,53.9714,271.00,-9.40,-22.00,52.74,270.00,11.00,0.00,30.38,1032.70,9.00,18.00,FEW,M,M,M,13000.00,M,M,M,M,M,M,M,M,M,M,-29.85,CYQD 122200Z AUTO 27011G18KT 9SM FEW130 M23/M30 A3038 RMK SLP327
CYTH,2020-02-12 22:00,-97.8642,55.8011,218.00,-11.20,-20.20,63.32,290.00,12.00,0.00,30.20,1026.50,12.00,M,BKN,M,M,M,7700.00,M,M,M,-SN DRSN,M,M,M,M,M,M,-32.98,CYTH 122200Z 29012KT 12SM -SN DRSN BKN077 M24/M29 A3020 RMK AC7 SLP265
CYYL,2020-02-12 22:00,-101.0761,56.8639,357.00,-9.40,-20.20,57.94,300.00,12.00,0.00,30.24,1029.50,9.00,21.00,CLR,M,M,M,M,M,M,M,-SN,M,M,M,M,M,M,-30.69,CYYL 122200Z AUTO 30012G21KT 9SM -SN CLR M23/M29 A3024 RMK SLP295
CYYQ,2020-02-12 22:00,-94.0650,58.7392,29.00,-18.40,-27.40,62.24,310.00,17.00,0.00,30.13,1020.90,4.00,25.00,SCT,M,M,M,2100.00,M,M,M,IC BLSN,M,M,M,M,M,M,-45.95,CYYQ 122200Z 31017G25KT 4SM R33/4500VP6000FT/U IC BLSN SCT021 M28/M33 A3013 RMK SC3 SLP209
CYBV,2020-02-12 22:00,-97.0183,52.3589,222.00,-13.00,-22.00,63.05,300.00,11.00,0.00,30.35,1031.30,15.00,17.00,FEW,M,M,M,22000.00,M,M,M,DRSN,M,M,M,M,M,M,-34.40,CYBV 122200Z CCA 30011G17KT 15SM DRSN FEW220 M25/M30 A3035 RMK CS1 SNW CVR/MUCH LOOSE/LAST STFD OBS/NEXT 131300UTC SLP313
CYGX,2020-02-12 22:00,-94.7106,56.3575,145.00,-16.60,-23.80,68.79,280.00,8.00,0.00,30.16,1024.10,15.00,M,BKN,M,M,M,1700.00,M,M,M,M,M,M,M,M,M,M,-35.75,CYGX 122200Z 28008KT 15SM BKN017 M27/M31 A3016 RMK SC5 SLP241
CYBQ,2020-02-12 22:00,-98.5122,58.7061,281.00,-16.60,-25.60,62.51,320.00,8.00,0.00,30.12,1024.70,9.00,17.00,CLR,M,M,M,M,M,M,M,M,M,M,M,M,M,M,-35.75,CYBQ 122200Z AUTO 32008G17KT 9SM CLR M27/M32 A3012 RMK SLP247
CYTH,2020-02-12 22:27,-97.8642,55.8011,218.00,-11.20,-20.20,63.32,300.00,10.00,0.00,30.21,1026.80,15.00,17.00,BKN,M,M,M,7600.00,M,M,M,DRSN,M,M,M,M,M,M,-31.21,CYTH 122227Z 30010G17KT 15SM DRSN BKN076 M24/M29 A3021 RMK AC6 SLP268
CYYL,2020-02-12 22:28,-101.0761,56.8639,357.00,-9.40,-20.20,57.94,300.00,12.00,0.00,30.25,1030.00,9.00,19.00,CLR,M,M,M,M,M,M,M,M,M,M,M,M,M,M,-30.69,CYYL 122228Z AUTO 30012G19KT 9SM CLR M23/M29 A3025 RMK SLP300
CYYL,2020-02-12 22:39,-101.0761,56.8639,357.00,-9.40,-20.20,57.94,300.00,12.00,0.00,30.24,1029.70,9.00,20.00,CLR,M,M,M,M,M,M,M,-SN,M,M,M,M,M,M,-30.69,CYYL 122239Z AUTO 30012G20KT 9SM -SN CLR M23/M29 A3024 RMK SLP297
CYIV,2020-02-12 22:40,-94.6537,53.8571,237.00,-14.80,-23.80,62.78,270.00,9.00,0.00,30.20,1026.60,15.00,15.00,CLR,M,M,M,M,M,M,M,M,M,M,M,M,M,M,-34.68,CYIV 122240Z 27009G15KT 15SM SKC M26/M31 A3020 RMK SLP266
CYYL,2020-02-12 22:57,-101.0761,56.8639,357.00,-9.40,-20.20,57.94,300.00,12.00,0.00,30.24,1029.80,9.00,18.00,CLR,M,M,M,M,M,M,M,M,M,M,M,M,M,M,-30.69,CYYL 122257Z AUTO 30012G18KT 9SM CLR M23/M29 A3024 RMK SLP298
CWWS,2020-02-12 23:00,-97.6164,52.8186,223.00,-11.70,-20.00,65.59,M,M,0.00,M,1030.90,M,M,M,M,M,M,M,M,M,M,M,M,M,M,M,M,M,M,CWWS 122300Z AUTO M24/M29 RMK AO1 SOG 01 5006 SLP309 T12431289
CXMD,2020-02-12 23:00,-98.0839,49.1878,301.00,-9.00,-18.80,61.08,330.00,7.00,0.00,M,1033.60,M,M,M,M,M,M,M,M,M,M,M,M,M,M,M,M,M,-25.20,CXMD 122300Z AUTO 33007KT M23/M28 RMK AO1 SOG 07 6005 SLP336 T12281282
CYWG,2020-02-12 23:00,-97.2333,49.9167,239.00,-14.80,-23.80,62.78,320.00,12.00,0.00,30.42,1033.60,15.00,M,CLR,M,M,M,M,M,M,M,M,M,M,M,M,M,M,-37.56,CYWG 122300Z 32012KT 15SM SKC M26/M31 A3042 RMK SLP336
CWCF,2020-02-12 23:00,-97.0219,52.3597,222.00,-11.60,-21.10,61.64,290.00,11.00,0.00,M,1031.40,M,M,M,M,M,M,M,M,M,M,M,M,M,M,M,M,M,-32.63,CWCF 122300Z AUTO 29011KT M24/M30 RMK AO1 SOG 27 6008 SLP314 T12421295
CWEQ,2020-02-12 23:00,-101.2331,52.1150,335.00,-8.90,-19.70,58.02,220.00,12.00,0.00,M,1034.00,M,M,M,M,M,M,M,M,M,M,M,M,M,M,17.00,230.00,2020-02-12 22:33,-30.05,CWEQ 122300Z AUTO 22012KT M23/M29 RMK AO1 SOG 06 6004 PK WND 23017/2233 SLP340 T12271287
CWGX,2020-02-12 23:00,-94.7000,56.3667,145.00,-16.20,-23.30,69.21,290.00,7.00,0.00,M,1024.40,M,M,M,M,M,M,M,M,M,M,M,M,M,M,M,M,M,-33.97,CWGX 122300Z AUTO 29007KT M27/M31 RMK AO1 SOG 32 3005 SLP244 T12681307
CWII,2020-02-12 23:00,-96.5622,50.6951,220.00,-13.50,-24.20,57.57,290.00,9.00,0.00,M,1032.90,M,M,M,M,M,M,M,M,M,M,M,M,M,M,M,M,M,-33.06,CWII 122300Z AUTO 29009KT M25/M31 RMK AO1 SLP329 T12531312 58003
CWJD,2020-02-12 23:00,-99.2678,53.1864,223.00,-10.10,-21.10,57.22,280.00,8.00,0.00,M,1031.50,M,16.00,M,M,M,M,M,M,M,M,M,M,M,M,19.00,290.00,2020-02-12 22:06,-27.75,CWJD 122300Z AUTO 28008G16KT M23/M30 RMK AO1 SOG 45 6008 PK WND 29019/2206 SLP315 T12341295
CWNK,2020-02-12 23:00,-98.0297,49.4981,268.00,-10.80,-22.20,55.92,M,M,0.00,M,M,M,M,M,M,M,M,M,M,M,M,M,M,M,M,M,M,M,M,CWNK 122300Z AUTO M24/M30 RMK AO1 T12381301
CWPO,2020-02-12 23:00,-98.9050,49.1911,470.00,-11.90,-21.50,61.27,310.00,12.00,0.00,M,1035.10,M,M,M,M,M,M,M,M,M,M,M,M,M,M,18.00,310.00,2020-02-12 22:33,-33.87,CWPO 122300Z AUTO 31012KT M24/M30 RMK AO1 SOG 18 7003 PK WND 31018/2233 SLP351 T12441297
CXGH,2020-02-12 23:00,-96.9822,50.6311,217.00,-11.40,-25.20,49.16,310.00,6.00,0.00,M,1031.50,M,M,M,M,M,M,M,M,M,M,M,M,M,M,M,M,M,-26.74,CXGH 122300Z AUTO 31006KT M24/M32 RMK AO1 SLP315 T12411318 58002
CXWN,2020-02-12 23:00,-97.1296,49.8885,230.00,-14.10,-23.60,61.25,320.00,6.00,0.00,M,1033.40,M,M,M,M,M,M,M,M,M,M,M,M,M,M,M,M,M,-29.99,CXWN 122300Z AUTO 32006KT M26/M31 RMK AO1 SLP334 T12561309 56005
CYBR,2020-02-12 23:00,-99.9519,49.9100,409.00,-11.20,-22.00,57.64,290.00,10.00,0.00,30.39,1034.70,15.00,M,CLR,M,M,M,M,M,M,M,M,M,M,M,M,M,M,-31.21,CYBR 122300Z 29010KT 15SM SKC M24/M30 A3039 RMK SLP347
CYDN,2020-02-12 23:00,-100.0525,51.1008,305.00,-9.40,-20.20,57.94,280.00,13.00,0.00,30.40,1033.90,9.00,19.00,CLR,M,M,M,M,M,M,M,M,M,M,M,M,M,M,-31.47,CYDN 122300Z AUTO 28013G19KT 9SM CLR M23/M29 A3040 RMK SLP339
CYFO,2020-02-12 23:00,-101.6817,54.6781,304.00,-7.60,-22.00,48.29,290.00,6.00,0.00,30.35,1032.50,15.00,M,SCT,BKN,M,M,11000.00,25000.00,M,M,M,M,M,M,M,M,M,-22.16,CYFO 122300Z 29006KT 15SM SCT110 BKN250 M22/M30 A3035 RMK AC3CI3 SLP325
CYIV,2020-02-12 23:00,-94.6537,53.8571,237.00,-14.80,-23.80,62.78,260.00,9.00,0.00,30.21,1026.80,15.00,M,CLR,M,M,M,M,M,M,M,M,M,M,M,M,M,M,-34.68,CYIV 122300Z 26009KT 15SM SKC M26/M31 A3021 RMK SLP268
CYNE,2020-02-12 23:00,-97.8442,53.9583,223.00,-9.40,-22.00,52.74,270.00,7.00,0.00,30.26,1028.20,9.00,M,OVC,M,M,M,11000.00,M,M,M,M,M,M,M,M,M,M,-25.68,CYNE 122300Z AUTO 27007KT 230V300 9SM OVC110 M23/M30 A3026 RMK SLP282
CYPG,2020-02-12 23:00,-98.2739,49.9031,269.00,-11.20,-22.00,57.64,300.00,11.00,0.00,30.43,1034.10,15.00,M,CLR,M,M,M,M,M,M,M,M,M,M,M,M,M,M,-32.13,CYPG 122300Z 30011KT 15SM SKC M24/M30 A3043 RMK LAST OBS/NEXT 131200 UTC SLP341
CYQD,2020-02-12 23:00,-101.0911,53.9714,271.00,-7.60,-20.20,53.05,270.00,8.00,0.00,30.37,1032.50,9.00,M,OVC,M,M,M,11000.00,M,M,M,M,M,M,M,M,M,M,-24.67,CYQD 122300Z AUTO 27008KT 9SM OVC110 M22/M29 A3037 RMK SLP325
CYTH,2020-02-12 23:00,-97.8642,55.8011,218.00,-11.20,-20.20,63.32,290.00,10.00,0.00,30.21,1026.70,12.00,M,SCT,M,M,M,8000.00,M,M,M,DRSN,M,M,M,M,M,M,-31.21,CYTH 122300Z 29010KT 12SM DRSN SCT080 M24/M29 A3021 RMK AC3 SLP267
CYYL,2020-02-12 23:00,-101.0761,56.8639,357.00,-9.40,-20.20,57.94,300.00,10.00,0.00,30.24,1029.80,9.00,18.00,CLR,M,M,M,M,M,M,M,M,M,M,M,M,M,M,-28.95,CYYL 122300Z AUTO 30010G18KT 9SM CLR M23/M29 A3024 RMK SLP298
CYYQ,2020-02-12 23:00,-94.0650,58.7392,29.00,-20.20,-27.40,68.31,300.00,13.00,0.00,30.13,1021.10,15.00,18.00,BKN,M,M,M,1900.00,M,M,M,IC DRSN,M,M,M,M,M,M,-45.31,CYYQ 122300Z 30013G18KT 15SM IC DRSN BKN019 M29/M33 A3013 RMK SC6 SLP211
CYGX,2020-02-12 23:00,-94.7106,56.3575,145.00,-16.60,-23.80,68.79,280.00,8.00,0.00,30.17,1024.30,15.00,M,BKN,M,M,M,1700.00,M,M,M,M,M,M,M,M,M,M,-35.75,CYGX 122300Z 28008KT 15SM BKN017 M27/M31 A3017 RMK SC5 SLP243
CYBQ,2020-02-12 23:00,-98.5122,58.7061,281.00,-16.60,-25.60,62.51,310.00,8.00,0.00,30.13,1025.00,9.00,M,CLR,M,M,M,M,M,M,M,M,M,M,M,M,M,M,-35.75,CYBQ 122300Z AUTO 31008KT 280V340 9SM CLR M27/M32 A3013 RMK SLP250