station,valid,lon,lat,elevation,tmpf,dwpf,relh,drct,sknt,p01i,alti,mslp,vsby,gust,skyc1,skyc2,skyc3,skyc4,skyl1,skyl2,skyl3,skyl4,wxcodes,ice_accretion_1hr,ice_accretion_3hr,ice_accretion_6hr,peak_wind_gust,peak_wind_drct,peak_wind_time,feel,metar
MDS,2020-02-12 00:15,-97.0859,44.0160,520.80,24.80,24.80,100.00,160.00,7.00,0.00,29.89,M,10.00,M,CLR,M,M,M,M,M,M,M,M,M,M,M,M,M,M,16.00,KMDS 120015Z AUTO 16007KT 10SM CLR M04/M04 A2989 RMK AO2
9V9,2020-02-12 00:15,-99.3183,43.7667,509.76,36.30,25.50,64.55,180.00,9.00,0.00,29.81,M,10.00,M,CLR,M,M,M,M,M,M,M,M,M,M,M,M,M,M,28.86,K9V9 120015Z AUTO 18009KT 10SM CLR 02/M04 A2981 RMK AO2 T00241036
SPF,2020-02-12 00:15,-103.7830,44.4803,1186.17,35.60,10.40,34.65,290.00,4.00,0.00,29.69,M,10.00,M,SCT,BKN,BKN,M,6500.00,9000.00,11000.00,M,M,M,M,M,M,M,M,31.62,KSPF 120015Z AUTO 29004KT 10SM SCT065 BKN090 BKN110 02/M12 A2969 RMK AO2
MDS,2020-02-12 00:35,-97.0859,44.0160,520.80,24.80,24.80,100.00,170.00,8.00,0.00,29.89,M,10.00,M,CLR,M,M,M,M,M,M,M,M,M,M,M,M,M,M,15.24,KMDS 120035Z AUTO 17008KT 10SM CLR M04/M04 A2989 RMK AO2
9V9,2020-02-12 00:35,-99.3183,43.7667,509.76,36.30,25.20,63.75,190.00,11.00,0.00,29.80,M,10.00,M,CLR,M,M,M,M,M,M,M,M,M,M,M,M,M,M,27.90,K9V9 120035Z AUTO 19011KT 10SM CLR 02/M04 A2980 RMK AO2 T00241038
SPF,2020-02-12 00:35,-103.7830,44.4803,1186.17,33.80,12.20,40.32,300.00,5.00,0.00,29.69,M,10.00,10.00,M,M,M,M,M,M,M,M,M,M,M,M,M,M,M,28.53,KSPF 120035Z AUTO 30005G10KT 10SM 01/M11 A2969 RMK AO2
RAP,2020-02-12 00:52,-103.0574,44.0453,964.71,34.00,14.00,43.30,220.00,9.00,0.00,29.70,1009.80,10.00,M,CLR,M,M,M,M,M,M,M,M,M,M,M,M,M,M,26.00,KRAP 120052Z 22009KT 10SM CLR 01/M10 A2970 RMK AO2 SLP098 T00111100
IEN,2020-02-12 00:52,-102.5110,43.0225,1008.84,32.00,17.10,53.70,0.00,0.00,0.00,29.76,1011.40,10.00,M,CLR,M,M,M,M,M,M,M,M,M,M,M,M,M,M,M,KIEN 120052Z AUTO 00000KT 10SM CLR 00/M08 A2976 RMK AO2 SLP114 T00001083
MBG,2020-02-12 00:52,-100.4078,45.5464,515.17,30.90,21.00,66.34,130.00,6.00,0.00,29.68,1007.60,10.00,M,SCT,M,M,M,12000.00,M,M,M,M,M,M,M,M,M,M,24.21,KMBG 120052Z AUTO 13006KT 10SM SCT120 M01/M06 A2968 RMK AO2 SLP076 T10061061
CUT,2020-02-12 00:53,-103.6114,43.7331,1686.81,24.10,9.00,51.98,260.00,10.00,0.00,29.68,1010.40,10.00,18.00,CLR,M,M,M,M,M,M,M,M,M,M,M,M,M,M,13.06,KCUT 120053Z AUTO 26010G18KT 10SM CLR M04/M13 A2968 RMK AO2 SLP104 T10441128
ICR,2020-02-12 00:53,-99.8422,43.3903,611.93,37.90,17.10,42.46,190.00,12.00,0.00,29.79,1010.70,10.00,M,CLR,M,M,M,M,M,M,M,M,M,M,M,M,M,M,29.51,KICR 120053Z AUTO 19012KT 10SM CLR 03/M08 A2979 RMK AO2 SLP107 T00331083
MHE,2020-02-12 00:53,-98.0386,43.7748,395.73,30.00,21.00,68.81,160.00,9.00,0.00,29.87,1013.20,10.00,M,CLR,M,M,M,M,M,M,M,M,M,M,M,M,M,M,21.03,KMHE 120053Z AUTO 16009KT 10SM CLR M01/M06 A2987 RMK AO2 SLP132 T10111061
ABR,2020-02-12 00:53,-98.4200,45.4500,395.00,27.00,19.90,74.25,170.00,17.00,0.00,29.78,1010.60,10.00,M,CLR,M,M,M,M,M,M,M,M,M,M,M,M,M,M,13.52,KABR 120053Z AUTO 17017KT 10SM CLR M03/M07 A2978 RMK AO2 SLP106 T10281067
PIR,2020-02-12 00:53,-100.2860,44.3827,522.03,35.10,17.10,47.43,210.00,7.00,0.00,29.73,1008.90,10.00,M,CLR,M,M,M,M,M,M,M,M,M,M,M,M,M,M,28.56,KPIR 120053Z AUTO 21007KT 10SM CLR 02/M08 A2973 RMK AO2 SLP089 T00171083
ATY,2020-02-12 00:53,-97.1547,44.9140,525.88,25.00,19.90,80.66,190.00,15.00,0.00,29.82,1012.90,10.00,M,CLR,M,M,M,M,M,M,M,M,M,M,M,M,M,M,11.71,KATY 120053Z AUTO 19015KT 10SM CLR M04/M07 A2982 RMK AO2 SLP129 T10391067
MDS,2020-02-12 00:55,-97.0859,44.0160,520.80,24.80,24.80,100.00,170.00,7.00,0.00,29.88,M,10.00,M,CLR,M,M,M,M,M,M,M,M,M,M,M,M,M,M,16.00,KMDS 120055Z AUTO 17007KT 10SM CLR M04/M04 A2988 RMK AO2
PHP,2020-02-12 00:55,-101.6000,44.0500,671.74,34.00,15.10,45.43,240.00,8.00,0.00,29.72,1008.80,10.00,M,CLR,M,M,M,M,M,M,M,M,M,M,M,M,M,M,26.58,KPHP 120055Z AUTO 24008KT 10SM CLR 01/M09 A2972 RMK AO2 SLP088 T00111094
9V9,2020-02-12 00:55,-99.3183,43.7667,509.76,35.60,25.30,65.82,180.00,11.00,0.00,29.79,M,10.00,M,CLR,M,M,M,M,M,M,M,M,M,M,M,M,M,M,27.02,K9V9 120055Z AUTO 18011KT 10SM CLR 02/M04 A2979 RMK AO2 T00201037
SPF,2020-02-12 00:55,-103.7830,44.4803,1186.17,32.00,14.00,46.92,310.00,7.00,0.00,29.70,M,10.00,M,M,M,M,M,M,M,M,M,M,M,M,M,M,M,M,24.78,KSPF 120055Z AUTO 31007KT 10SM M00/M10 A2970 RMK AO2
2WX,2020-02-12 00:56,-103.5464,45.6044,919.07,30.90,19.00,60.92,250.00,12.00,0.00,29.64,1007.80,M,M,M,M,M,M,M,M,M,M,M,M,M,M,M,M,M,20.60,K2WX 120056Z AUTO 25012KT M01/M07 A2964 RMK AO1 SLP078 T10061072
8D3,2020-02-12 00:56,-96.9914,45.6689,351.81,28.00,19.00,68.57,220.00,15.00,0.00,29.80,1011.70,M,23.00,M,M,M,M,M,M,M,M,M,M,M,M,29.00,220.00,2020-02-12 00:11,15.59,K8D3 120056Z AUTO 22015G23KT M02/M07 A2980 RMK AO1 PK WND 22029/0011 SLP117 T10221072
D07,2020-02-12 00:56,-102.0200,45.0300,778.50,28.00,18.00,65.69,230.00,9.00,0.00,29.69,1009.60,M,M,M,M,M,M,M,M,M,M,M,M,M,M,M,M,M,18.54,KD07 120056Z AUTO 23009KT M02/M08 A2969 RMK AO1 SLP096 T10221078
FSD,2020-02-12 00:56,-96.7536,43.5769,428.94,30.00,19.00,63.18,180.00,6.00,0.00,29.92,1015.40,10.00,M,CLR,M,M,M,M,M,M,M,M,M,M,M,M,M,M,23.12,KFSD 120056Z 18006KT 10SM CLR M01/M07 A2992 RMK AO2 SLP154 T10111072
BKX,2020-02-12 00:56,-96.8169,44.3048,490.28,21.90,19.00,88.40,150.00,9.00,0.00,29.88,1016.00,10.00,M,CLR,M,M,M,M,M,M,M,M,M,M,M,M,M,M,10.96,KBKX 120056Z AUTO 15009KT 10SM CLR M06/M07 A2988 RMK AO2 SLP160 T10561072 FZRANO
RCA,2020-02-12 00:56,-103.1036,44.1451,977.43,34.20,14.00,42.96,170.00,3.00,0.00,29.69,1009.60,10.00,M,FEW,M,M,M,11000.00,M,M,M,M,M,M,M,M,M,M,31.20,KRCA 120056Z AUTO 17003KT 10SM FEW110 01/M10 A2969 RMK AO2 SLP096 T00121100 $
YKN,2020-02-12 00:56,-97.3859,42.9167,389.54,35.10,17.10,47.43,160.00,9.00,0.00,29.93,1016.60,10.00,M,CLR,M,M,M,M,M,M,M,M,M,M,M,M,M,M,27.37,KYKN 120056Z AUTO 16009KT 10SM CLR 02/M08 A2993 RMK AO2 SLP166 T00171083 FZRANO
MDS,2020-02-12 01:15,-97.0859,44.0160,520.80,21.20,21.20,100.00,180.00,6.00,0.00,29.87,M,10.00,M,CLR,M,M,M,M,M,M,M,M,M,M,M,M,M,M,12.52,KMDS 120115Z AUTO 18006KT 10SM CLR M06/M06 A2987 RMK AO2
9V9,2020-02-12 01:15,-99.3183,43.7667,509.76,36.00,24.80,63.45,190.00,11.00,0.00,29.78,M,10.00,M,CLR,M,M,M,M,M,M,M,M,M,M,M,M,M,M,27.52,K9V9 120115Z AUTO 19011KT 10SM CLR 02/M04 A2978 RMK AO2 T00221040
SPF,2020-02-12 01:15,-103.7830,44.4803,1186.17,35.60,12.20,37.53,290.00,14.00,0.00,29.69,M,10.00,19.00,M,M,M,M,M,M,M,M,M,M,M,M,M,M,M,25.80,KSPF 120115Z AUTO 29014G19KT 10SM 02/M11 A2969 RMK AO2
MDS,2020-02-12 01:35,-97.0859,44.0160,520.80,21.20,21.20,100.00,180.00,7.00,0.00,29.86,M,10.00,M,CLR,M,M,M,M,M,M,M,M,M,M,M,M,M,M,11.61,KMDS 120135Z AUTO 18007KT 10SM CLR M06/M06 A2986 RMK AO2
9V9,2020-02-12 01:35,-99.3183,43.7667,509.76,35.60,24.40,63.40,190.00,12.00,0.00,29.77,M,10.00,M,CLR,M,M,M,M,M,M,M,M,M,M,M,M,M,M,26.58,K9V9 120135Z AUTO 19012KT 10SM CLR 02/M04 A2977 RMK AO2 T00201042
SPF,2020-02-12 01:35,-103.7830,44.4803,1186.17,35.60,14.00,40.63,260.00,15.00,0.00,29.69,M,10.00,23.00,M,M,M,M,M,M,M,M,M,M,M,M,M,M,M,25.45,KSPF 120135Z AUTO 26015G23KT 10SM 02/M10 A2969 RMK AO2
RAP,2020-02-12 01:52,-103.0574,44.0453,964.71,33.10,15.10,47.10,240.00,6.00,0.00,29.70,1009.60,10.00,M,OVC,M,M,M,10000.00,M,M,M,M,M,M,M,M,M,M,26.86,KRAP 120152Z 24006KT 10SM OVC100 01/M09 A2970 RMK AO2 SLP096 T00061094
IEN,2020-02-12 01:52,-102.5110,43.0225,1008.84,28.90,18.00,63.31,210.00,6.00,0.00,29.75,1011.40,10.00,M,CLR,M,M,M,M,M,M,M,M,M,M,M,M,M,M,21.80,KIEN 120152Z AUTO 21006KT 10SM CLR M02/M08 A2975 RMK AO2 SLP114 T10171078
MBG,2020-02-12 01:52,-100.4078,45.5464,515.17,30.90,21.00,66.34,170.00,6.00,0.00,29.67,1007.00,10.00,M,BKN,M,M,M,11000.00,M,M,M,M,M,M,M,M,M,M,24.21,KMBG 120152Z AUTO 17006KT 10SM BKN110 M01/M06 A2967 RMK AO2 SLP070 T10061061
CUT,2020-02-12 01:53,-103.6114,43.7331,1686.81,23.00,10.00,56.93,270.00,11.00,0.00,29.68,1010.60,10.00,M,OVC,M,M,M,8000.00,M,M,M,M,M,M,M,M,M,M,11.09,KCUT 120153Z AUTO 27011KT 10SM OVC080 M05/M12 A2968 RMK AO2 SLP106 T10501122
ICR,2020-02-12 01:53,-99.8422,43.3903,611.93,37.90,16.00,40.49,200.00,14.00,0.00,29.76,1010.00,10.00,M,CLR,M,M,M,M,M,M,M,M,M,M,M,M,M,M,28.77,KICR 120153Z AUTO 20014KT 10SM CLR 03/M09 A2976 RMK AO2 SLP100 T00331089
MHE,2020-02-12 01:53,-98.0386,43.7748,395.73,35.10,19.90,53.49,180.00,13.00,0.00,29.83,1012.00,10.00,M,CLR,M,M,M,M,M,M,M,M,M,M,M,M,M,M,25.54,KMHE 120153Z AUTO 18013KT 10SM CLR 02/M07 A2983 RMK AO2 SLP120 T00171067
ABR,2020-02-12 01:53,-98.4200,45.4500,395.00,28.00,21.00,74.67,170.00,15.00,0.00,29.75,1009.70,10.00,M,CLR,M,M,M,M,M,M,M,M,M,M,M,M,M,M,15.59,KABR 120153Z AUTO 17015KT 10SM CLR M02/M06 A2975 RMK AO2 SLP097 T10221061
PIR,2020-02-12 01:53,-100.2860,44.3827,522.03,33.10,19.00,55.75,220.00,6.00,0.00,29.72,1008.50,10.00,M,CLR,M,M,M,M,M,M,M,M,M,M,M,M,M,M,26.86,KPIR 120153Z AUTO 22006KT 10SM CLR 01/M07 A2972 RMK AO2 SLP085 T00061072
ATY,2020-02-12 01:53,-97.1547,44.9140,525.88,26.10,19.90,77.06,180.00,13.00,0.00,29.79,1011.70,10.00,M,CLR,M,M,M,M,M,M,M,M,M,M,M,M,M,M,14.01,KATY 120153Z AUTO 18013KT 10SM CLR M03/M07 A2979 RMK AO2 SLP117 T10331067
MDS,2020-02-12 01:55,-97.0859,44.0160,520.80,21.20,21.20,100.00,180.00,8.00,0.00,29.84,M,10.00,M,CLR,M,M,M,M,M,M,M,M,M,M,M,M,M,M,10.81,KMDS 120155Z AUTO 18008KT 10SM CLR M06/M06 A2984 RMK AO2
PHP,2020-02-12 01:55,-101.6000,44.0500,671.74,34.00,16.00,47.25,240.00,7.00,0.00,29.73,1008.80,10.00,M,CLR,M,M,M,M,M,M,M,M,M,M,M,M,M,M,27.22,KPHP 120155Z AUTO 24007KT 10SM CLR 01/M09 A2973 RMK AO2 SLP088 T00111089
9V9,2020-02-12 01:55,-99.3183,43.7667,509.76,35.80,23.90,61.60,190.00,14.00,0.00,29.76,M,10.00,M,CLR,M,M,M,M,M,M,M,M,M,M,M,M,M,M,26.06,K9V9 120155Z AUTO 19014KT 10SM CLR 02/M04 A2976 RMK AO2 T00211045
SPF,2020-02-12 01:55,-103.7830,44.4803,1186.17,35.60,17.60,47.51,260.00,14.00,0.00,29.69,M,10.00,22.00,M,M,M,M,M,M,M,M,M,M,M,M,M,M,M,25.80,KSPF 120155Z AUTO 26014G22KT 10SM 02/M08 A2969 RMK AO2
2WX,2020-02-12 01:56,-103.5464,45.6044,919.07,32.00,19.00,58.27,260.00,15.00,0.00,29.63,1007.30,M,M,M,M,M,M,M,M,M,M,M,M,M,M,M,M,M,20.78,K2WX 120156Z AUTO 26015KT 00/M07 A2963 RMK AO1 SLP073 T00001072
8D3,2020-02-12 01:56,-96.9914,45.6689,351.81,28.90,19.90,68.67,200.00,12.00,0.00,29.77,1010.80,M,M,M,M,M,M,M,M,M,M,M,M,M,M,26.00,210.00,2020-02-12 01:08,18.06,K8D3 120156Z AUTO 20012KT M02/M07 A2977 RMK AO1 PK WND 21026/0108 SLP108 T10171067
D07,2020-02-12 01:56,-102.0200,45.0300,778.50,30.00,18.00,60.53,230.00,8.00,0.00,29.69,1009.60,M,M,M,M,M,M,M,M,M,M,M,M,M,M,M,M,M,21.65,KD07 120156Z AUTO 23008KT M01/M08 A2969 RMK AO1 SLP096 T10111078
FSD,2020-02-12 01:56,-96.7536,43.5769,428.94,33.10,19.00,55.75,190.00,11.00,0.00,29.90,1014.50,10.00,M,CLR,M,M,M,M,M,M,M,M,M,M,M,M,M,M,23.86,KFSD 120156Z 19011KT 10SM CLR 01/M07 A2990 RMK AO2 SLP145 T00061072
BKX,2020-02-12 01:56,-96.8169,44.3048,490.28,23.00,19.90,87.70,160.00,14.00,0.00,29.84,1014.70,10.00,M,CLR,M,M,M,M,M,M,M,M,M,M,M,M,M,M,9.56,KBKX 120156Z AUTO 16014KT 10SM CLR M05/M07 A2984 RMK AO2 SLP147 T10501067 FZRANO
RCA,2020-02-12 01:56,-103.1036,44.1451,977.43,31.30,19.80,62.02,290.00,6.00,0.00,29.69,1009.90,10.00,M,OVC,M,M,M,10000.00,M,M,M,M,M,M,M,M,M,M,24.69,KRCA 120156Z AUTO 29006KT 10SM OVC100 00/M07 A2969 RMK AO2 SLP099 T10041068 $
YKN,2020-02-12 01:56,-97.3859,42.9167,389.54,33.10,18.00,53.40,180.00,5.00,0.00,29.92,1016.30,10.00,M,CLR,M,M,M,M,M,M,M,M,M,M,M,M,M,M,27.70,KYKN 120156Z AUTO 18005KT 10SM CLR 01/M08 A2992 RMK AO2 SLP163 T00061078 FZRANO
MDS,2020-02-12 02:15,-97.0859,44.0160,520.80,21.20,21.20,100.00,180.00,9.00,0.00,29.84,M,10.00,M,CLR,M,M,M,M,M,M,M,M,M,M,M,M,M,M,10.08,KMDS 120215Z AUTO 18009KT 10SM CLR M06/M06 A2984 RMK AO2
9V9,2020-02-12 02:15,-99.3183,43.7667,509.76,34.90,24.40,65.18,200.00,11.00,0.00,29.76,M,10.00,M,CLR,M,M,M,M,M,M,M,M,M,M,M,M,M,M,26.13,K9V9 120215Z AUTO 20011KT 10SM CLR 02/M04 A2976 RMK AO2 T00161042
SPF,2020-02-12 02:15,-103.7830,44.4803,1186.17,35.60,15.80,43.95,270.00,8.00,0.00,29.69,M,10.00,16.00,M,M,M,M,M,M,M,M,M,M,M,M,M,M,M,28.55,KSPF 120215Z AUTO 27008G16KT 10SM 02/M09 A2969 RMK AO2
MDS,2020-02-12 02:35,-97.0859,44.0160,520.80,21.20,21.20,100.00,180.00,9.00,0.00,29.83,M,10.00,M,CLR,M,M,M,M,M,M,M,M,M,M,M,M,M,M,10.08,KMDS 120235Z AUTO 18009KT 10SM CLR M06/M06 A2983 RMK AO2
9V9,2020-02-12 02:35,-99.3183,43.7667,509.76,33.60,24.60,69.23,220.00,9.00,0.00,29.76,M,10.00,M,CLR,M,M,M,M,M,M,M,M,M,M,M,M,M,M,25.50,K9V9 120235Z AUTO 22009KT 10SM CLR 01/M04 A2976 RMK AO2 T00091041
SPF,2020-02-12 02:35,-103.7830,44.4803,1186.17,35.60,17.60,47.51,270.00,13.00,0.00,29.69,M,10.00,M,M,M,M,M,M,M,M,M,M,M,M,M,M,M,M,26.18,KSPF 120235Z AUTO 27013KT 10SM 02/M08 A2969 RMK AO2
RAP,2020-02-12 02:52,-103.0574,44.0453,964.71,34.00,12.00,39.65,0.00,0.00,0.00,29.70,1009.50,10.00,M,FEW,SCT,M,M,9000.00,11000.00,M,M,M,M,M,M,M,M,M,M,KRAP 120252Z 00000KT 10SM FEW090 SCT110 01/M11 A2970 RMK AO2 SLP095 T00111111 56003
IEN,2020-02-12 02:52,-102.5110,43.0225,1008.84,30.00,18.00,60.53,250.00,5.00,0.00,29.75,1010.80,10.00,M,CLR,M,M,M,M,M,M,M,M,M,M,M,M,M,M,24.02,KIEN 120252Z AUTO 25005KT 10SM CLR M01/M08 A2975 RMK AO2 SLP108 T10111078 56010
MBG,2020-02-12 02:52,-100.4078,45.5464,515.17,32.00,21.00,63.45,190.00,3.00,0.00,29.66,1006.50,10.00,M,SCT,M,M,M,12000.00,M,M,M,M,M,M,M,M,M,M,28.69,KMBG 120252Z AUTO 19003KT 10SM SCT120 00/M06 A2966 RMK AO2 SLP065 T00001061 56018
CUT,2020-02-12 02:53,-103.6114,43.7331,1686.81,23.00,10.90,59.26,290.00,6.00,0.00,29.67,1010.10,10.00,M,FEW,OVC,M,M,5500.00,11000.00,M,M,M,M,M,M,M,M,M,14.69,KCUT 120253Z AUTO 29006KT 10SM FEW055 OVC110 M05/M12 A2967 RMK AO2 SLP101 T10501117 56005
ICR,2020-02-12 02:53,-99.8422,43.3903,611.93,35.10,16.00,45.22,200.00,14.00,0.00,29.75,1009.50,10.00,M,CLR,M,M,M,M,M,M,M,M,M,M,M,M,M,M,25.16,KICR 120253Z AUTO 20014KT 10SM CLR 02/M09 A2975 RMK AO2 SLP095 T00171089 56021
MHE,2020-02-12 02:53,-98.0386,43.7748,395.73,36.00,19.00,49.66,180.00,16.00,0.00,29.80,1010.80,10.00,23.00,CLR,M,M,M,M,M,M,M,M,M,M,M,27.00,180.00,2020-02-12 02:43,25.63,KMHE 120253Z AUTO 18016G23KT 10SM CLR 02/M07 A2980 RMK AO2 PK WND 18027/0243 SLP108 T00221072 58028
ABR,2020-02-12 02:53,-98.4200,45.4500,395.00,27.00,19.90,74.25,170.00,15.00,0.00,29.73,1008.70,10.00,M,CLR,M,M,M,M,M,M,M,M,M,M,M,M,M,M,14.30,KABR 120253Z AUTO 17015KT 10SM CLR M03/M07 A2973 RMK AO2 SLP087 T10281067 56026
PIR,2020-02-12 02:53,-100.2860,44.3827,522.03,33.10,19.00,55.75,230.00,6.00,0.00,29.71,1008.00,10.00,M,CLR,M,M,M,M,M,M,M,M,M,M,M,M,M,M,26.86,KPIR 120253Z AUTO 23006KT 10SM CLR 01/M07 A2971 RMK AO2 SLP080 T00061072 56017
ATY,2020-02-12 02:53,-97.1547,44.9140,525.88,23.00,17.10,77.77,170.00,12.00,0.00,29.75,1010.70,10.00,M,CLR,M,M,M,M,M,M,M,M,M,M,M,M,M,M,10.55,KATY 120253Z AUTO 17012KT 10SM CLR M05/M08 A2975 RMK AO2 SLP107 T10501083 58031
MDS,2020-02-12 02:55,-97.0859,44.0160,520.80,21.20,21.20,100.00,170.00,10.00,0.00,29.81,M,10.00,M,CLR,M,M,M,M,M,M,M,M,M,M,M,M,M,M,9.42,KMDS 120255Z AUTO 17010KT 10SM CLR M06/M06 A2981 RMK AO2
PHP,2020-02-12 02:55,-101.6000,44.0500,671.74,35.10,17.10,47.43,260.00,6.00,0.00,29.72,1008.20,10.00,M,SCT,M,M,M,12000.00,M,M,M,M,M,M,M,M,M,M,29.26,KPHP 120255Z AUTO 26006KT 10SM SCT120 02/M08 A2972 RMK AO2 SLP082 T00171083 56010
9V9,2020-02-12 02:55,-99.3183,43.7667,509.76,34.20,23.90,65.64,200.00,11.00,0.00,29.75,M,10.00,M,CLR,M,M,M,M,M,M,M,M,M,M,M,M,M,M,25.25,K9V9 120255Z AUTO 20011KT 10SM CLR 01/M04 A2975 RMK AO2 T00121045
HON,2020-02-12 02:55,-98.2286,44.3852,384.37,28.90,19.90,68.67,170.00,12.00,0.00,29.75,1009.40,10.00,M,CLR,M,M,M,M,M,M,M,M,M,M,M,M,M,M,18.06,KHON 120255Z AUTO 17012KT 10SM CLR M02/M07 A2975 RMK AO2 SLP094 T10171067 58033
SPF,2020-02-12 02:55,-103.7830,44.4803,1186.17,35.60,19.40,51.33,280.00,12.00,0.00,29.69,M,10.00,17.00,OVC,M,M,M,4100.00,M,M,M,M,M,M,M,M,M,M,26.58,KSPF 120255Z AUTO 28012G17KT 10SM OVC041 02/M07 A2969 RMK AO2
2WX,2020-02-12 02:56,-103.5464,45.6044,919.07,30.90,21.90,68.91,250.00,12.00,0.00,29.63,1007.30,M,M,M,M,M,M,M,M,M,M,M,M,M,M,M,M,M,20.60,K2WX 120256Z AUTO 25012KT M01/M06 A2963 RMK AO1 SLP073 T10061056 55005
8D3,2020-02-12 02:56,-96.9914,45.6689,351.81,30.90,19.90,63.31,200.00,13.00,0.00,29.74,1009.50,M,M,M,M,M,M,M,M,M,M,M,M,M,M,M,M,M,20.16,K8D3 120256Z AUTO 20013KT M01/M07 A2974 RMK AO1 SLP095 T10061067 58024
D07,2020-02-12 02:56,-102.0200,45.0300,778.50,30.00,18.00,60.53,230.00,10.00,0.00,29.67,1008.90,M,M,M,M,M,M,M,M,M,M,M,M,M,M,M,M,M,20.46,KD07 120256Z AUTO 23010KT M01/M08 A2967 RMK AO1 SLP089 T10111078 58008
FSD,2020-02-12 02:56,-96.7536,43.5769,428.94,32.00,19.00,58.27,180.00,12.00,0.00,29.87,1013.50,10.00,M,CLR,M,M,M,M,M,M,M,M,M,M,M,M,M,M,22.00,KFSD 120256Z 18012KT 10SM CLR 00/M07 A2987 RMK AO2 SLP135 T00001072 58024
BKX,2020-02-12 02:56,-96.8169,44.3048,490.28,25.00,19.00,77.62,170.00,14.00,0.00,29.81,1013.30,10.00,M,CLR,M,M,M,M,M,M,M,M,M,M,M,M,M,M,12.14,KBKX 120256Z AUTO 17014KT 10SM CLR M04/M07 A2981 RMK AO2 SLP133 T10391072 58031 FZRANO
RCA,2020-02-12 02:56,-103.1036,44.1451,977.43,32.90,18.90,55.96,300.00,9.00,0.00,29.69,M,10.00,M,OVC,M,M,M,12000.00,M,M,M,M,M,M,M,M,M,M,24.63,KRCA 120256Z AUTO 30009KT 10SM OVC120 01/M07 A2969 RMK AO2 SLPNO T00051073 56004 $
YKN,2020-02-12 02:56,-97.3859,42.9167,389.54,34.00,17.10,49.55,180.00,12.00,0.00,29.90,1015.20,10.00,M,CLR,M,M,M,M,M,M,M,M,M,M,M,M,M,M,24.55,KYKN 120256Z AUTO 18012KT 10SM CLR 01/M08 A2990 RMK AO2 SLP152 T00111083 58016 FZRANO
MDS,2020-02-12 03:15,-97.0859,44.0160,520.80,23.00,23.00,100.00,180.00,9.00,0.00,29.80,M,10.00,M,CLR,M,M,M,M,M,M,M,M,M,M,M,M,M,M,12.32,KMDS 120315Z AUTO 18009KT 10SM CLR M05/M05 A2980 RMK AO2
9V9,2020-02-12 03:15,-99.3183,43.7667,509.76,34.50,23.70,64.32,210.00,12.00,0.00,29.74,M,10.00,M,CLR,M,M,M,M,M,M,M,M,M,M,M,M,M,M,25.18,K9V9 120315Z AUTO 21012KT 10SM CLR 01/M05 A2974 RMK AO2 T00141046
SPF,2020-02-12 03:15,-103.7830,44.4803,1186.17,35.60,19.40,51.33,280.00,14.00,0.00,29.69,M,10.00,M,M,M,M,M,M,M,M,M,M,M,M,M,M,M,M,25.80,KSPF 120315Z AUTO 28014KT 10SM 02/M07 A2969 RMK AO2
MDS,2020-02-12 03:35,-97.0859,44.0160,520.80,26.60,23.00,86.07,190.00,18.00,0.00,29.79,M,10.00,M,CLR,M,M,M,M,M,M,M,M,M,M,M,M,M,M,12.64,KMDS 120335Z AUTO 19018KT 10SM CLR M03/M05 A2979 RMK AO2
9V9,2020-02-12 03:35,-99.3183,43.7667,509.76,34.00,23.70,65.62,230.00,9.00,0.00,29.74,M,10.00,M,CLR,M,M,M,M,M,M,M,M,M,M,M,M,M,M,26.00,K9V9 120335Z AUTO 23009KT 10SM CLR 01/M05 A2974 RMK AO2 T00111046
SPF,2020-02-12 03:35,-103.7830,44.4803,1186.17,35.60,19.40,51.33,280.00,12.00,0.00,29.70,M,10.00,22.00,M,M,M,M,M,M,M,M,M,M,M,M,M,M,M,26.58,KSPF 120335Z AUTO 28012G22KT 10SM 02/M07 A2970 RMK AO2
RAP,2020-02-12 03:52,-103.0574,44.0453,964.71,30.90,19.90,63.31,340.00,6.00,0.00,29.70,1009.30,10.00,M,BKN,M,M,M,9500.00,M,M,M,M,M,M,M,M,M,M,24.21,KRAP 120352Z 34006KT 10SM BKN095 M01/M07 A2970 RMK AO2 SLP093 T10061067
IEN,2020-02-12 03:52,-102.5110,43.0225,1008.84,32.00,18.00,55.82,240.00,7.00,0.00,29.75,1010.10,10.00,M,BKN,M,M,M,10000.00,M,M,M,M,M,M,M,M,M,M,24.78,KIEN 120352Z AUTO 24007KT 10SM BKN100 00/M08 A2975 RMK AO2 SLP101 T00001078
MBG,2020-02-12 03:52,-100.4078,45.5464,515.17,35.10,19.90,53.49,240.00,7.00,0.00,29.65,1005.90,10.00,M,BKN,M,M,M,10000.00,M,M,M,M,M,M,M,M,M,M,28.56,KMBG 120352Z AUTO 24007KT 10SM BKN100 02/M07 A2965 RMK AO2 SLP059 T00171067
CUT,2020-02-12 03:53,-103.6114,43.7331,1686.81,24.10,12.00,59.42,280.00,7.00,0.00,29.67,1009.40,10.00,M,CLR,M,M,M,M,M,M,M,M,M,M,M,M,M,M,15.15,KCUT 120353Z AUTO 28007KT 10SM CLR M04/M11 A2967 RMK AO2 SLP094 T10441111
ICR,2020-02-12 03:53,-99.8422,43.3903,611.93,35.10,17.10,47.43,210.00,13.00,0.00,29.74,1009.00,10.00,21.00,CLR,M,M,M,M,M,M,M,M,M,M,M,M,M,M,25.54,KICR 120353Z AUTO 21013G21KT 10SM CLR 02/M08 A2974 RMK AO2 SLP090 T00171083
MHE,2020-02-12 03:53,-98.0386,43.7748,395.73,34.00,19.00,53.77,180.00,15.00,0.00,29.78,1010.10,10.00,22.00,CLR,M,M,M,M,M,M,M,M,M,M,M,26.00,200.00,2020-02-12 03:08,23.37,KMHE 120353Z AUTO 18015G22KT 10SM CLR 01/M07 A2978 RMK AO2 PK WND 20026/0308 SLP101 T00111072
ABR,2020-02-12 03:53,-98.4200,45.4500,395.00,26.10,19.90,77.06,190.00,10.00,0.00,29.71,1008.10,10.00,M,FEW,M,M,M,12000.00,M,M,M,M,M,M,M,M,M,M,15.57,KABR 120353Z AUTO 19010KT 10SM FEW120 M03/M07 A2971 RMK AO2 SLP081 T10331067
PIR,2020-02-12 03:53,-100.2860,44.3827,522.03,33.10,19.00,55.75,250.00,8.00,0.00,29.70,1007.60,10.00,M,OVC,M,M,M,9500.00,M,M,M,M,M,M,M,M,M,M,25.47,KPIR 120353Z AUTO 25008KT 10SM OVC095 01/M07 A2970 RMK AO2 SLP076 T00061072
ATY,2020-02-12 03:53,-97.1547,44.9140,525.88,23.00,16.00,74.15,170.00,10.00,0.00,29.72,1009.50,10.00,M,CLR,M,M,M,M,M,M,M,M,M,M,M,M,M,M,11.68,KATY 120353Z AUTO 17010KT 10SM CLR M05/M09 A2972 RMK AO2 SLP095 T10501089
MDS,2020-02-12 03:55,-97.0859,44.0160,520.80,28.40,23.00,79.92,200.00,18.00,0.00,29.78,M,10.00,M,CLR,M,M,M,M,M,M,M,M,M,M,M,M,M,M,15.01,KMDS 120355Z AUTO 20018KT 10SM CLR M02/M05 A2978 RMK AO2
PHP,2020-02-12 03:55,-101.6000,44.0500,671.74,35.10,16.00,45.22,280.00,5.00,0.00,29.70,1007.60,10.00,M,SCT,M,M,M,12000.00,M,M,M,M,M,M,M,M,M,M,30.08,KPHP 120355Z AUTO 28005KT 10SM SCT120 02/M09 A2970 RMK AO2 SLP076 T00171089
9V9,2020-02-12 03:55,-99.3183,43.7667,509.76,35.10,22.10,58.72,240.00,8.00,0.00,29.74,M,10.00,M,CLR,M,M,M,M,M,M,M,M,M,M,M,M,M,M,27.93,K9V9 120355Z AUTO 24008KT 10SM CLR 02/M05 A2974 RMK AO2 T00171055
HON,2020-02-12 03:55,-98.2286,44.3852,384.37,30.90,19.90,63.31,190.00,12.00,0.00,29.74,1008.90,10.00,M,CLR,M,M,M,M,M,M,M,M,M,M,M,M,M,M,20.60,KHON 120355Z AUTO 19012KT 10SM CLR M01/M07 A2974 RMK AO2 SLP089 T10061067
SPF,2020-02-12 03:55,-103.7830,44.4803,1186.17,35.60,19.40,51.33,280.00,13.00,0.00,29.70,M,10.00,19.00,M,M,M,M,M,M,M,M,M,M,M,M,M,M,M,26.18,KSPF 120355Z AUTO 28013G19KT 10SM 02/M07 A2970 RMK AO2
2WX,2020-02-12 03:56,-103.5464,45.6044,919.07,30.90,21.00,66.34,240.00,10.00,0.00,29.63,1006.80,M,M,M,M,M,M,M,M,M,M,M,M,M,M,M,M,M,21.59,K2WX 120356Z AUTO 24010KT M01/M06 A2963 RMK AO1 SLP068 T10061061
8D3,2020-02-12 03:56,-96.9914,45.6689,351.81,30.90,21.00,66.34,210.00,17.00,0.00,29.71,1008.40,M,26.00,M,M,M,M,M,M,M,M,M,M,M,M,27.00,210.00,2020-02-12 03:17,18.63,K8D3 120356Z AUTO 21017G26KT M01/M06 A2971 RMK AO1 PK WND 21027/0317 SLP084 T10061061
D07,2020-02-12 03:56,-102.0200,45.0300,778.50,28.00,18.00,65.69,240.00,10.00,0.00,29.68,1009.00,M,M,M,M,M,M,M,M,M,M,M,M,M,M,M,M,M,17.95,KD07 120356Z AUTO 24010KT M02/M08 A2968 RMK AO1 SLP090 T10221078
FSD,2020-02-12 03:56,-96.7536,43.5769,428.94,33.10,19.00,55.75,200.00,18.00,0.00,29.84,1012.20,10.00,M,CLR,M,M,M,M,M,M,M,M,M,M,M,26.00,190.00,2020-02-12 03:43,21.20,KFSD 120356Z 20018KT 10SM CLR 01/M07 A2984 RMK AO2 PK WND 19026/0343 SLP122 T00061072
BKX,2020-02-12 03:56,-96.8169,44.3048,490.28,25.00,19.00,77.62,170.00,12.00,0.00,29.78,1012.30,10.00,M,CLR,M,M,M,M,M,M,M,M,M,M,M,M,M,M,13.09,KBKX 120356Z AUTO 17012KT 10SM CLR M04/M07 A2978 RMK AO2 SLP123 T10391072 FZRANO
RCA,2020-02-12 03:56,-103.1036,44.1451,977.43,34.00,23.00,63.72,290.00,11.00,0.00,29.69,1009.00,10.00,M,BKN,OVC,M,M,7500.00,9500.00,M,M,M,M,M,M,M,M,M,24.99,KRCA 120356Z AUTO 29011KT 10SM BKN075 OVC095 01/M05 A2969 RMK AO2 SLP090 T00111050 $
YKN,2020-02-12 03:56,-97.3859,42.9167,389.54,34.00,17.10,49.55,180.00,9.00,0.00,29.88,1014.50,10.00,M,CLR,M,M,M,M,M,M,M,M,M,M,M,M,M,M,26.00,KYKN 120356Z AUTO 18009KT 10SM CLR 01/M08 A2988 RMK AO2 SLP145 T00111083 FZRANO
MDS,2020-02-12 04:15,-97.0859,44.0160,520.80,28.40,23.00,79.92,200.00,20.00,0.00,29.77,M,10.00,25.00,CLR,M,M,M,M,M,M,M,M,M,M,M,M,M,M,14.36,KMDS 120415Z AUTO 20020G25KT 10SM CLR M02/M05 A2977 RMK AO2
9V9,2020-02-12 04:15,-99.3183,43.7667,509.76,35.40,22.50,59.01,240.00,9.00,0.00,29.74,M,10.00,M,CLR,M,M,M,M,M,M,M,M,M,M,M,M,M,M,27.74,K9V9 120415Z AUTO 24009KT 10SM CLR 02/M05 A2974 RMK AO2 T00191053
SPF,2020-02-12 04:15,-103.7830,44.4803,1186.17,35.60,21.20,55.41,280.00,13.00,0.00,29.70,M,10.00,19.00,M,M,M,M,M,M,M,M,M,M,M,M,M,M,M,26.18,KSPF 120415Z AUTO 28013G19KT 10SM 02/M06 A2970 RMK AO2
MDS,2020-02-12 04:35,-97.0859,44.0160,520.80,28.40,23.00,79.92,200.00,20.00,0.00,29.75,M,10.00,25.00,CLR,M,M,M,M,M,M,M,M,M,M,M,M,M,M,14.36,KMDS 120435Z AUTO 20020G25KT 10SM CLR M02/M05 A2975 RMK AO2
9V9,2020-02-12 04:35,-99.3183,43.7667,509.76,35.10,22.30,59.21,240.00,11.00,0.00,29.74,M,10.00,M,CLR,M,M,M,M,M,M,M,M,M,M,M,M,M,M,26.38,K9V9 120435Z AUTO 24011KT 10SM CLR 02/M05 A2974 RMK AO2 T00171054
SPF,2020-02-12 04:35,-103.7830,44.4803,1186.17,35.60,23.00,59.79,270.00,12.00,0.00,29.70,M,10.00,M,M,M,M,M,M,M,M,M,M,M,M,M,M,M,M,26.58,KSPF 120435Z AUTO 27012KT 10SM 02/M05 A2970 RMK AO2
RAP,2020-02-12 04:52,-103.0574,44.0453,964.71,30.00,19.90,65.66,300.00,8.00,0.00,29.70,1008.80,10.00,M,FEW,M,M,M,12000.00,M,M,M,M,M,M,M,M,M,M,21.65,KRAP 120452Z 30008KT 10SM FEW120 M01/M07 A2970 RMK AO2 SLP088 T10111067
IEN,2020-02-12 04:52,-102.5110,43.0225,1008.84,30.90,19.00,60.92,240.00,8.00,0.00,29.74,1010.00,10.00,M,OVC,M,M,M,8500.00,M,M,M,M,M,M,M,M,M,M,22.76,KIEN 120452Z AUTO 24008KT 10SM OVC085 M01/M07 A2974 RMK AO2 SLP100 T10061072
MBG,2020-02-12 04:52,-100.4078,45.5464,515.17,34.00,19.90,55.88,0.00,0.00,0.00,29.63,1005.40,10.00,M,BKN,M,M,M,8500.00,M,M,M,M,M,M,M,M,M,M,M,KMBG 120452Z AUTO 00000KT 10SM BKN085 01/M07 A2963 RMK AO2 SLP054 T00111067
CUT,2020-02-12 04:53,-103.6114,43.7331,1686.81,26.10,15.10,62.65,290.00,6.00,0.00,29.67,1008.60,10.00,M,OVC,M,M,M,9500.00,M,M,M,M,M,M,M,M,M,M,18.42,KCUT 120453Z AUTO 29006KT 10SM OVC095 M03/M09 A2967 RMK AO2 SLP086 T10331094
ICR,2020-02-12 04:53,-99.8422,43.3903,611.93,34.00,17.10,49.55,210.00,13.00,0.00,29.73,1008.40,10.00,M,CLR,M,M,M,M,M,M,M,M,M,M,M,M,M,M,24.13,KICR 120453Z AUTO 21013KT 10SM CLR 01/M08 A2973 RMK AO2 SLP084 T00111083
MHE,2020-02-12 04:53,-98.0386,43.7748,395.73,34.00,19.00,53.77,190.00,17.00,0.00,29.76,1009.10,10.00,23.00,CLR,M,M,M,M,M,M,M,M,M,M,M,M,M,M,22.70,KMHE 120453Z AUTO 19017G23KT 10SM CLR 01/M07 A2976 RMK AO2 SLP091 T00111072
ABR,2020-02-12 04:53,-98.4200,45.4500,395.00,26.10,19.90,77.06,200.00,9.00,0.00,29.68,1007.00,10.00,M,SCT,OVC,M,M,8000.00,9000.00,M,M,M,M,M,M,M,M,M,16.18,KABR 120453Z AUTO 20009KT 10SM SCT080 OVC090 M03/M07 A2968 RMK AO2 SLP070 T10331067
PIR,2020-02-12 04:53,-100.2860,44.3827,522.03,34.00,19.90,55.88,260.00,7.00,0.00,29.69,1006.90,10.00,M,OVC,M,M,M,10000.00,M,M,M,M,M,M,M,M,M,M,27.22,KPIR 120453Z AUTO 26007KT 10SM OVC100 01/M07 A2969 RMK AO2 SLP069 T00111067
ATY,2020-02-12 04:53,-97.1547,44.9140,525.88,25.00,17.10,71.53,190.00,9.00,0.00,29.69,1008.20,10.00,M,CLR,M,M,M,M,M,M,M,M,M,M,M,M,M,M,14.81,KATY 120453Z AUTO 19009KT 10SM CLR M04/M08 A2969 RMK AO2 SLP082 T10391083
MDS,2020-02-12 04:55,-97.0859,44.0160,520.80,28.40,23.00,79.92,200.00,20.00,0.00,29.75,M,10.00,27.00,CLR,M,M,M,M,M,M,M,M,M,M,M,M,M,M,14.36,KMDS 120455Z AUTO 20020G27KT 10SM CLR M02/M05 A2975 RMK AO2
PHP,2020-02-12 04:55,-101.6000,44.0500,671.74,34.00,18.00,51.52,300.00,6.00,0.00,29.71,1007.50,10.00,M,BKN,OVC,M,M,7000.00,12000.00,M,M,M,M,M,M,M,M,M,27.94,KPHP 120455Z AUTO 30006KT 10SM BKN070 OVC120 01/M08 A2971 RMK AO2 SLP075 T00111078
9V9,2020-02-12 04:55,-99.3183,43.7667,509.76,34.70,22.10,59.66,240.00,9.00,0.00,29.73,M,10.00,M,CLR,M,M,M,M,M,M,M,M,M,M,M,M,M,M,26.87,K9V9 120455Z AUTO 24009KT 10SM CLR 02/M05 A2973 RMK AO2 T00151055
HON,2020-02-12 04:55,-98.2286,44.3852,384.37,30.90,21.00,66.34,200.00,13.00,0.00,29.72,1008.20,10.00,M,CLR,M,M,M,M,M,M,M,M,M,M,M,M,M,M,20.16,KHON 120455Z AUTO 20013KT 10SM CLR M01/M06 A2972 RMK AO2 SLP082 T10061061
SPF,2020-02-12 04:55,-103.7830,44.4803,1186.17,33.80,23.00,64.23,270.00,14.00,0.00,29.70,M,10.00,21.00,M,M,M,M,M,M,M,M,M,M,M,M,M,M,M,23.48,KSPF 120455Z AUTO 27014G21KT 10SM 01/M05 A2970 RMK AO2
2WX,2020-02-12 04:56,-103.5464,45.6044,919.07,30.00,19.90,65.66,240.00,11.00,0.00,29.63,1006.40,M,M,M,M,M,M,M,M,M,M,M,M,M,M,M,M,M,19.94,K2WX 120456Z AUTO 24011KT M01/M07 A2963 RMK AO1 SLP064 T10111067
8D3,2020-02-12 04:56,-96.9914,45.6689,351.81,30.90,19.90,63.31,220.00,16.00,0.00,29.68,1007.20,M,24.00,M,M,M,M,M,M,M,M,M,M,M,M,28.00,220.00,2020-02-12 04:02,18.98,K8D3 120456Z AUTO 22016G24KT M01/M07 A2968 RMK AO1 PK WND 22028/0402 SLP072 T10061067
D07,2020-02-12 04:56,-102.0200,45.0300,778.50,28.00,19.00,68.57,240.00,8.00,0.00,29.66,1008.20,M,M,M,M,M,M,M,M,M,M,M,M,M,M,M,M,M,19.19,KD07 120456Z AUTO 24008KT M02/M07 A2966 RMK AO1 SLP082 T10221072
FSD,2020-02-12 04:56,-96.7536,43.5769,428.94,33.10,19.90,57.93,200.00,17.00,0.00,29.81,1011.20,10.00,26.00,CLR,M,M,M,M,M,M,M,M,M,M,M,26.00,200.00,2020-02-12 04:40,21.52,KFSD 120456Z 20017G26KT 10SM CLR 01/M07 A2981 RMK AO2 PK WND 20026/0440 SLP112 T00061067
BKX,2020-02-12 04:56,-96.8169,44.3048,490.28,27.00,19.00,71.45,190.00,18.00,0.00,29.74,1010.70,10.00,23.00,CLR,M,M,M,M,M,M,M,M,M,M,M,M,M,M,13.17,KBKX 120456Z AUTO 19018G23KT 10SM CLR M03/M07 A2974 RMK AO2 SLP107 T10281072 FZRANO
RCA,2020-02-12 04:56,-103.1036,44.1451,977.43,31.60,21.90,66.99,280.00,7.00,0.00,29.69,1008.70,10.00,M,FEW,BKN,M,M,8000.00,11000.00,M,M,M,M,M,M,M,M,M,24.29,KRCA 120456Z AUTO 28007KT 10SM FEW080 BKN110 00/M06 A2969 RMK AO2 SLP087 T10021056 $
YKN,2020-02-12 04:56,-97.3859,42.9167,389.54,35.10,18.00,49.31,200.00,11.00,0.00,29.85,1013.40,10.00,M,CLR,M,M,M,M,M,M,M,M,M,M,M,M,M,M,26.38,KYKN 120456Z AUTO 20011KT 10SM CLR 02/M08 A2985 RMK AO2 SLP134 T00171078 FZRANO
MDS,2020-02-12 05:15,-97.0859,44.0160,520.80,28.40,23.00,79.92,210.00,19.00,0.00,29.74,M,10.00,26.00,CLR,M,M,M,M,M,M,M,M,M,M,M,M,M,M,14.68,KMDS 120515Z AUTO 21019G26KT 10SM CLR M02/M05 A2974 RMK AO2
9V9,2020-02-12 05:15,-99.3183,43.7667,509.76,34.00,22.60,62.65,240.00,10.00,0.00,29.73,M,10.00,M,CLR,M,M,M,M,M,M,M,M,M,M,M,M,M,M,25.48,K9V9 120515Z AUTO 24010KT 10SM CLR 01/M05 A2973 RMK AO2 T00111052
SPF,2020-02-12 05:15,-103.7830,44.4803,1186.17,33.80,23.00,64.23,260.00,13.00,0.00,29.70,M,10.00,19.00,M,M,M,M,M,M,M,M,M,M,M,M,M,M,M,23.87,KSPF 120515Z AUTO 26013G19KT 10SM 01/M05 A2970 RMK AO2
MDS,2020-02-12 05:35,-97.0859,44.0160,520.80,28.40,23.00,79.92,210.00,19.00,0.00,29.73,M,10.00,24.00,CLR,M,M,M,M,M,M,M,M,M,M,M,M,M,M,14.68,KMDS 120535Z AUTO 21019G24KT 10SM CLR M02/M05 A2973 RMK AO2
9V9,2020-02-12 05:35,-99.3183,43.7667,509.76,34.50,22.80,61.94,230.00,10.00,0.00,29.73,M,10.00,M,CLR,M,M,M,M,M,M,M,M,M,M,M,M,M,M,26.10,K9V9 120535Z AUTO 23010KT 10SM CLR 01/M05 A2973 RMK AO2 T00141051
SPF,2020-02-12 05:35,-103.7830,44.4803,1186.17,33.80,23.00,64.23,280.00,14.00,0.00,29.70,M,10.00,23.00,SCT,BKN,OVC,M,4400.00,5000.00,6000.00,M,M,M,M,M,M,M,M,23.48,KSPF 120535Z AUTO 28014G23KT 10SM SCT044 BKN050 OVC060 01/M05 A2970 RMK AO2
RAP,2020-02-12 05:52,-103.0574,44.0453,964.71,35.10,24.10,63.86,310.00,12.00,0.00,29.70,1008.20,10.00,M,OVC,M,M,M,12000.00,M,M,M,M,M,M,M,M,M,M,25.95,KRAP 120552Z AUTO 31012KT 10SM OVC120 02/M04 A2970 RMK AO2 SLP082 T00171044 10022 21011 58000
IEN,2020-02-12 05:52,-102.5110,43.0225,1008.84,32.00,19.00,58.27,250.00,8.00,0.00,29.75,1009.80,10.00,M,BKN,M,M,M,12000.00,M,M,M,M,M,M,M,M,M,M,24.11,KIEN 120552Z AUTO 25008KT 10SM BKN120 00/M07 A2975 RMK AO2 SLP098 T00001072 10022 21017 53001
MBG,2020-02-12 05:52,-100.4078,45.5464,515.17,32.00,19.90,60.55,300.00,6.00,0.00,29.63,1005.20,10.00,M,FEW,SCT,BKN,M,4700.00,5500.00,10000.00,M,M,M,M,M,M,M,M,25.53,KMBG 120552Z AUTO 30006KT 10SM FEW047 SCT055 BKN100 00/M07 A2963 RMK AO2 SLP052 T00001067 10017 21011 400281100 56009
CUT,2020-02-12 05:53,-103.6114,43.7331,1686.81,27.00,17.10,65.84,290.00,6.00,0.00,29.66,1007.60,10.00,M,BKN,M,M,M,10000.00,M,M,M,M,M,M,M,M,M,M,19.51,KCUT 120553Z AUTO 29006KT 10SM BKN100 M03/M08 A2966 RMK AO2 SLP076 T10281083 11028 21056 58004
ICR,2020-02-12 05:53,-99.8422,43.3903,611.93,35.10,17.10,47.43,210.00,13.00,0.00,29.71,1007.60,10.00,M,CLR,M,M,M,M,M,M,M,M,M,M,M,M,M,M,25.54,KICR 120553Z AUTO 21013KT 10SM CLR 02/M08 A2971 RMK AO2 SLP076 T00171083 10044 20011 400671072 58012
MHE,2020-02-12 05:53,-98.0386,43.7748,395.73,33.10,21.00,60.71,210.00,13.00,0.00,29.74,1008.50,10.00,21.00,CLR,M,M,M,M,M,M,M,M,M,M,M,M,M,M,22.98,KMHE 120553Z AUTO 21013G21KT 10SM CLR 01/M06 A2974 RMK AO2 SLP085 T00061061 10028 21017 400281089 56021
ABR,2020-02-12 05:53,-98.4200,45.4500,395.00,25.00,19.90,80.66,210.00,7.00,0.00,29.67,1006.60,10.00,M,OVC,M,M,M,9500.00,M,M,M,M,M,M,M,M,M,M,16.25,KABR 120553Z AUTO 21007KT 10SM OVC095 M04/M07 A2967 RMK AO2 SLP066 T10391067 11022 21039 410171133 56019
PIR,2020-02-12 05:53,-100.2860,44.3827,522.03,34.00,21.00,58.56,240.00,7.00,0.00,29.68,1006.60,10.00,M,OVC,M,M,M,7500.00,M,M,M,M,M,M,M,M,M,M,27.22,KPIR 120553Z AUTO 24007KT 10SM OVC075 01/M06 A2968 RMK AO2 SLP066 T00111061 10033 20000 400561089 56007
ATY,2020-02-12 05:53,-97.1547,44.9140,525.88,28.90,19.90,68.67,200.00,14.00,0.00,29.67,1007.20,10.00,M,FEW,M,M,M,12000.00,M,M,M,M,M,M,M,M,M,M,17.17,KATY 120553Z AUTO 20014KT 10SM FEW120 M02/M07 A2967 RMK AO2 SLP072 T10171067 11017 21061 410171139 56027
MDS,2020-02-12 05:55,-97.0859,44.0160,520.80,28.40,23.00,79.92,200.00,17.00,0.00,29.72,M,10.00,24.00,CLR,M,M,M,M,M,M,M,M,M,M,M,M,M,M,15.36,KMDS 120555Z AUTO 20017G24KT 10SM CLR M02/M05 A2972 RMK AO2
PHP,2020-02-12 05:55,-101.6000,44.0500,671.74,32.00,18.00,55.82,240.00,7.00,0.00,29.70,1007.00,10.00,M,CLR,M,M,M,M,M,M,M,M,M,M,M,M,M,M,24.78,KPHP 120555Z AUTO 24007KT 10SM CLR 00/M08 A2970 RMK AO2 SLP070 T00001078 10039 20000 56005
9V9,2020-02-12 05:55,-99.3183,43.7667,509.76,34.90,22.30,59.69,240.00,8.00,0.00,29.72,M,10.00,M,CLR,M,M,M,M,M,M,M,M,M,M,M,M,M,M,27.69,K9V9 120555Z AUTO 24008KT 10SM CLR 02/M05 A2972 RMK AO2 T00161054 10025 20005 400591080
HON,2020-02-12 05:55,-98.2286,44.3852,384.37,30.00,21.00,68.81,200.00,11.00,0.00,29.71,1007.50,10.00,M,BKN,M,M,M,10000.00,M,M,M,M,M,M,M,M,M,M,19.94,KHON 120555Z AUTO 20011KT 10SM BKN100 M01/M06 A2971 RMK AO2 SLP075 T10111061 11006 21033 400111156 58016
SPF,2020-02-12 05:55,-103.7830,44.4803,1186.17,33.80,23.00,64.23,270.00,14.00,0.00,29.70,M,10.00,22.00,SCT,BKN,OVC,M,4700.00,5500.00,7500.00,M,-UP,M,M,M,M,M,M,23.48,KSPF 120555Z AUTO 27014G22KT 10SM -UP SCT047 BKN055 OVC075 01/M05 A2970 RMK AO2
2WX,2020-02-12 05:56,-103.5464,45.6044,919.07,28.90,19.90,68.67,260.00,11.00,0.00,29.62,1006.20,M,M,M,M,M,M,M,M,M,M,M,M,M,M,M,M,M,18.55,K2WX 120556Z AUTO 26011KT M02/M07 A2962 RMK AO1 SLP062 T10171067 10000 21022 56002
8D3,2020-02-12 05:56,-96.9914,45.6689,351.81,30.00,19.00,63.18,230.00,18.00,0.00,29.65,1006.30,M,25.00,M,M,M,M,M,M,M,M,M,M,M,M,26.00,230.00,2020-02-12 05:38,17.12,K8D3 120556Z AUTO 23018G25KT M01/M07 A2965 RMK AO1 PK WND 23026/0538 SLP063 T10111072 10000 21028 400001083 56030
D07,2020-02-12 05:56,-102.0200,45.0300,778.50,32.00,21.90,65.92,280.00,12.00,0.00,29.65,1007.40,M,M,M,M,M,M,M,M,M,M,M,M,M,M,M,M,M,22.00,KD07 120556Z AUTO 28012KT 00/M06 A2965 RMK AO1 SLP074 T00001056 10000 21028 58005
FSD,2020-02-12 05:56,-96.7536,43.5769,428.94,32.00,19.90,60.55,200.00,18.00,0.00,29.79,1010.40,10.00,24.00,CLR,M,M,M,M,M,M,M,M,M,M,M,26.00,190.00,2020-02-12 05:42,19.75,KFSD 120556Z 20018G24KT 10SM CLR 00/M07 A2979 RMK AO2 PK WND 19026/0542 SLP104 T00001067 10006 21017 400171117 56026
BKX,2020-02-12 05:56,-96.8169,44.3048,490.28,28.00,19.90,71.25,190.00,16.00,0.00,29.72,1009.80,10.00,M,CLR,M,M,M,M,M,M,M,M,M,M,M,M,M,M,15.20,KBKX 120556Z AUTO 19016KT 10SM CLR M02/M07 A2972 RMK AO2 SLP098 T10221067 11022 21056 410171144 58030 FZRANO
RCA,2020-02-12 05:56,-103.1036,44.1451,977.43,36.00,25.30,64.78,300.00,10.00,0.00,29.69,1008.10,10.00,M,FEW,OVC,M,M,9000.00,11000.00,M,M,M,M,M,M,M,M,M,27.98,KRCA 120556Z AUTO 30010KT 10SM FEW090 OVC110 02/M04 A2969 RMK AO2 SLP081 T00221037 10022 21006 52002 $
YKN,2020-02-12 05:56,-97.3859,42.9167,389.54,35.10,19.90,53.49,200.00,14.00,0.00,29.83,1012.50,10.00,M,CLR,M,M,M,M,M,M,M,M,M,M,M,M,M,M,25.16,KYKN 120556Z AUTO 20014KT 10SM CLR 02/M07 A2983 RMK AO2 SLP125 T00171067 10033 20006 400561078 58023 FZRANO
MDS,2020-02-12 06:15,-97.0859,44.0160,520.80,28.40,23.00,79.92,200.00,18.00,0.00,29.71,M,10.00,22.00,CLR,M,M,M,M,M,M,M,M,M,M,M,M,M,M,15.01,KMDS 120615Z AUTO 20018G22KT 10SM CLR M02/M05 A2971 RMK AO2
9V9,2020-02-12 06:15,-99.3183,43.7667,509.76,35.80,22.10,57.11,250.00,9.00,0.00,29.71,M,10.00,M,SCT,SCT,M,M,9000.00,11000.00,M,M,M,M,M,M,M,M,M,28.24,K9V9 120615Z AUTO 25009KT 10SM SCT090 SCT110 02/M05 A2971 RMK AO2 T00211055
SPF,2020-02-12 06:15,-103.7830,44.4803,1186.17,33.80,23.00,64.23,280.00,12.00,0.00,29.71,M,10.00,19.00,M,M,M,M,M,M,M,M,M,M,M,M,M,M,M,24.29,KSPF 120615Z AUTO 28012G19KT 10SM 01/M05 A2971 RMK AO2
MDS,2020-02-12 06:35,-97.0859,44.0160,520.80,28.40,24.80,86.18,210.00,15.00,0.00,29.72,M,10.00,21.00,CLR,M,M,M,M,M,M,M,M,M,M,M,M,M,M,16.11,KMDS 120635Z AUTO 21015G21KT 10SM CLR M02/M04 A2972 RMK AO2
9V9,2020-02-12 06:35,-99.3183,43.7667,509.76,36.00,22.60,57.86,250.00,7.00,0.00,29.71,M,10.00,M,OVC,M,M,M,9000.00,M,M,M,M,M,M,M,M,M,M,29.65,K9V9 120635Z AUTO 25007KT 10SM OVC090 02/M05 A2971 RMK AO2 T00221052
SPF,2020-02-12 06:35,-103.7830,44.4803,1186.17,33.80,23.00,64.23,260.00,23.00,0.00,29.71,M,10.00,31.00,M,M,M,M,M,M,M,M,M,M,M,M,M,M,M,20.73,KSPF 120635Z AUTO 26023G31KT 10SM 01/M05 A2971 RMK AO2
RAP,2020-02-12 06:52,-103.0574,44.0453,964.71,34.00,25.00,69.28,310.00,11.00,0.00,29.70,1007.90,10.00,M,SCT,M,M,M,12000.00,M,M,M,M,M,M,M,M,M,M,24.99,KRAP 120652Z AUTO 31011KT 10SM SCT120 01/M04 A2970 RMK AO2 SLP079 T00111039 400391139
IEN,2020-02-12 06:52,-102.5110,43.0225,1008.84,30.00,19.00,63.18,250.00,7.00,0.00,29.75,1009.40,10.00,M,FEW,M,M,M,12000.00,M,M,M,M,M,M,M,M,M,M,22.34,KIEN 120652Z AUTO 25007KT 10SM FEW120 M01/M07 A2975 RMK AO2 SLP094 T10111072 400501100
MBG,2020-02-12 06:52,-100.4078,45.5464,515.17,33.10,21.90,63.06,330.00,5.00,0.00,29.62,1004.80,10.00,M,BKN,OVC,M,M,4100.00,5000.00,M,M,M,M,M,M,M,M,M,27.70,KMBG 120652Z AUTO 33005KT 10SM BKN041 OVC050 01/M06 A2962 RMK AO2 SLP048 T00061056
CUT,2020-02-12 06:53,-103.6114,43.7331,1686.81,27.00,16.00,62.78,280.00,9.00,0.00,29.67,1008.10,10.00,17.00,CLR,M,M,M,M,M,M,M,M,M,M,M,M,M,M,17.30,KCUT 120653Z AUTO 28009G17KT 10SM CLR M03/M09 A2967 RMK AO2 SLP081 T10281089 410221122
ICR,2020-02-12 06:53,-99.8422,43.3903,611.93,35.10,18.00,49.31,210.00,9.00,0.00,29.71,1007.40,10.00,M,OVC,M,M,M,9000.00,M,M,M,M,M,M,M,M,M,M,27.37,KICR 120653Z AUTO 21009KT 10SM OVC090 02/M08 A2971 RMK AO2 SLP074 T00171078
MHE,2020-02-12 06:53,-98.0386,43.7748,395.73,34.00,21.90,60.83,220.00,17.00,0.00,29.74,1008.20,10.00,24.00,CLR,M,M,M,M,M,M,M,M,M,M,M,M,M,M,22.70,KMHE 120653Z AUTO 22017G24KT 10SM CLR 01/M06 A2974 RMK AO2 SLP082 T00111056
ABR,2020-02-12 06:53,-98.4200,45.4500,395.00,24.10,19.90,83.75,220.00,5.00,0.00,29.68,1006.70,10.00,M,BKN,BKN,M,M,9000.00,11000.00,M,M,M,M,M,M,M,M,M,17.01,KABR 120653Z AUTO 22005KT 10SM BKN090 BKN110 M04/M07 A2968 RMK AO2 SLP067 T10441067
PIR,2020-02-12 06:53,-100.2860,44.3827,522.03,33.10,19.90,57.93,240.00,7.00,0.00,29.68,1006.30,10.00,M,SCT,M,M,M,11000.00,M,M,M,M,M,M,M,M,M,M,26.12,KPIR 120653Z AUTO 24007KT 10SM SCT110 01/M07 A2968 RMK AO2 SLP063 T00061067
ATY,2020-02-12 06:53,-97.1547,44.9140,525.88,30.00,21.00,68.81,220.00,15.00,0.00,29.66,1006.70,10.00,M,BKN,OVC,M,M,9000.00,10000.00,M,M,M,M,M,M,M,M,M,18.19,KATY 120653Z AUTO 22015KT 10SM BKN090 OVC100 M01/M06 A2966 RMK AO2 SLP067 T10111061
MDS,2020-02-12 06:55,-97.0859,44.0160,520.80,28.40,26.60,92.86,220.00,12.00,0.00,29.72,M,10.00,M,CLR,M,M,M,M,M,M,M,M,M,M,M,M,M,M,17.42,KMDS 120655Z AUTO 22012KT 10SM CLR M02/M03 A2972 RMK AO2
PHP,2020-02-12 06:55,-101.6000,44.0500,671.74,30.90,19.00,60.92,280.00,6.00,0.00,29.71,1007.20,10.00,M,FEW,M,M,M,11000.00,M,M,M,M,M,M,M,M,M,M,24.21,KPHP 120655Z AUTO 28006KT 10SM FEW110 M01/M07 A2971 RMK AO2 SLP072 T10061072 400721100
9V9,2020-02-12 06:55,-99.3183,43.7667,509.76,36.00,22.60,57.86,240.00,7.00,0.00,29.71,M,10.00,M,SCT,OVC,M,M,8000.00,10000.00,M,M,M,M,M,M,M,M,M,29.65,K9V9 120655Z AUTO 24007KT 10SM SCT080 OVC100 02/M05 A2971 RMK AO2 T00221052
HON,2020-02-12 06:55,-98.2286,44.3852,384.37,30.90,21.90,68.91,220.00,10.00,0.00,29.70,1007.10,10.00,M,OVC,M,M,M,8500.00,M,M,M,M,M,M,M,M,M,M,21.59,KHON 120655Z AUTO 22010KT 10SM OVC085 M01/M06 A2970 RMK AO2 SLP071 T10061056
2WX,2020-02-12 06:56,-103.5464,45.6044,919.07,32.00,21.90,65.92,250.00,17.00,0.00,29.62,1005.50,M,M,M,M,M,M,M,M,M,M,M,M,M,M,M,M,M,20.08,K2WX 120656Z AUTO 25017KT 00/M06 A2962 RMK AO1 SLP055 T00001056 400221122
8D3,2020-02-12 06:56,-96.9914,45.6689,351.81,30.00,19.90,65.66,230.00,15.00,0.00,29.64,1006.00,M,M,M,M,M,M,M,M,M,M,M,M,M,M,28.00,230.00,2020-02-12 06:03,18.19,K8D3 120656Z AUTO 23015KT M01/M07 A2964 RMK AO1 PK WND 23028/0603 SLP060 T10111067
D07,2020-02-12 06:56,-102.0200,45.0300,778.50,33.10,23.00,66.06,280.00,14.00,0.00,29.66,1007.20,M,M,M,M,M,M,M,M,M,M,M,M,M,M,M,M,M,22.58,KD07 120656Z AUTO 28014KT 01/M05 A2966 RMK AO1 SLP072 T00061050 400111122
FSD,2020-02-12 06:56,-96.7536,43.5769,428.94,33.10,21.00,60.71,200.00,20.00,0.00,29.76,1009.40,10.00,26.00,CLR,M,M,M,M,M,M,M,M,M,M,M,29.00,200.00,2020-02-12 06:02,20.60,KFSD 120656Z AUTO 20020G26KT 10SM CLR 01/M06 A2976 RMK AO2 PK WND 20029/0602 SLP094 T00061061
BKX,2020-02-12 06:56,-96.8169,44.3048,490.28,28.90,21.90,74.76,210.00,14.00,0.00,29.71,1009.30,10.00,M,CLR,M,M,M,M,M,M,M,M,M,M,M,M,M,M,17.17,KBKX 120656Z AUTO 21014KT 10SM CLR M02/M06 A2971 RMK AO2 SLP093 T10171056 FZRANO
RCA,2020-02-12 06:56,-103.1036,44.1451,977.43,34.20,25.30,69.59,290.00,8.00,0.00,29.70,1008.20,10.00,M,OVC,M,M,M,12000.00,M,M,M,M,M,M,M,M,M,M,26.82,KRCA 120656Z AUTO 29008KT 10SM OVC120 01/M04 A2970 RMK AO2 SLP082 T00121037 400531103 $
YKN,2020-02-12 06:56,-97.3859,42.9167,389.54,34.00,21.90,60.83,210.00,16.00,0.00,29.80,1011.50,10.00,21.00,CLR,M,M,M,M,M,M,M,M,M,M,M,M,M,M,23.03,KYKN 120656Z AUTO 21016G21KT 10SM CLR 01/M06 A2980 RMK AO2 SLP115 T00111056 FZRANO
MDS,2020-02-12 07:15,-97.0859,44.0160,520.80,30.20,26.60,86.28,220.00,16.00,0.00,29.71,M,10.00,20.00,CLR,M,M,M,M,M,M,M,M,M,M,M,M,M,M,18.07,KMDS 120715Z AUTO 22016G20KT 10SM CLR M01/M03 A2971 RMK AO2
9V9,2020-02-12 07:15,-99.3183,43.7667,509.76,35.60,23.40,60.80,240.00,7.00,0.00,29.70,M,10.00,M,OVC,M,M,M,9000.00,M,M,M,M,M,M,M,M,M,M,29.17,K9V9 120715Z AUTO 24007KT 10SM OVC090 02/M05 A2970 RMK AO2 T00201048
SPF,2020-02-12 07:15,-103.7830,44.4803,1186.17,32.00,24.80,74.44,280.00,15.00,0.00,29.72,M,10.00,25.00,FEW,BKN,OVC,M,2400.00,3400.00,4800.00,M,-UP,M,M,M,M,M,M,20.78,KSPF 120715Z AUTO 28015G25KT 10SM -UP FEW024 BKN034 OVC048 00/M04 A2972 RMK AO2
MDS,2020-02-12 07:35,-97.0859,44.0160,520.80,30.20,26.60,86.28,230.00,15.00,0.00,29.71,M,10.00,23.00,CLR,M,M,M,M,M,M,M,M,M,M,M,M,M,M,18.45,KMDS 120735Z AUTO 23015G23KT 10SM CLR M01/M03 A2971 RMK AO2
9V9,2020-02-12 07:35,-99.3183,43.7667,509.76,35.60,23.40,60.80,240.00,6.00,0.00,29.69,M,10.00,M,SCT,BKN,M,M,9000.00,11000.00,M,M,M,M,M,M,M,M,M,29.87,K9V9 120735Z AUTO 24006KT 10SM SCT090 BKN110 02/M05 A2969 RMK AO2 T00201048
SPF,2020-02-12 07:35,-103.7830,44.4803,1186.17,32.00,26.60,80.22,270.00,14.00,0.00,29.72,M,7.00,22.00,SCT,BKN,OVC,M,2600.00,3500.00,6500.00,M,-SN,M,M,M,M,M,M,21.16,KSPF 120735Z AUTO 27014G22KT 7SM -SN SCT026 BKN035 OVC065 M00/M03 A2972 RMK AO2
CUT,2020-02-12 07:38,-103.6114,43.7331,1686.81,23.00,15.10,71.30,240.00,6.00,0.00,29.68,M,10.00,M,BKN,M,M,M,2400.00,M,M,M,M,M,M,M,M,M,M,14.69,KCUT 120738Z AUTO 24006KT 10SM BKN024 M05/M09 A2968 RMK AO2 T10501094
RAP,2020-02-12 07:52,-103.0574,44.0453,964.71,35.10,23.00,60.99,310.00,16.00,0.00,29.70,1007.80,10.00,M,CLR,M,M,M,M,M,M,M,M,M,M,M,M,M,M,24.46,KRAP 120752Z AUTO 31016KT 10SM CLR 02/M05 A2970 RMK AO2 SLP078 T00171050
IEN,2020-02-12 07:52,-102.5110,43.0225,1008.84,30.90,19.90,63.31,260.00,7.00,0.00,29.76,1009.60,10.00,M,OVC,M,M,M,5500.00,M,M,M,M,M,M,M,M,M,M,23.44,KIEN 120752Z AUTO 26007KT 10SM OVC055 M01/M07 A2976 RMK AO2 SLP096 T10061067
MBG,2020-02-12 07:52,-100.4078,45.5464,515.17,32.00,23.00,69.04,310.00,3.00,0.00,29.63,1005.00,10.00,M,FEW,OVC,M,M,3800.00,5000.00,M,M,M,M,M,M,M,M,M,28.69,KMBG 120752Z AUTO 31003KT 10SM FEW038 OVC050 00/M05 A2963 RMK AO2 SLP050 T00001050
CUT,2020-02-12 07:53,-103.6114,43.7331,1686.81,25.00,18.00,74.36,290.00,8.00,0.00,29.68,1008.20,10.00,16.00,BKN,M,M,M,2200.00,M,M,M,M,M,M,M,M,M,M,15.49,KCUT 120753Z AUTO 29008G16KT 10SM BKN022 M04/M08 A2968 RMK AO2 SLP082 T10391078
ICR,2020-02-12 07:53,-99.8422,43.3903,611.93,34.00,19.00,53.77,220.00,9.00,0.00,29.69,1006.80,10.00,M,BKN,M,M,M,12000.00,M,M,M,M,M,M,M,M,M,M,26.00,KICR 120753Z AUTO 22009KT 10SM BKN120 01/M07 A2969 RMK AO2 SLP068 T00111072
MHE,2020-02-12 07:53,-98.0386,43.7748,395.73,34.00,23.00,63.72,230.00,12.00,0.00,29.73,1008.10,10.00,M,CLR,M,M,M,M,M,M,M,M,M,M,M,M,M,M,24.55,KMHE 120753Z AUTO 23012KT 10SM CLR 01/M05 A2973 RMK AO2 SLP081 T00111050
ABR,2020-02-12 07:53,-98.4200,45.4500,395.00,25.00,19.90,80.66,260.00,5.00,0.00,29.67,1006.30,10.00,M,OVC,M,M,M,8000.00,M,M,M,M,M,M,M,M,M,M,18.08,KABR 120753Z AUTO 26005KT 10SM OVC080 M04/M07 A2967 RMK AO2 SLP063 T10391067
PIR,2020-02-12 07:53,-100.2860,44.3827,522.03,34.00,21.90,60.83,280.00,8.00,0.00,29.68,1006.20,10.00,M,FEW,M,M,M,7000.00,M,M,M,M,M,M,M,M,M,M,26.58,KPIR 120753Z AUTO 28008KT 10SM FEW070 01/M06 A2968 RMK AO2 SLP062 T00111056
ATY,2020-02-12 07:53,-97.1547,44.9140,525.88,28.90,21.00,71.96,220.00,13.00,0.00,29.65,1006.20,10.00,M,OVC,M,M,M,10000.00,M,M,M,M,M,M,M,M,M,M,17.60,KATY 120753Z AUTO 22013KT 10SM OVC100 M02/M06 A2965 RMK AO2 SLP062 T10171061
MDS,2020-02-12 07:55,-97.0859,44.0160,520.80,30.20,28.40,92.92,230.00,15.00,0.00,29.70,M,10.00,19.00,CLR,M,M,M,M,M,M,M,M,M,M,M,M,M,M,18.45,KMDS 120755Z AUTO 23015G19KT 10SM CLR M01/M02 A2970 RMK AO2
PHP,2020-02-12 07:55,-101.6000,44.0500,671.74,30.90,19.90,63.31,240.00,6.00,0.00,29.71,1007.10,10.00,M,OVC,M,M,M,5500.00,M,M,M,M,M,M,M,M,M,M,24.21,KPHP 120755Z AUTO 24006KT 10SM OVC055 M01/M07 A2971 RMK AO2 SLP071 T10061067
9V9,2020-02-12 07:55,-99.3183,43.7667,509.76,35.60,23.70,61.57,240.00,7.00,0.00,29.69,M,10.00,M,BKN,M,M,M,11000.00,M,M,M,M,M,M,M,M,M,M,29.17,K9V9 120755Z AUTO 24007KT 10SM BKN110 02/M05 A2969 RMK AO2 T00201046
HON,2020-02-12 07:55,-98.2286,44.3852,384.37,30.90,21.90,68.91,210.00,5.00,0.00,29.68,1006.60,10.00,M,OVC,M,M,M,10000.00,M,M,M,M,M,M,M,M,M,M,25.09,KHON 120755Z AUTO 21005KT 10SM OVC100 M01/M06 A2968 RMK AO2 SLP066 T10061056
SPF,2020-02-12 07:55,-103.7830,44.4803,1186.17,32.00,26.60,80.22,270.00,16.00,0.00,29.72,M,10.00,M,FEW,BKN,OVC,M,2700.00,3300.00,6500.00,M,M,M,M,M,M,M,M,20.42,KSPF 120755Z AUTO 27016KT 10SM FEW027 BKN033 OVC065 00/M03 A2972 RMK AO2
2WX,2020-02-12 07:56,-103.5464,45.6044,919.07,33.10,25.00,71.82,280.00,17.00,0.00,29.63,1005.80,M,M,M,M,M,M,M,M,M,M,M,M,M,M,M,M,M,21.52,K2WX 120756Z AUTO 28017KT 01/M04 A2963 RMK AO1 SLP058 T00061039
8D3,2020-02-12 07:56,-96.9914,45.6689,351.81,30.90,21.00,66.34,250.00,15.00,0.00,29.63,1005.30,M,M,M,M,M,M,M,M,M,M,M,M,M,M,M,M,M,19.35,K8D3 120756Z AUTO 25015KT M01/M06 A2963 RMK AO1 SLP053 T10061061
D07,2020-02-12 07:56,-102.0200,45.0300,778.50,34.00,23.00,63.72,270.00,16.00,0.00,29.65,1006.80,M,M,M,M,M,M,M,M,M,M,M,M,M,M,M,M,M,23.03,KD07 120756Z AUTO 27016KT 01/M05 A2965 RMK AO1 SLP068 T00111050
FSD,2020-02-12 07:56,-96.7536,43.5769,428.94,33.10,21.90,63.06,200.00,15.00,0.00,29.74,1008.60,10.00,23.00,CLR,M,M,M,M,M,M,M,M,M,M,M,28.00,200.00,2020-02-12 07:40,22.21,KFSD 120756Z AUTO 20015G23KT 10SM CLR 01/M06 A2974 RMK AO2 PK WND 20028/0740 SLP086 T00061056
BKX,2020-02-12 07:56,-96.8169,44.3048,490.28,30.90,24.10,75.59,220.00,13.00,0.00,29.69,1008.70,10.00,M,CLR,M,M,M,M,M,M,M,M,M,M,M,M,M,M,20.16,KBKX 120756Z AUTO 22013KT 10SM CLR M01/M04 A2969 RMK AO2 SLP087 T10061044 FZRANO
RCA,2020-02-12 07:56,-103.1036,44.1451,977.43,34.90,24.30,64.91,290.00,14.00,0.00,29.70,1007.90,10.00,M,OVC,M,M,M,13000.00,M,M,M,M,M,M,M,M,M,M,24.90,KRCA 120756Z 29014KT 10SM OVC130 02/M04 A2970 RMK AO2A SLP079 T00161043 $
YKN,2020-02-12 07:56,-97.3859,42.9167,389.54,33.10,23.00,66.06,200.00,15.00,0.00,29.78,1010.90,10.00,22.00,CLR,M,M,M,M,M,M,M,M,M,M,M,M,M,M,22.21,KYKN 120756Z AUTO 20015G22KT 10SM CLR 01/M05 A2978 RMK AO2 SLP109 T00061050 FZRANO
MDS,2020-02-12 08:15,-97.0859,44.0160,520.80,30.20,28.40,92.92,230.00,13.00,0.00,29.71,M,10.00,M,CLR,M,M,M,M,M,M,M,M,M,M,M,M,M,M,19.26,KMDS 120815Z AUTO 23013KT 10SM CLR M01/M02 A2971 RMK AO2
9V9,2020-02-12 08:15,-99.3183,43.7667,509.76,35.60,23.90,62.09,240.00,6.00,0.00,29.69,M,10.00,M,SCT,M,M,M,12000.00,M,M,M,M,M,M,M,M,M,M,29.87,K9V9 120815Z AUTO 24006KT 10SM SCT120 02/M04 A2969 RMK AO2 T00201045
CUT,2020-02-12 08:34,-103.6114,43.7331,1686.81,26.10,18.00,71.04,280.00,9.00,0.00,29.68,M,10.00,21.00,SCT,M,M,M,2000.00,M,M,M,M,M,M,M,M,M,M,16.18,KCUT 120834Z AUTO 28009G21KT 10SM SCT020 M03/M08 A2968 RMK AO2 T10331078
MDS,2020-02-12 08:35,-97.0859,44.0160,520.80,30.20,28.40,92.92,230.00,13.00,0.00,29.71,M,10.00,M,FEW,M,M,M,12000.00,M,M,M,M,M,M,M,M,M,M,19.26,KMDS 120835Z AUTO 23013KT 10SM FEW120 M01/M02 A2971 RMK AO2
9V9,2020-02-12 08:35,-99.3183,43.7667,509.76,35.20,24.40,64.41,250.00,6.00,0.00,29.70,M,10.00,M,BKN,M,M,M,11000.00,M,M,M,M,M,M,M,M,M,M,29.38,K9V9 120835Z AUTO 25006KT 10SM BKN110 02/M04 A2970 RMK AO2 T00181042
SPF,2020-02-12 08:35,-103.7830,44.4803,1186.17,32.00,24.80,74.44,270.00,18.00,0.00,29.72,M,10.00,23.00,M,M,M,M,M,M,M,M,M,M,M,M,M,M,M,19.75,KSPF 120835Z AUTO 27018G23KT 10SM 00/M04 A2972 RMK AO2
RAP,2020-02-12 08:52,-103.0574,44.0453,964.71,30.90,24.10,75.59,310.00,11.00,0.00,29.71,1008.20,10.00,M,CLR,M,M,M,M,M,M,M,M,M,M,M,M,M,M,21.08,KRAP 120852Z AUTO 31011KT 10SM CLR M01/M04 A2971 RMK AO2 SLP082 T10061044 53003
IEN,2020-02-12 08:52,-102.5110,43.0225,1008.84,32.00,19.00,58.27,270.00,6.00,0.00,29.76,1009.50,10.00,M,FEW,BKN,OVC,M,6000.00,8000.00,10000.00,M,M,M,M,M,M,M,M,25.53,KIEN 120852Z AUTO 27006KT 10SM FEW060 BKN080 OVC100 00/M07 A2976 RMK AO2 SLP095 T00001072 53003
MBG,2020-02-12 08:52,-100.4078,45.5464,515.17,30.90,24.10,75.59,320.00,4.00,T,29.64,1005.50,10.00,M,BKN,BKN,OVC,M,1700.00,2400.00,7000.00,M,-SN,M,M,M,M,M,M,26.14,KMBG 120852Z AUTO 32004KT 10SM -SN BKN017 BKN024 OVC070 M01/M04 A2964 RMK AO2 SNB49 SLP055 P0000 60000 T10061044 53005
CUT,2020-02-12 08:53,-103.6114,43.7331,1686.81,26.10,18.00,71.04,290.00,9.00,0.00,29.68,1008.50,10.00,22.00,FEW,M,M,M,2000.00,M,M,M,M,M,M,M,M,M,M,16.18,KCUT 120853Z AUTO 29009G22KT 10SM FEW020 M03/M08 A2968 RMK AO2 SLP085 T10331078 51007
ICR,2020-02-12 08:53,-99.8422,43.3903,611.93,36.00,19.00,49.66,250.00,10.00,0.00,29.71,1007.00,10.00,M,BKN,OVC,M,M,9000.00,11000.00,M,M,M,M,M,M,M,M,M,27.98,KICR 120853Z AUTO 25010KT 10SM BKN090 OVC110 02/M07 A2971 RMK AO2 SLP070 T00221072 55002
MHE,2020-02-12 08:53,-98.0386,43.7748,395.73,34.00,23.00,63.72,220.00,12.00,0.00,29.72,1007.50,10.00,M,OVC,M,M,M,9500.00,M,M,M,M,M,M,M,M,M,M,24.55,KMHE 120853Z AUTO 22012KT 10SM OVC095 01/M05 A2972 RMK AO2 SLP075 T00111050 58007
ABR,2020-02-12 08:53,-98.4200,45.4500,395.00,28.00,21.00,74.67,310.00,6.00,0.00,29.68,1006.70,10.00,M,OVC,M,M,M,6000.00,M,M,M,M,M,M,M,M,M,M,20.71,KABR 120853Z AUTO 31006KT 10SM OVC060 M02/M06 A2968 RMK AO2 SLP067 T10221061 53004
PIR,2020-02-12 08:53,-100.2860,44.3827,522.03,34.00,24.10,66.72,290.00,8.00,0.00,29.68,1006.40,10.00,M,BKN,OVC,M,M,7000.00,8500.00,M,M,M,M,M,M,M,M,M,26.58,KPIR 120853Z AUTO 29008KT 10SM BKN070 OVC085 01/M04 A2968 RMK AO2 SLP064 T00111044 55000
ATY,2020-02-12 08:53,-97.1547,44.9140,525.88,28.00,21.00,74.67,220.00,12.00,0.00,29.65,1006.30,10.00,M,OVC,M,M,M,9000.00,M,M,M,M,M,M,M,M,M,M,16.91,KATY 120853Z AUTO 22012KT 10SM OVC090 M02/M06 A2965 RMK AO2 SLP063 T10221061 55007
MDS,2020-02-12 08:55,-97.0859,44.0160,520.80,30.20,30.20,100.00,230.00,14.00,0.00,29.70,M,10.00,18.00,BKN,M,M,M,12000.00,M,M,M,M,M,M,M,M,M,M,18.84,KMDS 120855Z AUTO 23014G18KT 10SM BKN120 M01/M01 A2970 RMK AO2
PHP,2020-02-12 08:55,-101.6000,44.0500,671.74,32.00,21.00,63.45,290.00,3.00,0.00,29.71,1007.30,10.00,M,BKN,OVC,M,M,6500.00,8000.00,M,M,M,M,M,M,M,M,M,28.69,KPHP 120855Z AUTO 29003KT 10SM BKN065 OVC080 00/M06 A2971 RMK AO2 SLP073 T00001061 51005
9V9,2020-02-12 08:55,-99.3183,43.7667,509.76,36.00,23.90,61.11,260.00,7.00,0.00,29.70,M,10.00,M,OVC,M,M,M,10000.00,M,M,M,M,M,M,M,M,M,M,29.65,K9V9 120855Z AUTO 26007KT 10SM OVC100 02/M04 A2970 RMK AO2 T00221045
HON,2020-02-12 08:55,-98.2286,44.3852,384.37,30.90,23.00,72.18,220.00,5.00,0.00,29.69,1006.80,10.00,M,FEW,OVC,M,M,8000.00,9500.00,M,M,M,M,M,M,M,M,M,25.09,KHON 120855Z AUTO 22005KT 10SM FEW080 OVC095 M01/M05 A2969 RMK AO2 SLP068 T10061050 55005
SPF,2020-02-12 08:55,-103.7830,44.4803,1186.17,32.00,24.80,74.44,270.00,16.00,0.00,29.72,M,10.00,26.00,M,M,M,M,M,M,M,M,M,M,M,M,M,M,M,20.42,KSPF 120855Z AUTO 27016G26KT 10SM 00/M04 A2972 RMK AO2
2WX,2020-02-12 08:56,-103.5464,45.6044,919.07,33.10,28.00,81.30,290.00,19.00,0.00,29.65,1006.50,M,M,M,M,M,M,M,M,M,M,M,M,M,M,27.00,290.00,2020-02-12 08:42,20.89,K2WX 120856Z AUTO 29019KT 01/M02 A2965 RMK AO1 PK WND 29027/0842 SLP065 T00061022 53008
8D3,2020-02-12 08:56,-96.9914,45.6689,351.81,30.90,21.00,66.34,290.00,10.00,0.00,29.64,1005.70,M,M,M,M,M,M,M,M,M,M,M,M,M,M,M,M,M,21.59,K8D3 120856Z AUTO 29010KT M01/M06 A2964 RMK AO1 SLP057 T10061061 55003
D07,2020-02-12 08:56,-102.0200,45.0300,778.50,30.90,23.00,72.18,260.00,10.00,0.00,29.66,1007.20,M,M,M,M,M,M,M,M,M,M,M,M,M,M,M,M,M,21.59,KD07 120856Z AUTO 26010KT M01/M05 A2966 RMK AO1 SLP072 T10061050 53002
FSD,2020-02-12 08:56,-96.7536,43.5769,428.94,32.00,23.00,69.04,210.00,10.00,0.00,29.74,1008.70,10.00,M,CLR,M,M,M,M,M,M,M,M,M,M,M,M,M,M,22.97,KFSD 120856Z AUTO 21010KT 10SM CLR 00/M05 A2974 RMK AO2 SLP087 T00001050 55015
BKX,2020-02-12 08:56,-96.8169,44.3048,490.28,30.00,25.00,81.40,220.00,12.00,0.00,29.69,1008.70,10.00,M,FEW,SCT,M,M,8000.00,11000.00,M,M,M,M,M,M,M,M,M,19.46,KBKX 120856Z AUTO 22012KT 10SM FEW080 SCT110 M01/M04 A2969 RMK AO2 SLP087 T10111039 55007 FZRANO
RCA,2020-02-12 08:56,-103.1036,44.1451,977.43,31.60,25.50,77.89,280.00,7.00,0.00,29.69,1007.80,10.00,M,FEW,BKN,M,M,8000.00,10000.00,M,M,M,M,M,M,M,M,M,24.29,KRCA 120856Z 28007KT 10SM FEW080 BKN100 00/M04 A2969 RMK AO2A SLP078 T10021036 50000 $
YKN,2020-02-12 08:56,-97.3859,42.9167,389.54,33.10,24.10,69.17,210.00,13.00,0.00,29.77,1010.50,10.00,M,CLR,M,M,M,M,M,M,M,M,M,M,M,M,M,M,22.98,KYKN 120856Z AUTO 21013KT 10SM CLR 01/M04 A2977 RMK AO2 SLP105 T00061044 56018 FZRANO
MDS,2020-02-12 09:15,-97.0859,44.0160,520.80,28.40,28.40,100.00,230.00,14.00,0.00,29.70,M,10.00,19.00,FEW,SCT,BKN,M,5500.00,7000.00,7500.00,M,M,M,M,M,M,M,M,16.52,KMDS 120915Z AUTO 23014G19KT 10SM FEW055 SCT070 BKN075 M02/M02 A2970 RMK AO2
9V9,2020-02-12 09:15,-99.3183,43.7667,509.76,35.60,24.80,64.46,270.00,5.00,0.00,29.70,M,10.00,M,OVC,M,M,M,9000.00,M,M,M,M,M,M,M,M,M,M,30.67,K9V9 120915Z AUTO 27005KT 10SM OVC090 02/M04 A2970 RMK AO2 T00201040
SPF,2020-02-12 09:15,-103.7830,44.4803,1186.17,32.00,24.80,74.44,280.00,17.00,0.00,29.73,M,10.00,24.00,M,M,M,M,M,M,M,M,M,M,M,M,M,M,M,20.08,KSPF 120915Z AUTO 28017G24KT 10SM 00/M04 A2973 RMK AO2
MBG,2020-02-12 09:23,-100.4078,45.5464,515.17,33.10,25.00,71.82,340.00,3.00,T,29.65,M,9.00,M,BKN,OVC,M,M,1400.00,2100.00,M,M,M,M,M,M,M,M,M,29.95,KMBG 120923Z AUTO 34003KT 9SM BKN014 OVC021 01/M04 A2965 RMK AO2 SNE05 P0000 T00061039
CUT,2020-02-12 09:24,-103.6114,43.7331,1686.81,26.60,19.40,73.89,290.00,10.00,0.00,29.69,M,10.00,23.00,BKN,M,M,M,2000.00,M,M,M,M,M,M,M,M,M,M,16.20,KCUT 120924Z AUTO 29010G23KT 10SM BKN020 M03/M07 A2969
MBG,2020-02-12 09:32,-100.4078,45.5464,515.17,33.10,25.00,71.82,360.00,3.00,T,29.65,M,5.00,M,OVC,M,M,M,1600.00,M,M,M,-SN,M,M,M,M,M,M,29.95,KMBG 120932Z AUTO 36003KT 5SM -SN OVC016 01/M04 A2965 RMK AO2 SNE05B26 P0000 T00061039
MDS,2020-02-12 09:35,-97.0859,44.0160,520.80,28.40,28.40,100.00,230.00,14.00,0.00,29.71,M,10.00,M,SCT,BKN,OVC,M,5000.00,6500.00,7500.00,M,M,M,M,M,M,M,M,16.52,KMDS 120935Z AUTO 23014KT 10SM SCT050 BKN065 OVC075 M02/M02 A2971 RMK AO2
9V9,2020-02-12 09:35,-99.3183,43.7667,509.76,34.20,26.10,71.94,260.00,3.00,0.00,29.70,M,10.00,M,OVC,M,M,M,9000.00,M,M,M,M,M,M,M,M,M,M,31.20,K9V9 120935Z AUTO 26003KT 10SM OVC090 01/M03 A2970 RMK AO2 T00121033
SPF,2020-02-12 09:35,-103.7830,44.4803,1186.17,32.00,24.80,74.44,280.00,17.00,0.00,29.74,M,10.00,24.00,M,M,M,M,M,M,M,M,M,M,M,M,M,M,M,20.08,KSPF 120935Z AUTO 28017G24KT 10SM 00/M04 A2974 RMK AO2
CUT,2020-02-12 09:38,-103.6114,43.7331,1686.81,26.10,18.00,71.04,290.00,10.00,0.00,29.69,M,10.00,17.00,SCT,M,M,M,2000.00,M,M,M,M,M,M,M,M,M,M,15.57,KCUT 120938Z AUTO 29010G17KT 10SM SCT020 M03/M08 A2969 RMK AO2 T10331078
RAP,2020-02-12 09:52,-103.0574,44.0453,964.71,28.00,21.00,74.67,310.00,11.00,0.00,29.72,1008.70,10.00,M,CLR,M,M,M,M,M,M,M,M,M,M,M,M,M,M,17.41,KRAP 120952Z AUTO 31011KT 10SM CLR M02/M06 A2972 RMK AO2 SLP087 T10221061
IEN,2020-02-12 09:52,-102.5110,43.0225,1008.84,33.10,19.90,57.93,280.00,8.00,0.00,29.76,1009.50,10.00,M,FEW,OVC,M,M,7500.00,9500.00,M,M,M,M,M,M,M,M,M,25.47,KIEN 120952Z AUTO 28008KT 10SM FEW075 OVC095 01/M07 A2976 RMK AO2 SLP095 T00061067
MBG,2020-02-12 09:52,-100.4078,45.5464,515.17,32.00,26.10,78.58,360.00,5.00,T,29.65,1005.50,2.50,M,SCT,OVC,M,M,1300.00,1900.00,M,M,-SN,M,M,M,M,M,M,26.40,KMBG 120952Z AUTO 36005KT 2 1/2SM -SN SCT013 OVC019 00/M03 A2965 RMK AO2 SNE05B26 SLP055 P0000 T00001033
CUT,2020-02-12 09:53,-103.6114,43.7331,1686.81,26.10,18.00,71.04,290.00,11.00,0.00,29.68,1008.20,10.00,19.00,CLR,M,M,M,M,M,M,M,M,M,M,M,M,M,M,15.01,KCUT 120953Z AUTO 29011G19KT 10SM CLR M03/M08 A2968 RMK AO2 SLP082 T10331078
ICR,2020-02-12 09:53,-99.8422,43.3903,611.93,34.00,19.90,55.88,240.00,6.00,0.00,29.72,1007.60,10.00,M,FEW,FEW,M,M,7500.00,12000.00,M,M,M,M,M,M,M,M,M,27.94,KICR 120953Z AUTO 24006KT 10SM FEW075 FEW120 01/M07 A2972 RMK AO2 SLP076 T00111067
MHE,2020-02-12 09:53,-98.0386,43.7748,395.73,34.00,24.10,66.72,220.00,11.00,0.00,29.72,1007.60,10.00,M,OVC,M,M,M,8000.00,M,M,M,M,M,M,M,M,M,M,24.99,KMHE 120953Z AUTO 22011KT 10SM OVC080 01/M04 A2972 RMK AO2 SLP076 T00111044
ABR,2020-02-12 09:53,-98.4200,45.4500,395.00,28.90,23.00,78.30,330.00,6.00,0.00,29.69,1006.90,10.00,M,OVC,M,M,M,5500.00,M,M,M,M,M,M,M,M,M,M,21.80,KABR 120953Z AUTO 33006KT 10SM OVC055 M02/M05 A2969 RMK AO2 SLP069 T10171050
PIR,2020-02-12 09:53,-100.2860,44.3827,522.03,34.00,26.10,72.52,310.00,4.00,0.00,29.67,1006.00,10.00,M,OVC,M,M,M,5500.00,M,M,M,M,M,M,M,M,M,M,29.76,KPIR 120953Z AUTO 31004KT 10SM OVC055 01/M03 A2967 RMK AO2 SLP060 T00111033
ATY,2020-02-12 09:53,-97.1547,44.9140,525.88,27.00,21.00,77.80,220.00,9.00,0.00,29.65,1006.40,10.00,M,FEW,SCT,BKN,M,7000.00,8000.00,10000.00,M,M,M,M,M,M,M,M,17.30,KATY 120953Z AUTO 22009KT 10SM FEW070 SCT080 BKN100 M03/M06 A2965 RMK AO2 SLP064 T10281061
MDS,2020-02-12 09:55,-97.0859,44.0160,520.80,30.20,30.20,100.00,230.00,13.00,0.00,29.71,M,10.00,20.00,FEW,OVC,M,M,4300.00,5500.00,M,M,M,M,M,M,M,M,M,19.26,KMDS 120955Z AUTO 23013G20KT 10SM FEW043 OVC055 M01/M01 A2971 RMK AO2
PHP,2020-02-12 09:55,-101.6000,44.0500,671.74,33.10,21.90,63.06,250.00,8.00,0.00,29.72,1007.40,10.00,M,FEW,BKN,M,M,9000.00,11000.00,M,M,M,M,M,M,M,M,M,25.47,KPHP 120955Z AUTO 25008KT 10SM FEW090 BKN110 01/M06 A2972 RMK AO2 SLP074 T00061056
9V9,2020-02-12 09:55,-99.3183,43.7667,509.76,34.20,25.70,70.76,270.00,6.00,0.00,29.71,M,10.00,M,SCT,BKN,BKN,M,7000.00,9000.00,11000.00,M,M,M,M,M,M,M,M,28.18,K9V9 120955Z AUTO 27006KT 10SM SCT070 BKN090 BKN110 01/M03 A2971 RMK AO2 T00121035
HON,2020-02-12 09:55,-98.2286,44.3852,384.37,30.90,23.00,72.18,210.00,5.00,0.00,29.69,1006.70,10.00,M,OVC,M,M,M,8500.00,M,M,M,M,M,M,M,M,M,M,25.09,KHON 120955Z AUTO 21005KT 10SM OVC085 M01/M05 A2969 RMK AO2 SLP067 T10061050
SPF,2020-02-12 09:55,-103.7830,44.4803,1186.17,32.00,24.80,74.44,290.00,16.00,0.00,29.75,M,10.00,26.00,M,M,M,M,M,M,M,M,M,M,M,M,M,M,M,20.42,KSPF 120955Z AUTO 29016G26KT 10SM 00/M04 A2975 RMK AO2
2WX,2020-02-12 09:56,-103.5464,45.6044,919.07,32.00,27.00,81.55,330.00,22.00,0.00,29.70,1008.10,M,M,M,M,M,M,M,M,M,M,M,M,M,M,30.00,320.00,2020-02-12 09:34,18.58,K2WX 120956Z AUTO 33022KT 00/M03 A2970 RMK AO1 PK WND 32030/0934 SLP081 T00001028
8D3,2020-02-12 09:56,-96.9914,45.6689,351.81,30.00,21.90,71.48,300.00,11.00,0.00,29.66,1006.40,M,M,M,M,M,M,M,M,M,M,M,M,M,M,M,M,M,19.94,K8D3 120956Z AUTO 30011KT M01/M06 A2966 RMK AO1 SLP064 T10111056
D07,2020-02-12 09:56,-102.0200,45.0300,778.50,33.10,26.10,75.18,280.00,20.00,0.00,29.66,1007.00,M,27.00,M,M,M,M,M,M,M,M,M,M,M,M,27.00,280.00,2020-02-12 09:53,20.60,KD07 120956Z AUTO 28020G27KT 01/M03 A2966 RMK AO1 PK WND 28027/0953 SLP070 T00061033
FSD,2020-02-12 09:56,-96.7536,43.5769,428.94,32.00,23.00,69.04,220.00,9.00,0.00,29.74,1008.60,10.00,17.00,CLR,M,M,M,M,M,M,M,M,M,M,M,M,M,M,23.51,KFSD 120956Z AUTO 22009G17KT 10SM CLR 00/M05 A2974 RMK AO2 SLP086 T00001050
BKX,2020-02-12 09:56,-96.8169,44.3048,490.28,30.90,26.10,82.15,220.00,11.00,0.00,29.70,1008.80,10.00,M,FEW,OVC,M,M,5500.00,7000.00,M,M,M,M,M,M,M,M,M,21.08,KBKX 120956Z AUTO 22011KT 10SM FEW055 OVC070 M01/M03 A2970 RMK AO2 SLP088 T10061033 FZRANO
RCA,2020-02-12 09:56,-103.1036,44.1451,977.43,33.10,22.60,64.95,280.00,14.00,0.00,29.71,1008.30,10.00,M,FEW,M,M,M,17000.00,M,M,M,M,M,M,M,M,M,M,22.58,KRCA 120956Z 28014KT 10SM FEW170 01/M05 A2971 RMK AO2A SLP083 T00061052 $
YKN,2020-02-12 09:56,-97.3859,42.9167,389.54,33.10,24.10,69.17,210.00,13.00,0.00,29.76,1010.20,10.00,18.00,CLR,M,M,M,M,M,M,M,M,M,M,M,M,M,M,22.98,KYKN 120956Z AUTO 21013G18KT 10SM CLR 01/M04 A2976 RMK AO2 SLP102 T00061044 FZRANO
MBG,2020-02-12 09:59,-100.4078,45.5464,515.17,32.00,26.10,78.58,360.00,5.00,0.01,29.66,M,1.75,M,BKN,OVC,M,M,1300.00,1900.00,M,M,-SN,M,M,M,M,M,M,26.40,KMBG 120959Z AUTO 36005KT 1 3/4SM -SN BKN013 OVC019 00/M03 A2966 RMK AO2 P0001 T00001033
MDS,2020-02-12 10:15,-97.0859,44.0160,520.80,30.20,30.20,100.00,230.00,13.00,0.00,29.70,M,10.00,18.00,BKN,OVC,M,M,5500.00,6500.00,M,M,M,M,M,M,M,M,M,19.26,KMDS 121015Z AUTO 23013G18KT 10SM BKN055 OVC065 M01/M01 A2970 RMK AO2
9V9,2020-02-12 10:15,-99.3183,43.7667,509.76,34.00,25.50,70.73,270.00,7.00,0.00,29.72,M,10.00,M,SCT,SCT,M,M,9000.00,12000.00,M,M,M,M,M,M,M,M,M,27.22,K9V9 121015Z AUTO 27007KT 10SM SCT090 SCT120 01/M04 A2972 RMK AO2 T00111036
SPF,2020-02-12 10:15,-103.7830,44.4803,1186.17,32.00,24.80,74.44,280.00,15.00,0.00,29.75,M,10.00,22.00,M,M,M,M,M,M,M,M,M,M,M,M,M,M,M,20.78,KSPF 121015Z AUTO 28015G22KT 10SM 00/M04 A2975 RMK AO2
MBG,2020-02-12 10:24,-100.4078,45.5464,515.17,32.00,27.00,81.55,350.00,6.00,0.01,29.66,M,2.00,M,SCT,OVC,M,M,1300.00,2100.00,M,M,-SN,M,M,M,M,M,M,25.53,KMBG 121024Z AUTO 35006KT 2SM -SN SCT013 OVC021 00/M03 A2966 RMK AO2 P0001 T00001028
MDS,2020-02-12 10:35,-97.0859,44.0160,520.80,30.20,30.20,100.00,240.00,13.00,0.00,29.70,M,10.00,17.00,FEW,OVC,M,M,5500.00,7500.00,M,M,M,M,M,M,M,M,M,19.26,KMDS 121035Z AUTO 24013G17KT 10SM FEW055 OVC075 M01/M01 A2970 RMK AO2
9V9,2020-02-12 10:35,-99.3183,43.7667,509.76,33.40,25.50,72.45,270.00,7.00,0.00,29.71,M,10.00,M,BKN,BKN,M,M,7500.00,12000.00,M,M,M,M,M,M,M,M,M,26.49,K9V9 121035Z AUTO 27007KT 10SM BKN075 BKN120 01/M04 A2971 RMK AO2 T00081036
SPF,2020-02-12 10:35,-103.7830,44.4803,1186.17,32.00,26.60,80.22,290.00,19.00,0.00,29.75,M,10.00,25.00,M,M,M,M,M,M,M,M,M,M,M,M,M,M,M,19.44,KSPF 121035Z AUTO 29019G25KT 10SM 00/M03 A2975 RMK AO2
MBG,2020-02-12 10:37,-100.4078,45.5464,515.17,30.90,27.00,85.26,350.00,7.00,0.01,29.67,M,3.00,M,BKN,OVC,M,M,2500.00,4900.00,M,M,-SN BR,M,M,M,M,M,M,23.44,KMBG 121037Z AUTO 35007KT 3SM -SN BR BKN025 OVC049 M01/M03 A2967 RMK AO2 P0001 T10061028
RAP,2020-02-12 10:52,-103.0574,44.0453,964.71,33.10,23.00,66.06,310.00,17.00,0.00,29.72,1008.60,10.00,M,CLR,M,M,M,M,M,M,M,M,M,M,M,M,M,M,21.52,KRAP 121052Z AUTO 31017KT 10SM CLR 01/M05 A2972 RMK AO2 SLP086 T00061050
IEN,2020-02-12 10:52,-102.5110,43.0225,1008.84,32.00,21.90,65.92,270.00,6.00,0.00,29.77,1009.70,10.00,M,FEW,BKN,M,M,4800.00,11000.00,M,M,M,M,M,M,M,M,M,25.53,KIEN 121052Z AUTO 27006KT 10SM FEW048 BKN110 00/M06 A2977 RMK AO2 SLP097 T00001056
MBG,2020-02-12 10:52,-100.4078,45.5464,515.17,30.90,27.00,85.26,350.00,6.00,0.02,29.68,1006.60,2.00,M,BKN,OVC,M,M,900.00,2900.00,M,M,-SN BR,M,M,M,M,M,M,24.21,KMBG 121052Z AUTO 35006KT 2SM -SN BR BKN009 OVC029 M01/M03 A2968 RMK AO2 SLP066 P0002 T10061028
CUT,2020-02-12 10:53,-103.6114,43.7331,1686.81,26.10,17.10,68.34,310.00,7.00,0.00,29.69,1008.50,10.00,16.00,FEW,M,M,M,2600.00,M,M,M,M,M,M,M,M,M,M,17.59,KCUT 121053Z AUTO 31007G16KT 10SM FEW026 M03/M08 A2969 RMK AO2 SLP085 T10331083
ICR,2020-02-12 10:53,-99.8422,43.3903,611.93,34.00,21.00,58.56,300.00,3.00,0.00,29.72,1007.50,10.00,M,SCT,OVC,M,M,6000.00,9000.00,M,M,M,M,M,M,M,M,M,30.97,KICR 121053Z AUTO 30003KT 10SM SCT060 OVC090 01/M06 A2972 RMK AO2 SLP075 T00111061
MHE,2020-02-12 10:53,-98.0386,43.7748,395.73,34.00,24.10,66.72,230.00,9.00,0.00,29.71,1007.20,10.00,M,OVC,M,M,M,10000.00,M,M,M,M,M,M,M,M,M,M,26.00,KMHE 121053Z AUTO 23009KT 10SM OVC100 01/M04 A2971 RMK AO2 SLP072 T00111044
ABR,2020-02-12 10:53,-98.4200,45.4500,395.00,28.90,24.10,82.00,360.00,7.00,T,29.71,1007.60,6.00,M,SCT,OVC,M,M,1600.00,6000.00,M,M,-SN,M,M,M,M,M,M,21.00,KABR 121053Z AUTO 36007KT 6SM -SN SCT016 OVC060 M02/M04 A2971 RMK AO2 SNB39 SLP076 P0000 T10171044
PIR,2020-02-12 10:53,-100.2860,44.3827,522.03,34.00,25.00,69.28,280.00,10.00,0.00,29.69,1006.60,10.00,M,BKN,M,M,M,6500.00,M,M,M,M,M,M,M,M,M,M,25.48,KPIR 121053Z AUTO 28010KT 10SM BKN065 01/M04 A2969 RMK AO2 SLP066 T00111039
ATY,2020-02-12 10:53,-97.1547,44.9140,525.88,27.00,21.00,77.80,240.00,5.00,0.00,29.66,1006.90,10.00,M,OVC,M,M,M,6000.00,M,M,M,M,M,M,M,M,M,M,20.46,KATY 121053Z AUTO 24005KT 10SM OVC060 M03/M06 A2966 RMK AO2 SLP069 T10281061
MDS,2020-02-12 10:55,-97.0859,44.0160,520.80,30.20,30.20,100.00,220.00,12.00,0.00,29.70,M,10.00,17.00,BKN,OVC,M,M,5500.00,6500.00,M,M,M,M,M,M,M,M,M,19.71,KMDS 121055Z AUTO 22012G17KT 10SM BKN055 OVC065 M01/M01 A2970 RMK AO2
PHP,2020-02-12 10:55,-101.6000,44.0500,671.74,30.90,21.00,66.34,250.00,9.00,0.00,29.73,1007.80,10.00,M,BKN,M,M,M,4600.00,M,M,M,M,M,M,M,M,M,M,22.15,KPHP 121055Z AUTO 25009KT 10SM BKN046 M01/M06 A2973 RMK AO2 SLP078 T10061061
9V9,2020-02-12 10:55,-99.3183,43.7667,509.76,32.70,25.70,75.14,270.00,9.00,0.00,29.71,M,10.00,M,SCT,BKN,OVC,M,7500.00,9000.00,12000.00,M,M,M,M,M,M,M,M,24.38,K9V9 121055Z AUTO 27009KT 10SM SCT075 BKN090 OVC120 00/M03 A2971 RMK AO2 T00041035
HON,2020-02-12 10:55,-98.2286,44.3852,384.37,30.00,23.00,74.87,0.00,0.00,0.00,29.69,1006.90,10.00,M,OVC,M,M,M,7000.00,M,M,M,M,M,M,M,M,M,M,M,KHON 121055Z AUTO 00000KT 10SM OVC070 M01/M05 A2969 RMK AO2 SLP069 T10111050
SPF,2020-02-12 10:55,-103.7830,44.4803,1186.17,30.20,28.40,92.92,310.00,24.00,0.00,29.78,M,3.00,31.00,M,M,M,M,M,M,M,M,+UP,M,M,M,M,M,M,15.63,KSPF 121055Z AUTO 31024G31KT 3SM +UP M01/M02 A2978 RMK AO2
2WX,2020-02-12 10:56,-103.5464,45.6044,919.07,28.90,24.10,82.00,340.00,21.00,0.00,29.77,1010.90,M,32.00,M,M,M,M,M,M,M,M,M,M,M,M,36.00,330.00,2020-02-12 09:59,14.72,K2WX 121056Z AUTO 34021G32KT M02/M04 A2977 RMK AO1 PK WND 33036/0959 PRESRR SLP109 T10171044
D07,2020-02-12 10:56,-102.0200,45.0300,778.50,32.00,28.90,88.17,290.00,18.00,0.00,29.67,1007.60,M,M,M,M,M,M,M,M,M,M,M,M,M,M,28.00,280.00,2020-02-12 10:25,19.75,KD07 121056Z AUTO 29018KT 00/M02 A2967 RMK AO1 PK WND 28028/1025 SLP076 T00001017
FSD,2020-02-12 10:56,-96.7536,43.5769,428.94,32.00,24.10,72.30,210.00,8.00,0.00,29.73,1008.20,10.00,M,FEW,OVC,M,M,7000.00,9000.00,M,M,M,M,M,M,M,M,M,24.11,KFSD 121056Z 21008KT 10SM FEW070 OVC090 00/M04 A2973 RMK AO2 SLP082 T00001044
BKX,2020-02-12 10:56,-96.8169,44.3048,490.28,30.90,26.10,82.15,210.00,12.00,0.00,29.69,1008.50,10.00,M,OVC,M,M,M,7000.00,M,M,M,M,M,M,M,M,M,M,20.60,KBKX 121056Z AUTO 21012KT 10SM OVC070 M01/M03 A2969 RMK AO2 SLP085 T10061033 FZRANO
RCA,2020-02-12 10:56,-103.1036,44.1451,977.43,34.00,23.90,66.17,300.00,24.00,0.00,29.71,1008.30,10.00,M,CLR,M,M,M,M,M,M,M,M,M,M,M,31.00,330.00,2020-02-12 10:54,20.76,KRCA 121056Z AUTO 30024KT 10SM CLR 01/M04 A2971 RMK AO2 PK WND 33031/54 SLP083 T00111045 $
YKN,2020-02-12 10:56,-97.3859,42.9167,389.54,32.00,24.10,72.30,220.00,12.00,0.00,29.75,1009.80,10.00,M,CLR,M,M,M,M,M,M,M,M,M,M,M,M,M,M,22.00,KYKN 121056Z AUTO 22012KT 10SM CLR 00/M04 A2975 RMK AO2 SLP098 T00001044 FZRANO
ABR,2020-02-12 11:00,-98.4200,45.4500,395.00,28.90,24.10,82.00,350.00,7.00,T,29.72,M,6.00,M,BKN,OVC,M,M,1600.00,6000.00,M,M,-SN,M,M,M,M,M,M,21.00,KABR 121100Z AUTO 35007KT 6SM -SN BKN016 OVC060 M02/M04 A2972 RMK AO2 P0000 T10171044
MBG,2020-02-12 11:02,-100.4078,45.5464,515.17,30.90,27.00,85.26,360.00,8.00,T,29.68,M,5.00,M,BKN,OVC,M,M,900.00,2900.00,M,M,-SN BR,M,M,M,M,M,M,22.76,KMBG 121102Z AUTO 36008KT 5SM -SN BR BKN009 OVC029 M01/M03 A2968 RMK AO2 P0000 T10061028
RCA,2020-02-12 11:08,-103.1036,44.1451,977.43,33.80,24.80,69.25,300.00,22.00,0.00,29.72,1008.90,10.00,32.00,SCT,M,M,M,16000.00,M,M,M,M,M,M,M,M,M,M,20.99,KRCA 121108Z 30022G32KT 10SM SCT160 01/M04 A2972 RMK SLP089 $
MDS,2020-02-12 11:15,-97.0859,44.0160,520.80,28.40,28.40,100.00,230.00,9.00,0.00,29.70,M,10.00,M,BKN,OVC,M,M,6500.00,7500.00,M,M,M,M,M,M,M,M,M,19.04,KMDS 121115Z AUTO 23009KT 10SM BKN065 OVC075 M02/M02 A2970 RMK AO2
9V9,2020-02-12 11:15,-99.3183,43.7667,509.76,32.40,26.20,77.64,270.00,7.00,0.00,29.72,M,10.00,M,BKN,OVC,M,M,8000.00,9000.00,M,M,M,M,M,M,M,M,M,25.27,K9V9 121115Z AUTO 27007KT 10SM BKN080 OVC090 00/M03 A2972 RMK AO2 T00021032
SPF,2020-02-12 11:15,-103.7830,44.4803,1186.17,30.20,26.60,86.28,300.00,17.00,0.00,29.80,M,10.00,23.00,M,M,M,M,M,M,M,M,-RA,M,M,M,M,M,M,17.72,KSPF 121115Z AUTO 30017G23KT 10SM -RA M01/M03 A2980 RMK AO2
RCA,2020-02-12 11:21,-103.1036,44.1451,977.43,33.80,24.80,69.25,320.00,24.00,0.00,29.72,1008.90,10.00,32.00,FEW,SCT,M,M,2200.00,16000.00,M,M,-SN,M,M,M,M,M,M,20.49,KRCA 121121Z 32024G32KT 10SM -SN FEW022 SCT160 01/M04 A2972 RMK AO2A SNB20 SLP089 $
MBG,2020-02-12 11:28,-100.4078,45.5464,515.17,32.00,27.00,81.55,10.00,11.00,T,29.70,M,2.00,M,OVC,M,M,M,800.00,M,M,M,-SN,M,M,M,M,M,M,22.47,KMBG 121128Z AUTO 01011KT 2SM -SN OVC008 00/M03 A2970 RMK AO2 P0000 T00001028
MDS,2020-02-12 11:35,-97.0859,44.0160,520.80,30.20,30.20,100.00,230.00,11.00,0.00,29.69,M,10.00,M,BKN,OVC,M,M,6500.00,7500.00,M,M,M,M,M,M,M,M,M,20.19,KMDS 121135Z AUTO 23011KT 10SM BKN065 OVC075 M01/M01 A2969 RMK AO2
9V9,2020-02-12 11:35,-99.3183,43.7667,509.76,32.40,26.10,77.32,240.00,5.00,0.00,29.71,M,10.00,M,SCT,OVC,M,M,6500.00,8000.00,M,M,M,M,M,M,M,M,M,26.87,K9V9 121135Z AUTO 24005KT 10SM SCT065 OVC080 00/M03 A2971 RMK AO2 T00021033
SPF,2020-02-12 11:35,-103.7830,44.4803,1186.17,30.20,26.60,86.28,310.00,19.00,0.00,29.82,M,10.00,27.00,M,M,M,M,M,M,M,M,M,M,M,M,M,M,M,17.06,KSPF 121135Z AUTO 31019G27KT 10SM M01/M03 A2982 RMK AO2
RCA,2020-02-12 11:36,-103.1036,44.1451,977.43,32.00,28.40,86.39,310.00,28.00,0.00,29.74,1009.90,3.00,40.00,BKN,BKN,M,M,2400.00,16000.00,M,M,-SN BR,M,M,M,M,M,M,17.12,KRCA 121136Z 31028G40KT 3SM -SN BR BKN024 BKN160 00/M02 A2974 RMK AO2A UPB20E23RAB23E26SNB26 CIG 024V160 PRESRR SLP099 $
MBG,2020-02-12 11:43,-100.4078,45.5464,515.17,30.90,27.00,85.26,10.00,14.00,0.01,29.72,M,1.50,22.00,SCT,BKN,OVC,M,800.00,1200.00,1800.00,M,-SN BR,M,M,M,M,M,M,19.74,KMBG 121143Z AUTO 01014G22KT 1 1/2SM -SN BR SCT008 BKN012 OVC018 M01/M03 A2972 RMK AO2 P0001 T10061028
ABR,2020-02-12 11:46,-98.4200,45.4500,395.00,30.00,27.00,88.44,360.00,13.00,T,29.75,M,2.00,M,FEW,OVC,M,M,1500.00,2500.00,M,M,-SN BR,M,M,M,M,M,M,19.01,KABR 121146Z AUTO 36013KT 2SM -SN BR FEW015 OVC025 M01/M03 A2975 RMK AO2 P0000 T10111028
RAP,2020-02-12 11:52,-103.0574,44.0453,964.71,32.00,27.00,81.55,320.00,27.00,T,29.76,1010.30,4.00,42.00,FEW,BKN,M,M,900.00,3000.00,M,M,-SN,M,M,M,46.00,320.00,2020-02-12 11:35,17.34,KRAP 121152Z AUTO 32027G42KT 4SM -SN FEW009 BKN030 00/M03 A2976 RMK AO2 PK WND 32046/1135 UPB37E40SNB40 SLP103 P0000 60000 T00001028 10022 21028 53016
IEN,2020-02-12 11:52,-102.5110,43.0225,1008.84,30.90,24.10,75.59,300.00,10.00,0.00,29.77,1010.30,10.00,15.00,CLR,M,M,M,M,M,M,M,M,M,M,M,M,M,M,21.59,KIEN 121152Z AUTO 30010G15KT 10SM CLR M01/M04 A2977 RMK AO2 SLP103 T10061044 10006 21011 53004
MBG,2020-02-12 11:52,-100.4078,45.5464,515.17,27.00,21.90,80.83,20.00,30.00,0.01,29.73,1008.60,1.00,39.00,BKN,OVC,M,M,1200.00,1800.00,M,M,-SN,M,M,M,39.00,20.00,2020-02-12 11:52,9.82,KMBG 121152Z AUTO 02030G39KT 1SM -SN BKN012 OVC018 M03/M06 A2973 RMK AO2 PK WND 02039/1152 SLP086 P0001 60003 70003 T10281056 10006 21028 53027
CUT,2020-02-12 11:53,-103.6114,43.7331,1686.81,25.00,18.00,74.36,310.00,10.00,0.00,29.70,1009.40,10.00,20.00,FEW,M,M,M,11000.00,M,M,M,M,M,M,M,M,M,M,14.19,KCUT 121153Z AUTO 31010G20KT 10SM FEW110 M04/M08 A2970 RMK AO2 SLP094 T10391078 11028 21056 53004
ICR,2020-02-12 11:53,-99.8422,43.3903,611.93,36.00,21.90,56.18,300.00,9.00,0.00,29.73,1007.90,10.00,M,BKN,OVC,M,M,5500.00,8000.00,M,M,M,M,M,M,M,M,M,28.49,KICR 121153Z AUTO 30009KT 10SM BKN055 OVC080 02/M06 A2973 RMK AO2 SLP079 T00221056 10028 20011 51006
MHE,2020-02-12 11:53,-98.0386,43.7748,395.73,34.00,24.10,66.72,260.00,8.00,0.00,29.72,1007.70,10.00,M,OVC,M,M,M,7000.00,M,M,M,M,M,M,M,M,M,M,26.58,KMHE 121153Z AUTO 26008KT 10SM OVC070 01/M04 A2972 RMK AO2 SLP077 T00111044 10017 20006 53001
ABR,2020-02-12 11:53,-98.4200,45.4500,395.00,30.00,27.00,88.44,360.00,14.00,T,29.76,1009.10,2.00,M,SCT,OVC,M,M,1500.00,2600.00,M,M,-SN BR,M,M,M,M,M,M,18.58,KABR 121153Z AUTO 36014KT 2SM -SN BR SCT015 OVC026 M01/M03 A2976 RMK AO2 SLP091 P0000 60000 T10111028 11011 21044 53023
PIR,2020-02-12 11:53,-100.2860,44.3827,522.03,33.10,25.00,71.82,280.00,9.00,0.00,29.71,1007.30,10.00,M,BKN,OVC,M,M,5000.00,6500.00,M,M,M,M,M,M,M,M,M,24.88,KPIR 121153Z AUTO 28009KT 10SM BKN050 OVC065 01/M04 A2971 RMK AO2 SLP073 T00061039 10017 20000 53009
ATY,2020-02-12 11:53,-97.1547,44.9140,525.88,28.00,21.00,74.67,280.00,7.00,0.00,29.69,1007.60,10.00,M,OVC,M,M,M,6000.00,M,M,M,M,M,M,M,M,M,M,19.90,KATY 121153Z AUTO 28007KT 10SM OVC060 M02/M06 A2969 RMK AO2 SLP076 T10221061 11011 21028 53013
MBG,2020-02-12 11:54,-100.4078,45.5464,515.17,26.10,21.00,80.75,20.00,28.00,T,29.73,M,0.75,39.00,FEW,SCT,OVC,M,600.00,1100.00,2000.00,M,-SN,M,M,M,36.00,20.00,2020-02-12 11:54,9.05,KMBG 121154Z AUTO 02028G39KT 3/4SM -SN FEW006 SCT011 OVC020 M03/M06 A2973 RMK AO2 PK WND 02036/1154 PRESRR P0000 T10331061
MDS,2020-02-12 11:55,-97.0859,44.0160,520.80,30.20,30.20,100.00,240.00,10.00,0.00,29.69,M,10.00,M,SCT,OVC,M,M,6500.00,7500.00,M,M,M,M,M,M,M,M,M,20.71,KMDS 121155Z AUTO 24010KT 10SM SCT065 OVC075 M01/M01 A2969 RMK AO2
PHP,2020-02-12 11:55,-101.6000,44.0500,671.74,36.00,26.10,66.97,280.00,12.00,0.00,29.74,1008.30,10.00,M,FEW,OVC,M,M,3300.00,4300.00,M,M,M,M,M,M,M,M,M,27.09,KPHP 121155Z AUTO 28012KT 10SM FEW033 OVC043 02/M03 A2974 RMK AO2 SLP083 T00221033 10022 21006 53009
9V9,2020-02-12 11:55,-99.3183,43.7667,509.76,32.90,26.60,77.37,300.00,7.00,0.00,29.73,M,10.00,M,SCT,OVC,M,M,5500.00,8000.00,M,M,M,M,M,M,M,M,M,25.88,K9V9 121155Z AUTO 30007KT 10SM SCT055 OVC080 01/M03 A2973 RMK AO2 T00051030 10025 20000
HON,2020-02-12 11:55,-98.2286,44.3852,384.37,21.90,19.00,88.40,310.00,5.00,0.00,29.72,1008.00,10.00,M,CLR,M,M,M,M,M,M,M,M,M,M,M,M,M,M,14.40,KHON 121155Z AUTO 31005KT 10SM CLR M06/M07 A2972 RMK AO2 SLP080 T10561072 10000 21056 53009
ABR,2020-02-12 11:55,-98.4200,45.4500,395.00,30.00,27.00,88.44,10.00,18.00,T,29.77,M,1.75,33.00,FEW,SCT,OVC,M,800.00,1300.00,2600.00,M,-SN BR,M,M,M,33.00,20.00,2020-02-12 11:55,17.12,KABR 121155Z AUTO 01018G33KT 1 3/4SM -SN BR FEW008 SCT013 OVC026 M01/M03 A2977 RMK AO2 PK WND 02033/1155 PRESRR P0000 T10111028
SPF,2020-02-12 11:55,-103.7830,44.4803,1186.17,28.40,26.60,92.86,310.00,16.00,0.00,29.83,M,10.00,26.00,M,M,M,M,M,M,M,M,-SN,M,M,M,M,M,M,15.73,KSPF 121155Z AUTO 31016G26KT 10SM -SN M02/M03 A2983 RMK AO2
2WX,2020-02-12 11:56,-103.5464,45.6044,919.07,27.00,21.00,77.80,340.00,19.00,0.00,29.82,1013.10,M,31.00,M,M,M,M,M,M,M,M,M,M,M,M,33.00,350.00,2020-02-12 11:44,12.82,K2WX 121156Z AUTO 34019G31KT M03/M06 A2982 RMK AO1 PK WND 35033/1144 SLP131 T10281061 10006 21028 53054
8D3,2020-02-12 11:56,-96.9914,45.6689,351.81,17.10,12.90,83.25,350.00,25.00,0.00,29.77,1010.90,M,32.00,M,M,M,M,M,M,M,M,M,M,M,M,35.00,360.00,2020-02-12 11:37,-2.36,K8D3 121156Z AUTO 35025G32KT M08/M11 A2977 RMK AO1 PK WND 36035/1137 PRESRR SLP109 T10831106 10000 21083 53041
D07,2020-02-12 11:56,-102.0200,45.0300,778.50,30.00,27.00,88.44,10.00,27.00,0.02,29.72,1009.40,M,40.00,M,M,M,M,M,M,M,M,M,M,M,M,40.00,10.00,2020-02-12 11:52,14.62,KD07 121156Z AUTO 01027G40KT M01/M03 A2972 RMK AO1 PK WND 01040/1152 WSHFT 1142 PRESRR SLP094 P0002 60002 70002 T10111028 10011 21011 53018
FSD,2020-02-12 11:56,-96.7536,43.5769,428.94,30.90,24.10,75.59,210.00,5.00,0.00,29.72,1007.90,10.00,M,SCT,BKN,OVC,M,6000.00,7500.00,10000.00,M,M,M,M,M,M,M,M,25.09,KFSD 121156Z 21005KT 10SM SCT060 BKN075 OVC100 M01/M04 A2972 RMK AO2 SLP079 T10061044 10006 21006 58008
BKX,2020-02-12 11:56,-96.8169,44.3048,490.28,30.00,26.10,85.21,230.00,6.00,0.00,29.70,1009.00,10.00,M,BKN,OVC,M,M,7500.00,10000.00,M,M,M,M,M,M,M,M,M,23.12,KBKX 121156Z AUTO 23006KT 10SM BKN075 OVC100 M01/M03 A2970 RMK AO2 SLP090 T10111033 11006 21022 53001 FZRANO
RCA,2020-02-12 11:56,-103.1036,44.1451,977.43,31.60,27.70,85.31,310.00,27.00,T,29.76,1010.60,5.00,38.00,FEW,M,M,M,1200.00,M,M,M,-SN BR,M,M,M,40.00,320.00,2020-02-12 11:31,16.80,KRCA 121156Z 31027G38KT 5SM -SN BR FEW012 00/M02 A2976 RMK AO2A PK WND 32040/31 SNB20E23RAB23E26SNB26 PRESRR SLP106 P0000 60000 T10021024 10021 21010 52019 $
YKN,2020-02-12 11:56,-97.3859,42.9167,389.54,33.10,24.10,69.17,220.00,11.00,0.00,29.74,1009.40,10.00,M,OVC,M,M,M,9500.00,M,M,M,M,M,M,M,M,M,M,23.86,KYKN 121156Z AUTO 22011KT 10SM OVC095 01/M04 A2974 RMK AO2 SLP094 T00061044 10017 20000 58011 FZRANO
ABR,2020-02-12 11:59,-98.4200,45.4500,395.00,26.10,21.90,83.89,10.00,25.00,T,29.78,M,0.75,38.00,FEW,SCT,OVC,M,800.00,1300.00,2400.00,M,-SN BR,M,M,M,38.00,10.00,2020-02-12 11:56,9.83,KABR 121159Z AUTO 01025G38KT 3/4SM -SN BR FEW008 SCT013 OVC024 M03/M06 A2978 RMK AO2 PK WND 01038/1156 PRESRR P0000 T10331056
RCA,2020-02-12 12:01,-103.1036,44.1451,977.43,32.00,26.60,80.22,310.00,28.00,0.00,29.76,1010.60,7.00,36.00,FEW,OVC,M,M,1200.00,2500.00,M,M,-SN,M,M,M,M,M,M,17.12,KRCA 121201Z 31028G36KT 7SM -SN FEW012 OVC025 00/M03 A2976 RMK AO2A SLP106 $
D07,2020-02-12 12:03,-102.0200,45.0300,778.50,28.90,26.10,89.12,10.00,28.00,0.00,29.73,M,M,37.00,M,M,M,M,M,M,M,M,M,M,M,M,37.00,10.00,2020-02-12 12:00,12.88,KD07 121203Z AUTO 01028G37KT M02/M03 A2973 RMK AO1 PK WND 01037/1200 WSHFT 1143 PRESRR T10171033
PHP,2020-02-12 12:14,-101.6000,44.0500,671.74,36.00,27.00,69.51,290.00,14.00,0.00,29.74,M,10.00,21.00,BKN,OVC,M,M,2900.00,4000.00,M,M,M,M,M,M,M,M,M,26.32,KPHP 121214Z AUTO 29014G21KT 10SM BKN029 OVC040 02/M03 A2974 RMK AO2 T00221028
MDS,2020-02-12 12:15,-97.0859,44.0160,520.80,28.40,28.40,100.00,240.00,10.00,0.00,29.69,M,10.00,M,OVC,M,M,M,7500.00,M,M,M,M,M,M,M,M,M,M,18.45,KMDS 121215Z AUTO 24010KT 10SM OVC075 M02/M02 A2969 RMK AO2
9V9,2020-02-12 12:15,-99.3183,43.7667,509.76,33.10,26.10,75.18,300.00,6.00,0.00,29.73,M,10.00,M,SCT,BKN,M,M,5500.00,7000.00,M,M,M,M,M,M,M,M,M,26.86,K9V9 121215Z AUTO 30006KT 10SM SCT055 BKN070 01/M03 A2973 RMK AO2 T00061033
SPF,2020-02-12 12:15,-103.7830,44.4803,1186.17,28.40,26.60,92.86,330.00,13.00,0.00,29.85,M,3.00,21.00,M,M,M,M,M,M,M,M,+UP,M,M,M,M,M,M,16.96,KSPF 121215Z AUTO 33013G21KT 3SM +UP M02/M03 A2985 RMK AO2
ATY,2020-02-12 12:16,-97.1547,44.9140,525.88,28.00,21.00,74.67,290.00,5.00,0.00,29.70,M,10.00,M,BKN,BKN,OVC,M,2300.00,3500.00,6500.00,M,M,M,M,M,M,M,M,21.64,KATY 121216Z AUTO 29005KT 10SM BKN023 BKN035 OVC065 M02/M06 A2970 RMK AO2 T10221061
RCA,2020-02-12 12:26,-103.1036,44.1451,977.43,32.00,26.60,80.22,310.00,29.00,0.00,29.78,1011.20,10.00,39.00,BKN,OVC,M,M,1700.00,2400.00,M,M,-SN,M,M,M,M,M,M,16.90,KRCA 121226Z 31029G39KT 10SM -SN BKN017 OVC024 00/M03 A2978 RMK AO2A CIG 017V025 SLP112 $
MBG,2020-02-12 12:32,-100.4078,45.5464,515.17,18.00,12.90,80.09,10.00,28.00,T,29.81,M,0.50,38.00,VV ,M,M,M,1400.00,M,M,M,SN,M,M,M,40.00,10.00,2020-02-12 12:22,-2.02,KMBG 121232Z AUTO 01028G38KT 1/2SM SN VV014 M08/M11 A2981 RMK AO2 PK WND 01040/1222 PRESRR P0000 T10781106
MDS,2020-02-12 12:35,-97.0859,44.0160,520.80,28.40,28.40,100.00,260.00,9.00,0.00,29.69,M,10.00,M,OVC,M,M,M,7500.00,M,M,M,M,M,M,M,M,M,M,19.04,KMDS 121235Z AUTO 26009KT 10SM OVC075 M02/M02 A2969 RMK AO2
9V9,2020-02-12 12:35,-99.3183,43.7667,509.76,32.50,25.70,75.74,300.00,7.00,0.00,29.73,M,10.00,M,OVC,M,M,M,7000.00,M,M,M,M,M,M,M,M,M,M,25.39,K9V9 121235Z AUTO 30007KT 10SM OVC070 00/M03 A2973 RMK AO2 T00031035
SPF,2020-02-12 12:35,-103.7830,44.4803,1186.17,26.60,24.80,92.80,330.00,14.00,0.00,29.87,M,9.00,25.00,M,M,M,M,M,M,M,M,-SN,M,M,M,M,M,M,14.20,KSPF 121235Z AUTO 33014G25KT 9SM -SN M03/M04 A2987 RMK AO2
ABR,2020-02-12 12:38,-98.4200,45.4500,395.00,17.10,12.90,83.25,20.00,25.00,T,29.84,M,0.50,37.00,BKN,OVC,M,M,1200.00,1800.00,M,M,FZFG,M,M,M,38.00,10.00,2020-02-12 12:12,-2.36,KABR 121238Z AUTO 02025G37KT 1/2SM FZFG BKN012 OVC018 M08/M11 A2984 RMK AO2 PK WND 01038/1212 SNEMM PRESRR P0000 T10831106 PWINO FZRANO $
RAP,2020-02-12 12:40,-103.0574,44.0453,964.71,30.90,25.00,78.48,330.00,33.00,T,29.80,M,6.00,43.00,BKN,OVC,M,M,2000.00,3100.00,M,M,-SN,M,M,M,43.00,330.00,2020-02-12 12:20,14.57,KRAP 121240Z AUTO 33033G43KT 6SM -SN BKN020 OVC031 M01/M04 A2980 RMK AO2 PK WND 33043/1220 P0000 T10061039
RAP,2020-02-12 12:52,-103.0574,44.0453,964.71,30.00,26.10,85.21,340.00,28.00,T,29.81,1012.30,5.00,43.00,FEW,BKN,OVC,M,1500.00,2000.00,3500.00,M,-SN BR,M,M,M,43.00,330.00,2020-02-12 12:20,14.39,KRAP 121252Z 34028G43KT 5SM -SN BR FEW015 BKN020 OVC035 M01/M03 A2981 RMK AO2 PK WND 33043/1220 PRESRR SLP123 P0000 T10111033
IEN,2020-02-12 12:52,-102.5110,43.0225,1008.84,30.90,25.00,78.48,290.00,5.00,0.00,29.80,1011.40,10.00,M,BKN,M,M,M,5500.00,M,M,M,M,M,M,M,M,M,M,25.09,KIEN 121252Z AUTO 29005KT 10SM BKN055 M01/M04 A2980 RMK AO2 SLP114 T10061039
MBG,2020-02-12 12:52,-100.4078,45.5464,515.17,15.10,9.00,76.34,10.00,27.00,T,29.85,1013.40,0.50,43.00,VV ,M,M,M,1100.00,M,M,M,HZ,M,M,M,43.00,10.00,2020-02-12 12:43,-5.69,KMBG 121252Z AUTO 01027G43KT 1/2SM HZ VV011 M09/M13 A2985 RMK AO2 PK WND 01043/1243 SNEMM PRESRR SLP134 P0000 T10941128 PWINO FZRANO $
RCA,2020-02-12 12:52,-103.1036,44.1451,977.43,30.20,26.60,86.28,330.00,28.00,0.00,29.81,1012.60,7.00,33.00,BKN,BKN,OVC,M,1500.00,2100.00,2900.00,M,-SN,M,M,M,M,M,M,14.66,KRCA 121252Z 33028G33KT 7SM -SN BKN015 BKN021 OVC029 M01/M03 A2981 RMK AO2A PRESRR SLP126 $
CUT,2020-02-12 12:53,-103.6114,43.7331,1686.81,25.00,17.10,71.53,330.00,9.00,T,29.72,1010.10,9.00,23.00,SCT,M,M,M,2000.00,M,M,M,M,M,M,M,M,M,M,14.81,KCUT 121253Z AUTO 33009G23KT 290V360 9SM SCT020 M04/M08 A2972 RMK AO2 SNB41E52 SLP101 P0000 T10391083
ICR,2020-02-12 12:53,-99.8422,43.3903,611.93,35.10,21.90,58.22,280.00,9.00,0.00,29.72,1007.90,10.00,M,SCT,SCT,M,M,5000.00,7000.00,M,M,M,M,M,M,M,M,M,27.37,KICR 121253Z AUTO 28009KT 10SM SCT050 SCT070 02/M06 A2972 RMK AO2 SLP079 T00171056
MHE,2020-02-12 12:53,-98.0386,43.7748,395.73,32.00,23.00,69.04,290.00,9.00,0.00,29.72,1007.90,10.00,M,FEW,M,M,M,5500.00,M,M,M,M,M,M,M,M,M,M,23.51,KMHE 121253Z AUTO 29009KT 10SM FEW055 00/M05 A2972 RMK AO2 SLP079 T00001050
ABR,2020-02-12 12:53,-98.4200,45.4500,395.00,15.10,10.90,83.11,10.00,21.00,T,29.86,1013.00,0.50,32.00,VV ,M,M,M,900.00,M,M,M,SN FZFG,M,M,M,38.00,10.00,2020-02-12 12:12,-3.69,KABR 121253Z AUTO 01021G32KT 1/2SM SN FZFG VV009 M09/M12 A2986 RMK AO2 PK WND 01038/1212 SNEMMB48 SLP130 P0000 T10941117 $
PIR,2020-02-12 12:53,-100.2860,44.3827,522.03,34.00,27.00,75.26,310.00,12.00,0.00,29.72,1007.90,10.00,M,BKN,OVC,M,M,2700.00,3500.00,M,M,M,M,M,M,M,M,M,24.55,KPIR 121253Z AUTO 31012KT 10SM BKN027 OVC035 01/M03 A2972 RMK AO2 SLP079 T00111028
ATY,2020-02-12 12:53,-97.1547,44.9140,525.88,27.00,21.90,80.83,340.00,9.00,0.00,29.71,1008.30,10.00,M,BKN,OVC,M,M,1600.00,2200.00,M,M,M,M,M,M,M,M,M,17.30,KATY 121253Z AUTO 34009KT 10SM BKN016 OVC022 M03/M06 A2971 RMK AO2 SLP083 T10281056
MDS,2020-02-12 12:55,-97.0859,44.0160,520.80,28.40,28.40,100.00,260.00,8.00,0.00,29.70,M,10.00,M,OVC,M,M,M,7500.00,M,M,M,M,M,M,M,M,M,M,19.68,KMDS 121255Z AUTO 26008KT 10SM OVC075 M02/M02 A2970 RMK AO2
PHP,2020-02-12 12:55,-101.6000,44.0500,671.74,33.10,30.00,88.23,290.00,13.00,T,29.76,1009.10,4.00,M,FEW,BKN,OVC,M,1600.00,2300.00,4300.00,M,-SN BR,M,M,M,28.00,290.00,2020-02-12 12:24,22.98,KPHP 121255Z AUTO 29013KT 4SM -SN BR FEW016 BKN023 OVC043 01/M01 A2976 RMK AO2 PK WND 29028/1224 SNB34 SLP091 P0000 T00061011
9V9,2020-02-12 12:55,-99.3183,43.7667,509.76,32.90,27.70,80.95,310.00,6.00,0.00,29.72,M,10.00,M,SCT,OVC,M,M,4800.00,6000.00,M,M,M,M,M,M,M,M,M,26.61,K9V9 121255Z AUTO 31006KT 10SM SCT048 OVC060 01/M02 A2972 RMK AO2 T00051024
HON,2020-02-12 12:55,-98.2286,44.3852,384.37,27.00,21.90,80.83,330.00,8.00,0.00,29.73,1008.50,10.00,M,OVC,M,M,M,8000.00,M,M,M,M,M,M,M,M,M,M,17.95,KHON 121255Z AUTO 33008KT 10SM OVC080 M03/M06 A2973 RMK AO2 SLP085 T10281056
SPF,2020-02-12 12:55,-103.7830,44.4803,1186.17,26.60,24.80,92.80,330.00,15.00,0.00,29.89,M,9.00,21.00,OVC,M,M,M,1000.00,M,M,M,-SN,M,M,M,M,M,M,13.78,KSPF 121255Z AUTO 33015G21KT 9SM -SN OVC010 M03/M04 A2989 RMK AO2
2WX,2020-02-12 12:56,-103.5464,45.6044,919.07,24.10,18.00,77.21,360.00,20.00,0.00,29.91,1016.20,M,M,M,M,M,M,M,M,M,M,M,M,M,M,35.00,340.00,2020-02-12 12:18,8.65,K2WX 121256Z AUTO 36020KT M04/M08 A2991 RMK AO1 PK WND 34035/1218 PRESRR SLP162 T10441078
8D3,2020-02-12 12:56,-96.9914,45.6689,351.81,10.00,6.10,83.87,340.00,27.00,0.00,29.84,1013.50,M,33.00,M,M,M,M,M,M,M,M,M,M,M,M,36.00,340.00,2020-02-12 12:38,-12.64,K8D3 121256Z AUTO 34027G33KT M12/M14 A2984 RMK AO1 PK WND 34036/1238 SLP135 T11221144
D07,2020-02-12 12:56,-102.0200,45.0300,778.50,25.00,21.90,87.81,10.00,27.00,0.01,29.81,1013.00,M,39.00,M,M,M,M,M,M,M,M,M,M,M,M,39.00,360.00,2020-02-12 12:47,7.80,KD07 121256Z AUTO 01027G39KT M04/M06 A2981 RMK AO1 PK WND 36039/1247 WSHFT 1143 PRESRR SLP130 P0001 T10391056
FSD,2020-02-12 12:56,-96.7536,43.5769,428.94,32.00,24.10,72.30,210.00,7.00,0.00,29.71,1007.80,10.00,M,FEW,BKN,OVC,M,8000.00,10000.00,12000.00,M,M,M,M,M,M,M,M,24.78,KFSD 121256Z 21007KT 10SM FEW080 BKN100 OVC120 00/M04 A2971 RMK AO2 SLP078 T00001044
BKX,2020-02-12 12:56,-96.8169,44.3048,490.28,28.90,26.10,89.12,300.00,5.00,0.00,29.70,1009.30,10.00,M,OVC,M,M,M,6500.00,M,M,M,M,M,M,M,M,M,M,22.71,KBKX 121256Z AUTO 30005KT 10SM OVC065 M02/M03 A2970 RMK AO2 SLP093 T10171033 FZRANO
RCA,2020-02-12 12:56,-103.1036,44.1451,977.43,30.60,25.30,80.44,330.00,22.00,T,29.82,1012.90,7.00,33.00,BKN,BKN,OVC,M,1500.00,2100.00,2900.00,M,-SN,M,M,M,39.00,360.00,2020-02-12 12:41,16.70,KRCA 121256Z 33022G33KT 7SM -SN BKN015 BKN021 OVC029 M01/M04 A2982 RMK AO2A PK WND 36039/41 SLP129 P0000 T10081037 $
YKN,2020-02-12 12:56,-97.3859,42.9167,389.54,32.00,24.10,72.30,230.00,5.00,0.00,29.74,1009.60,10.00,M,SCT,OVC,M,M,8000.00,9500.00,M,M,M,M,M,M,M,M,M,26.40,KYKN 121256Z AUTO 23005KT 10SM SCT080 OVC095 00/M04 A2974 RMK AO2 SLP096 T00001044 FZRANO
PHP,2020-02-12 13:00,-101.6000,44.0500,671.74,33.10,30.00,88.23,300.00,13.00,T,29.76,M,2.50,M,FEW,SCT,OVC,M,800.00,1400.00,2100.00,M,-SN BR,M,M,M,M,M,M,22.98,KPHP 121300Z AUTO 30013KT 2 1/2SM -SN BR FEW008 SCT014 OVC021 01/M01 A2976 RMK AO2 P0000 T00061011
ATY,2020-02-12 13:01,-97.1547,44.9140,525.88,27.00,21.90,80.83,350.00,9.00,0.00,29.71,M,10.00,M,BKN,OVC,M,M,1200.00,2000.00,M,M,M,M,M,M,M,M,M,17.30,KATY 121301Z AUTO 35009KT 10SM BKN012 OVC020 M03/M06 A2971 RMK AO2 T10281056
RAP,2020-02-12 13:03,-103.0574,44.0453,964.71,30.00,25.00,81.40,340.00,28.00,T,29.83,M,4.00,38.00,SCT,BKN,OVC,M,1500.00,3000.00,3900.00,M,-SN,M,M,M,40.00,340.00,2020-02-12 12:53,14.39,KRAP 121303Z 34028G38KT 4SM -SN SCT015 BKN030 OVC039 M01/M04 A2983 RMK AO2 PK WND 34040/1253 P0000 T10111039
RCA,2020-02-12 13:11,-103.1036,44.1451,977.43,30.20,24.80,80.07,330.00,27.00,0.00,29.83,1013.30,4.00,30.00,BKN,OVC,M,M,1400.00,2200.00,M,M,-SN,M,M,M,M,M,M,14.89,KRCA 121311Z 33027G30KT 4SM -SN BKN014 OVC022 M01/M04 A2983 RMK AO2A CIG 013 RWY13 SLP133 $
RAP,2020-02-12 13:14,-103.0574,44.0453,964.71,30.00,25.00,81.40,340.00,24.00,T,29.83,M,6.00,35.00,BKN,BKN,OVC,M,1700.00,3000.00,4000.00,M,-SN,M,M,M,40.00,340.00,2020-02-12 12:53,15.36,KRAP 121314Z 34024G35KT 6SM -SN BKN017 BKN030 OVC040 M01/M04 A2983 RMK AO2 PK WND 34040/1253 P0000 T10111039
MDS,2020-02-12 13:15,-97.0859,44.0160,520.80,30.20,30.20,100.00,260.00,9.00,0.00,29.70,M,10.00,M,OVC,M,M,M,6500.00,M,M,M,M,M,M,M,M,M,M,21.28,KMDS 121315Z AUTO 26009KT 10SM OVC065 M01/M01 A2970 RMK AO2
9V9,2020-02-12 13:15,-99.3183,43.7667,509.76,33.80,27.30,76.81,310.00,6.00,0.00,29.73,M,10.00,M,SCT,OVC,M,M,5000.00,7000.00,M,M,M,M,M,M,M,M,M,27.70,K9V9 121315Z AUTO 31006KT 10SM SCT050 OVC070 01/M03 A2973 RMK AO2 T00101026
SPF,2020-02-12 13:15,-103.7830,44.4803,1186.17,26.60,23.00,86.07,340.00,17.00,0.00,29.91,M,10.00,22.00,BKN,OVC,M,M,1200.00,2000.00,M,M,M,M,M,M,M,M,M,13.00,KSPF 121315Z AUTO 34017G22KT 10SM BKN012 OVC020 M03/M05 A2991 RMK AO2
PHP,2020-02-12 13:18,-101.6000,44.0500,671.74,33.10,30.90,91.51,310.00,15.00,0.01,29.77,M,2.00,24.00,FEW,OVC,M,M,800.00,1300.00,M,M,-SN BR,M,M,M,M,M,M,22.21,KPHP 121318Z AUTO 31015G24KT 2SM -SN BR FEW008 OVC013 01/M01 A2977 RMK AO2 P0001 T00061006
PIR,2020-02-12 13:27,-100.2860,44.3827,522.03,30.90,28.90,92.18,340.00,12.00,T,29.75,M,4.00,M,BKN,BKN,OVC,M,900.00,1500.00,3100.00,M,-SN BR,M,M,M,M,M,M,20.60,KPIR 121327Z AUTO 34012KT 4SM -SN BR BKN009 BKN015 OVC031 M01/M02 A2975 RMK AO2 UPB18E21SNB07E18B21 P0000 T10061017
ABR,2020-02-12 13:30,-98.4200,45.4500,395.00,12.00,8.10,84.01,10.00,21.00,0.02,29.89,M,0.50,37.00,VV ,M,M,M,1000.00,M,M,M,SN FZFG,M,M,M,37.00,20.00,2020-02-12 13:21,-7.82,KABR 121330Z AUTO 01021G37KT 1/2SM SN FZFG VV010 M11/M13 A2989 RMK AO2 PK WND 02037/1321 SNEMMB11 P0002 T11111133
PHP,2020-02-12 13:31,-101.6000,44.0500,671.74,33.10,30.90,91.51,320.00,17.00,0.02,29.78,M,3.00,24.00,FEW,OVC,M,M,900.00,1500.00,M,M,-SN BR,M,M,M,M,M,M,21.52,KPHP 121331Z AUTO 32017G24KT 3SM -SN BR FEW009 OVC015 01/M01 A2978 RMK AO2 P0002 T00061006
PIR,2020-02-12 13:34,-100.2860,44.3827,522.03,30.90,28.90,92.18,350.00,15.00,T,29.76,M,3.00,M,SCT,OVC,M,M,1100.00,1600.00,M,M,-SN BR,M,M,M,M,M,M,19.35,KPIR 121334Z AUTO 35015KT 3SM -SN BR SCT011 OVC016 M01/M02 A2976 RMK AO2 UPB18E21SNB07E18B21 P0000 T10061017
MDS,2020-02-12 13:35,-97.0859,44.0160,520.80,28.40,28.40,100.00,260.00,6.00,0.00,29.71,M,10.00,M,OVC,M,M,M,6500.00,M,M,M,M,M,M,M,M,M,M,21.19,KMDS 121335Z AUTO 26006KT 10SM OVC065 M02/M02 A2971 RMK AO2
9V9,2020-02-12 13:35,-99.3183,43.7667,509.76,34.30,27.70,76.54,310.00,7.00,0.00,29.74,M,10.00,M,SCT,OVC,M,M,5000.00,7000.00,M,M,M,M,M,M,M,M,M,27.58,K9V9 121335Z AUTO 31007KT 10SM SCT050 OVC070 01/M02 A2974 RMK AO2 T00131024
SPF,2020-02-12 13:35,-103.7830,44.4803,1186.17,26.60,23.00,86.07,340.00,10.00,0.00,29.92,M,10.00,21.00,BKN,OVC,M,M,1300.00,1900.00,M,M,M,M,M,M,M,M,M,16.20,KSPF 121335Z AUTO 34010G21KT 10SM BKN013 OVC019 M03/M05 A2992 RMK AO2
PHP,2020-02-12 13:39,-101.6000,44.0500,671.74,33.10,30.90,91.51,330.00,17.00,0.02,29.79,M,2.50,25.00,FEW,OVC,M,M,900.00,1500.00,M,M,-SN BR,M,M,M,M,M,M,21.52,KPHP 121339Z AUTO 33017G25KT 2 1/2SM -SN BR FEW009 OVC015 01/M01 A2979 RMK AO2 P0002 T00061006
PIR,2020-02-12 13:42,-100.2860,44.3827,522.03,30.90,28.90,92.18,360.00,16.00,T,29.76,M,2.00,M,SCT,OVC,M,M,1100.00,1600.00,M,M,-SN BR,M,M,M,M,M,M,18.98,KPIR 121342Z AUTO 36016KT 2SM -SN BR SCT011 OVC016 M01/M02 A2976 RMK AO2 UPB18E21SNB07E18B21 P0000 T10061017
IEN,2020-02-12 13:43,-102.5110,43.0225,1008.84,30.90,25.00,78.48,320.00,6.00,T,29.84,M,1.75,16.00,SCT,BKN,OVC,M,1700.00,3400.00,4300.00,M,-SN,M,M,M,M,M,M,24.21,KIEN 121343Z AUTO 32006G16KT 1 3/4SM -SN SCT017 BKN034 OVC043 M01/M04 A2984 RMK AO2 SNB33 P0000 T10061039
HON,2020-02-12 13:46,-98.2286,44.3852,384.37,28.90,24.10,82.00,350.00,13.00,T,29.77,M,7.00,M,SCT,BKN,OVC,M,1500.00,2000.00,3800.00,M,-SN,M,M,M,M,M,M,17.60,KHON 121346Z AUTO 35013KT 7SM -SN SCT015 BKN020 OVC038 M02/M04 A2977 RMK AO2 SNB45 PRESRR P0000 T10171044
ATY,2020-02-12 13:48,-97.1547,44.9140,525.88,17.60,15.80,92.50,360.00,20.00,T,29.76,M,3.00,M,OVC,M,M,M,900.00,M,M,M,BR,M,M,M,27.00,20.00,2020-02-12 13:27,0.01,KATY 121348Z AUTO 36020KT 3SM BR OVC009 M08/M09 A2976 RMK AO2 PK WND 02027/1327 SNB18E41 PRESRR P0000
IEN,2020-02-12 13:50,-102.5110,43.0225,1008.84,30.20,26.60,86.28,320.00,6.00,T,29.84,M,1.75,M,BKN,BKN,OVC,M,1900.00,3000.00,3700.00,M,-SN BR,M,M,M,M,M,M,23.36,KIEN 121350Z AUTO 32006KT 1 3/4SM -SN BR BKN019 BKN030 OVC037 M01/M03 A2984 RMK AO2 SNB33 P0000
RAP,2020-02-12 13:52,-103.0574,44.0453,964.71,28.00,23.00,81.25,340.00,27.00,T,29.88,1014.70,9.00,35.00,OVC,M,M,M,1300.00,M,M,M,-SN,M,M,M,40.00,340.00,2020-02-12 12:53,11.89,KRAP 121352Z 34027G35KT 9SM -SN OVC013 M02/M05 A2988 RMK AO2 PK WND 34040/1253 PRESRR SLP147 P0000 T10221050
IEN,2020-02-12 13:52,-102.5110,43.0225,1008.84,30.00,26.10,85.21,340.00,7.00,T,29.84,1013.40,1.75,M,BKN,BKN,OVC,M,1900.00,3000.00,3500.00,M,-SN BR,M,M,M,M,M,M,22.34,KIEN 121352Z AUTO 34007KT 1 3/4SM -SN BR BKN019 BKN030 OVC035 M01/M03 A2984 RMK AO2 SNB33 SLP134 P0000 T10111033
MBG,2020-02-12 13:52,-100.4078,45.5464,515.17,9.00,3.00,76.08,10.00,23.00,0.02,29.94,1016.90,0.50,37.00,VV ,M,M,M,1200.00,M,M,M,HZ,M,M,M,41.00,20.00,2020-02-12 12:55,-12.60,KMBG 121352Z AUTO 01023G37KT 1/2SM HZ VV012 M13/M16 A2994 RMK AO2 PK WND 02041/1255 PRESRR SLP169 P0002 T11281161 PWINO FZRANO
CUT,2020-02-12 13:53,-103.6114,43.7331,1686.81,24.10,16.00,70.81,350.00,9.00,T,29.74,1011.30,9.00,25.00,SCT,M,M,M,1700.00,M,M,M,-SN,M,M,M,37.00,350.00,2020-02-12 13:28,13.69,KCUT 121353Z AUTO 35009G25KT 9SM -SN SCT017 M04/M09 A2974 RMK AO2 PK WND 35037/1328 SNB50 SLP113 P0000 T10441089
ICR,2020-02-12 13:53,-99.8422,43.3903,611.93,34.00,24.10,66.72,280.00,7.00,0.00,29.74,1008.60,10.00,M,BKN,M,M,M,6500.00,M,M,M,M,M,M,M,M,M,M,27.22,KICR 121353Z AUTO 28007KT 10SM BKN065 01/M04 A2974 RMK AO2 SLP086 T00111044
MHE,2020-02-12 13:53,-98.0386,43.7748,395.73,27.00,21.00,77.80,320.00,8.00,0.00,29.74,1008.60,10.00,M,CLR,M,M,M,M,M,M,M,M,M,M,M,M,M,M,17.95,KMHE 121353Z AUTO 32008KT 10SM CLR M03/M06 A2974 RMK AO2 SLP086 T10281061
ABR,2020-02-12 13:53,-98.4200,45.4500,395.00,10.90,6.10,80.57,10.00,25.00,0.02,29.92,1015.30,0.50,34.00,VV ,M,M,M,1100.00,M,M,M,HZ,M,M,M,37.00,10.00,2020-02-12 13:37,-10.75,KABR 121353Z AUTO 01025G34KT 1/2SM HZ VV011 M12/M14 A2992 RMK AO2 PK WND 01037/1337 SNEMMB11SNEMM PRESRR SLP153 P0002 T11171144 PWINO FZRANO $
PIR,2020-02-12 13:53,-100.2860,44.3827,522.03,30.90,28.90,92.18,360.00,19.00,T,29.78,1010.20,1.25,27.00,FEW,OVC,M,M,1000.00,1300.00,M,M,-SN BR,M,M,M,27.00,10.00,2020-02-12 13:51,17.98,KPIR 121353Z AUTO 36019G27KT 1 1/4SM -SN BR FEW010 OVC013 M01/M02 A2978 RMK AO2 PK WND 01027/1351 UPB18E21SNB07E18B21 PRESRR SLP102 P0000 T10061017
ATY,2020-02-12 13:53,-97.1547,44.9140,525.88,17.10,14.00,87.38,20.00,19.00,T,29.77,1010.70,1.75,M,OVC,M,M,M,900.00,M,M,M,BR,M,M,M,27.00,20.00,2020-02-12 13:27,-0.27,KATY 121353Z AUTO 02019KT 1 3/4SM BR OVC009 M08/M10 A2977 RMK AO2 PK WND 02027/1327 SNB18E41 PRESRR SLP107 P0000 T10831100
MDS,2020-02-12 13:55,-97.0859,44.0160,520.80,28.40,28.40,100.00,240.00,5.00,0.00,29.72,M,10.00,M,BKN,M,M,M,5500.00,M,M,M,M,M,M,M,M,M,M,22.12,KMDS 121355Z AUTO 24005KT 10SM BKN055 M02/M02 A2972 RMK AO2
PHP,2020-02-12 13:55,-101.6000,44.0500,671.74,32.00,28.90,88.17,360.00,26.00,0.02,29.82,1011.20,1.50,41.00,FEW,SCT,OVC,M,900.00,1400.00,1900.00,M,-SN BR,M,M,M,41.00,360.00,2020-02-12 13:54,17.58,KPHP 121355Z AUTO 36026G41KT 1 1/2SM -SN BR FEW009 SCT014 OVC019 00/M02 A2982 RMK AO2 PK WND 36041/1354 PRESRR SLP112 P0002 T00001017
9V9,2020-02-12 13:55,-99.3183,43.7667,509.76,35.10,28.00,75.06,330.00,9.00,0.00,29.75,M,10.00,M,BKN,OVC,M,M,3700.00,7000.00,M,M,M,M,M,M,M,M,M,27.37,K9V9 121355Z AUTO 33009KT 10SM BKN037 OVC070 02/M02 A2975 RMK AO2 T00171022
HON,2020-02-12 13:55,-98.2286,44.3852,384.37,28.00,24.10,85.08,360.00,13.00,T,29.78,1010.10,5.00,M,SCT,BKN,OVC,M,1000.00,1300.00,2300.00,M,-SN BR,M,M,M,M,M,M,16.44,KHON 121355Z AUTO 36013KT 5SM -SN BR SCT010 BKN013 OVC023 M02/M04 A2978 RMK AO2 SNB45 SLP101 P0000 T10221044
SPF,2020-02-12 13:55,-103.7830,44.4803,1186.17,26.60,23.00,86.07,350.00,11.00,0.00,29.93,M,10.00,16.00,OVC,M,M,M,1100.00,M,M,M,M,M,M,M,M,M,M,15.64,KSPF 121355Z AUTO 35011G16KT 10SM OVC011 M03/M05 A2993 RMK AO2
2WX,2020-02-12 13:56,-103.5464,45.6044,919.07,15.10,9.00,76.34,40.00,24.00,0.00,29.98,1019.40,M,M,M,M,M,M,M,M,M,M,M,M,M,M,35.00,20.00,2020-02-12 13:06,-4.74,K2WX 121356Z AUTO 04024KT M09/M13 A2998 RMK AO1 PK WND 02035/1306 PRESRR SLP194 T10941128
8D3,2020-02-12 13:56,-96.9914,45.6689,351.81,6.10,3.00,86.74,340.00,23.00,0.00,29.88,1015.10,M,32.00,M,M,M,M,M,M,M,M,M,M,M,M,38.00,350.00,2020-02-12 13:40,-16.50,K8D3 121356Z AUTO 34023G32KT M14/M16 A2988 RMK AO1 PK WND 35038/1340 SLP151 T11441161
D07,2020-02-12 13:56,-102.0200,45.0300,778.50,12.00,8.10,84.01,20.00,28.00,0.00,29.94,1018.20,M,39.00,M,M,M,M,M,M,M,M,M,M,M,M,41.00,20.00,2020-02-12 13:29,-10.22,KD07 121356Z AUTO 02028G39KT M11/M13 A2994 RMK AO1 PK WND 02041/1329 PRESRR SLP182 T11111133
FSD,2020-02-12 13:56,-96.7536,43.5769,428.94,30.90,24.10,75.59,220.00,4.00,0.00,29.72,1008.10,10.00,M,BKN,M,M,M,7500.00,M,M,M,M,M,M,M,M,M,M,26.14,KFSD 121356Z 22004KT 10SM BKN075 M01/M04 A2972 RMK AO2 SLP081 T10061044
BKX,2020-02-12 13:56,-96.8169,44.3048,490.28,28.90,25.00,85.14,350.00,7.00,0.00,29.73,1010.30,10.00,M,OVC,M,M,M,7000.00,M,M,M,M,M,M,M,M,M,M,21.00,KBKX 121356Z AUTO 35007KT 10SM OVC070 M02/M04 A2973 RMK AO2 SLP103 T10171039 FZRANO
RCA,2020-02-12 13:56,-103.1036,44.1451,977.43,28.20,23.70,82.98,330.00,24.00,T,29.87,1015.00,6.00,35.00,OVC,M,M,M,1000.00,M,M,M,-SN,M,M,M,36.00,350.00,2020-02-12 13:23,12.93,KRCA 121356Z 33024G35KT 6SM -SN OVC010 M02/M05 A2987 RMK AO2A PK WND 35036/23 SLP150 P0000 T10211046 $
YKN,2020-02-12 13:56,-97.3859,42.9167,389.54,30.90,24.10,75.59,0.00,0.00,0.00,29.74,1009.60,10.00,M,SCT,M,M,M,7500.00,M,M,M,M,M,M,M,M,M,M,M,KYKN 121356Z AUTO 00000KT 10SM SCT075 M01/M04 A2974 RMK AO2 SLP096 T10061044 FZRANO
IEN,2020-02-12 13:59,-102.5110,43.0225,1008.84,32.00,25.00,75.07,M,M,T,29.85,M,3.00,M,BKN,OVC,M,M,2100.00,2600.00,M,M,-SN,M,M,M,31.00,330.00,2020-02-12 13:59,M,KIEN 121359Z AUTO 3SM -SN BKN021 OVC026 00/M04 A2985 RMK AO2 PK WND 33031/1359 P0000 T00001039
MBG,2020-02-12 14:00,-100.4078,45.5464,515.17,9.00,3.00,76.08,360.00,22.00,0.00,29.96,M,1.00,34.00,VV ,M,M,M,1500.00,M,M,M,HZ,M,M,M,32.00,360.00,2020-02-12 13:53,-12.22,KMBG 121400Z AUTO 36022G34KT 1SM HZ VV015 M13/M16 A2996 RMK AO2 PK WND 36032/1353 PRESRR T11281161 PWINO FZRANO
PIR,2020-02-12 14:01,-100.2860,44.3827,522.03,30.90,28.90,92.18,10.00,21.00,T,29.80,M,0.50,M,VV ,M,M,M,1100.00,M,M,M,SN FZFG,M,M,M,28.00,10.00,2020-02-12 13:59,17.39,KPIR 121401Z AUTO 01021KT 1/2SM SN FZFG VV011 M01/M02 A2980 RMK AO2 PK WND 01028/1359 PRESRR P0000 T10061017
MBG,2020-02-12 14:05,-100.4078,45.5464,515.17,9.00,3.00,76.08,10.00,24.00,0.00,29.97,M,0.75,33.00,VV ,M,M,M,1400.00,M,M,M,HZ,M,M,M,33.00,10.00,2020-02-12 14:05,-12.97,KMBG 121405Z AUTO 01024G33KT 3/4SM HZ VV014 M13/M16 A2997 RMK AO2 PK WND 01033/1405 PRESRR T11281161 PWINO FZRANO
ABR,2020-02-12 14:06,-98.4200,45.4500,395.00,10.00,6.10,83.87,10.00,29.00,T,29.93,M,0.50,39.00,VV ,M,M,M,900.00,M,M,M,SN FZFG,M,M,M,39.00,10.00,2020-02-12 14:05,-13.27,KABR 121406Z AUTO 01029G39KT 1/2SM SN FZFG VV009 M12/M14 A2993 RMK AO2 PK WND 01039/1405 SNB02 P0000 T11221144 $
HON,2020-02-12 14:07,-98.2286,44.3852,384.37,28.00,25.00,88.33,360.00,21.00,T,29.80,M,1.50,31.00,FEW,OVC,M,M,700.00,1300.00,M,M,-SN BR,M,M,M,31.00,350.00,2020-02-12 14:07,13.52,KHON 121407Z AUTO 36021G31KT 1 1/2SM -SN BR FEW007 OVC013 M02/M04 A2980 RMK AO2 PK WND 35031/1407 PRESRR P0000 T10221039
PIR,2020-02-12 14:07,-100.2860,44.3827,522.03,28.00,26.10,92.46,20.00,32.00,T,29.81,M,0.25,44.00,FEW,OVC,M,M,600.00,1200.00,M,M,SN FZFG,M,M,M,44.00,10.00,2020-02-12 14:04,10.76,KPIR 121407Z AUTO 02032G44KT 1/4SM SN FZFG FEW006 OVC012 M02/M03 A2981 RMK AO2 PK WND 01044/1404 PRESRR P0000 T10221033
ATY,2020-02-12 14:09,-97.1547,44.9140,525.88,14.00,10.90,87.20,10.00,17.00,T,29.79,M,1.25,M,BKN,OVC,M,M,1100.00,1800.00,M,M,-SN BR,M,M,M,M,M,M,-3.51,KATY 121409Z AUTO 01017KT 1 1/4SM -SN BR BKN011 OVC018 M10/M12 A2979 RMK AO2 SNB04 P0000 T11001117
MDS,2020-02-12 14:15,-97.0859,44.0160,520.80,28.40,28.40,100.00,300.00,4.00,0.00,29.72,M,10.00,M,BKN,BKN,M,M,5000.00,8000.00,M,M,M,M,M,M,M,M,M,23.22,KMDS 121415Z AUTO 30004KT 10SM BKN050 BKN080 M02/M02 A2972 RMK AO2
9V9,2020-02-12 14:15,-99.3183,43.7667,509.76,34.30,29.50,82.40,320.00,5.00,0.00,29.76,M,10.00,M,OVC,M,M,M,3500.00,M,M,M,M,M,M,M,M,M,M,29.13,K9V9 121415Z AUTO 32005KT 10SM OVC035 01/M01 A2976 RMK AO2 T00131014
ABR,2020-02-12 14:15,-98.4200,45.4500,395.00,9.00,5.00,83.41,360.00,27.00,T,29.95,M,0.25,39.00,VV ,M,M,M,800.00,M,M,M,FZFG,M,M,M,39.00,10.00,2020-02-12 14:05,-14.00,KABR 121415Z AUTO 36027G39KT 1/4SM FZFG VV008 M13/M15 A2995 RMK AO2 PK WND 01039/1405 SNB02SNEMM PRESRR P0000 T11281150 PWINO FZRANO
SPF,2020-02-12 14:15,-103.7830,44.4803,1186.17,26.60,23.00,86.07,350.00,11.00,0.00,29.94,M,10.00,21.00,BKN,OVC,M,M,1000.00,1400.00,M,M,-UP,M,M,M,M,M,M,15.64,KSPF 121415Z AUTO 35011G21KT 10SM -UP BKN010 OVC014 M03/M05 A2994 RMK AO2
HON,2020-02-12 14:16,-98.2286,44.3852,384.37,21.90,19.00,88.40,360.00,22.00,T,29.81,M,0.50,32.00,OVC,M,M,M,1100.00,M,M,M,-SN FZFG,M,M,M,32.00,350.00,2020-02-12 14:08,5.05,KHON 121416Z AUTO 36022G32KT 1/2SM -SN FZFG OVC011 M06/M07 A2981 RMK AO2 PK WND 35032/1408 CIG 006V014 PRESRR P0000 T10561072
ATY,2020-02-12 14:17,-97.1547,44.9140,525.88,14.00,10.90,87.20,360.00,16.00,T,29.80,M,0.75,M,FEW,BKN,OVC,M,600.00,1200.00,2500.00,M,-SN BR,M,M,M,M,M,M,-3.04,KATY 121417Z AUTO 36016KT 3/4SM -SN BR FEW006 BKN012 OVC025 M10/M12 A2980 RMK AO2 SNB04 PRESRR P0000 T11001117
MBG,2020-02-12 14:19,-100.4078,45.5464,515.17,8.10,1.90,75.29,10.00,22.00,0.00,29.99,M,0.75,31.00,OVC,M,M,M,2100.00,M,M,M,HZ,M,M,M,36.00,10.00,2020-02-12 14:07,-13.42,KMBG 121419Z AUTO 01022G31KT 3/4SM HZ OVC021 M13/M17 A2999 RMK AO2 PK WND 01036/1407 T11331167 PWINO FZRANO
PIR,2020-02-12 14:23,-100.2860,44.3827,522.03,19.90,18.00,92.19,10.00,34.00,0.01,29.86,M,0.25,46.00,VV ,M,M,M,800.00,M,M,M,FZFG,M,M,M,46.00,10.00,2020-02-12 14:20,-0.92,KPIR 121423Z AUTO 01034G46KT 1/4SM FZFG VV008 M07/M08 A2986 RMK AO2 PK WND 01046/1420 SNEMM PRESRR P0001 T10671078 PWINO FZRANO
MBG,2020-02-12 14:26,-100.4078,45.5464,515.17,8.10,1.90,75.29,10.00,20.00,0.00,30.00,M,1.00,30.00,FEW,OVC,M,M,1100.00,1900.00,M,M,HZ,M,M,M,36.00,10.00,2020-02-12 14:07,-12.60,KMBG 121426Z AUTO 01020G30KT 1SM HZ FEW011 OVC019 M13/M17 A3000 RMK AO2 PK WND 01036/1407 T11331167 PWINO FZRANO
HON,2020-02-12 14:26,-98.2286,44.3852,384.37,19.00,16.00,87.87,10.00,25.00,T,29.82,M,0.25,35.00,BKN,OVC,M,M,1100.00,2300.00,M,M,+SN FZFG,M,M,M,35.00,10.00,2020-02-12 14:17,0.21,KHON 121426Z AUTO 01025G35KT 1/4SM +SN FZFG BKN011 OVC023 M07/M09 A2982 RMK AO2 PK WND 01035/1417 PRESRR P0000 T10721089
PHP,2020-02-12 14:30,-101.6000,44.0500,671.74,25.00,21.90,87.81,10.00,26.00,T,29.89,M,0.50,40.00,FEW,FEW,OVC,M,500.00,900.00,1700.00,M,SN FZFG,M,M,M,41.00,10.00,2020-02-12 13:56,8.07,KPHP 121430Z AUTO 01026G40KT 1/2SM SN FZFG FEW005 FEW009 OVC017 M04/M06 A2989 RMK AO2 PK WND 01041/1356 PRESRR P0000 T10391056
CUT,2020-02-12 14:32,-103.6114,43.7331,1686.81,23.00,15.10,71.30,350.00,8.00,T,29.78,M,10.00,22.00,BKN,M,M,M,2200.00,M,M,M,M,M,M,M,M,M,M,13.03,KCUT 121432Z AUTO 35008G22KT 10SM BKN022 M05/M09 A2978 RMK AO2 SNE1359 P0000 T10501094
MDS,2020-02-12 14:35,-97.0859,44.0160,520.80,26.60,26.60,100.00,340.00,7.00,0.00,29.73,M,10.00,M,FEW,SCT,M,M,5000.00,8000.00,M,M,M,M,M,M,M,M,M,18.20,KMDS 121435Z AUTO 34007KT 10SM FEW050 SCT080 M03/M03 A2973 RMK AO2
RAP,2020-02-12 14:35,-103.0574,44.0453,964.71,27.00,21.90,80.83,350.00,25.00,T,29.92,M,8.00,37.00,BKN,OVC,M,M,1500.00,2000.00,M,M,M,M,M,M,42.00,340.00,2020-02-12 14:05,11.04,KRAP 121435Z 35025G37KT 8SM BKN015 OVC020 M03/M06 A2992 RMK AO2 PK WND 34042/1405 UPB01E02SNE01 P0000 T10281056
9V9,2020-02-12 14:35,-99.3183,43.7667,509.76,34.90,28.80,78.18,360.00,11.00,0.00,29.78,M,10.00,16.00,SCT,OVC,M,M,1900.00,3500.00,M,M,M,M,M,M,M,M,M,26.13,K9V9 121435Z AUTO 36011G16KT 10SM SCT019 OVC035 02/M02 A2978 RMK AO2 T00161018
SPF,2020-02-12 14:35,-103.7830,44.4803,1186.17,24.80,21.20,85.96,340.00,16.00,0.00,29.96,M,5.00,M,OVC,M,M,M,900.00,M,M,M,-SN,M,M,M,M,M,M,11.03,KSPF 121435Z AUTO 34016KT 5SM -SN OVC009 M04/M06 A2996 RMK AO2
ICR,2020-02-12 14:36,-99.8422,43.3903,611.93,36.00,25.00,63.98,290.00,12.00,0.00,29.76,M,10.00,M,BKN,OVC,M,M,2700.00,5500.00,M,M,M,M,M,M,M,M,M,27.09,KICR 121436Z AUTO 29012KT 10SM BKN027 OVC055 02/M04 A2976 RMK AO2 T00221039
MBG,2020-02-12 14:36,-100.4078,45.5464,515.17,7.00,0.00,72.41,10.00,26.00,0.00,30.00,M,0.75,38.00,FEW,BKN,OVC,M,1100.00,2100.00,6000.00,M,HZ,M,M,M,38.00,10.00,2020-02-12 14:34,-16.39,KMBG 121436Z AUTO 01026G38KT 3/4SM HZ FEW011 BKN021 OVC060 M14/M18 A3000 RMK AO2 PK WND 01038/1434 T11391178 PWINO FZRANO
HON,2020-02-12 14:37,-98.2286,44.3852,384.37,17.10,15.10,91.68,10.00,24.00,T,29.83,M,0.25,35.00,BKN,OVC,M,M,900.00,1600.00,M,M,-SN FZFG,M,M,M,35.00,350.00,2020-02-12 14:30,-2.04,KHON 121437Z AUTO 01024G35KT 1/4SM -SN FZFG BKN009 OVC016 M08/M09 A2983 RMK AO2 PK WND 35035/1430 P0000 T10831094
RCA,2020-02-12 14:41,-103.1036,44.1451,977.43,26.60,23.00,86.07,10.00,19.00,0.00,29.93,1017.00,10.00,28.00,BKN,OVC,M,M,900.00,1500.00,M,M,-SN,M,M,M,M,M,M,12.30,KRCA 121441Z 01019G28KT 10SM -SN BKN009 OVC015 M03/M05 A2993 RMK AO2A SNE1359UPB1359E05SNB05E14UPB14 CIG 009V013 PRESRR SLP170 $
RAP,2020-02-12 14:43,-103.0574,44.0453,964.71,27.00,21.90,80.83,10.00,23.00,T,29.92,M,10.00,33.00,BKN,OVC,M,M,1300.00,1900.00,M,M,M,M,M,M,42.00,340.00,2020-02-12 14:05,11.59,KRAP 121443Z 01023G33KT 10SM BKN013 OVC019 M03/M06 A2992 RMK AO2 PK WND 34042/1405 UPB01E02SNE01 P0000 T10281056
PHP,2020-02-12 14:44,-101.6000,44.0500,671.74,19.90,15.10,81.30,10.00,28.00,T,29.92,M,1.25,45.00,FEW,FEW,OVC,M,500.00,1000.00,2500.00,M,-SN,M,M,M,45.00,10.00,2020-02-12 14:41,0.58,KPHP 121444Z AUTO 01028G45KT 1 1/4SM -SN FEW005 FEW010 OVC025 M07/M09 A2992 RMK AO2 PK WND 01045/1441 PRESRR P0000 T10671094
HON,2020-02-12 14:44,-98.2286,44.3852,384.37,16.00,12.90,87.32,10.00,29.00,T,29.84,M,0.25,38.00,VV ,M,M,M,1300.00,M,M,M,-SN FZFG,M,M,M,38.00,360.00,2020-02-12 14:44,-5.04,KHON 121444Z AUTO 01029G38KT 1/4SM -SN FZFG VV013 M09/M11 A2984 RMK AO2 PK WND 36038/1444 P0000 T10891106
MBG,2020-02-12 14:47,-100.4078,45.5464,515.17,6.80,-0.40,71.71,10.00,19.00,0.00,30.02,M,1.75,31.00,BKN,BKN,OVC,M,3200.00,4600.00,6000.00,M,HZ,M,M,M,38.00,10.00,2020-02-12 14:34,-13.89,KMBG 121447Z AUTO 01019G31KT 1 3/4SM HZ BKN032 BKN046 OVC060 M14/M18 A3002 RMK AO2 PK WND 01038/1434 PWINO FZRANO
MBG,2020-02-12 14:49,-100.4078,45.5464,515.17,6.80,-0.40,71.71,10.00,20.00,0.00,30.02,M,2.00,31.00,BKN,BKN,OVC,M,2700.00,4600.00,6000.00,M,HZ,M,M,M,38.00,10.00,2020-02-12 14:34,-14.33,KMBG 121449Z AUTO 01020G31KT 2SM HZ BKN027 BKN046 OVC060 M14/M18 A3002 RMK AO2 PK WND 01038/1434 PRESRR PWINO FZRANO
RAP,2020-02-12 14:52,-103.0574,44.0453,964.71,24.10,19.90,83.75,10.00,24.00,T,29.93,1017.00,9.00,34.00,BKN,OVC,M,M,1000.00,1600.00,M,M,M,M,M,M,42.00,340.00,2020-02-12 14:05,7.40,KRAP 121452Z 01024G34KT 9SM BKN010 OVC016 M04/M07 A2993 RMK AO2 PK WND 34042/1405 UPB01E02SNE01 CIG 008V013 SLP170 P0000 60000 T10441067 53055
IEN,2020-02-12 14:52,-102.5110,43.0225,1008.84,30.90,24.10,75.59,350.00,20.00,T,29.89,1014.90,10.00,33.00,BKN,OVC,M,M,2100.00,2700.00,M,M,M,M,M,M,33.00,350.00,2020-02-12 14:52,17.68,KIEN 121452Z AUTO 35020G33KT 10SM BKN021 OVC027 M01/M04 A2989 RMK AO2 PK WND 35033/1452 SNE09 SLP149 P0000 60000 T10061044 51029
MBG,2020-02-12 14:52,-100.4078,45.5464,515.17,7.00,0.00,72.41,360.00,21.00,0.00,30.03,1019.80,1.75,31.00,FEW,BKN,OVC,M,1100.00,2700.00,6000.00,M,HZ,M,M,M,38.00,10.00,2020-02-12 14:34,-14.49,KMBG 121452Z AUTO 36021G31KT 1 3/4SM HZ FEW011 BKN027 OVC060 M14/M18 A3003 RMK AO2 PK WND 01038/1434 PRESRR SLP198 60002 T11391178 51057 PWINO FZRANO
CUT,2020-02-12 14:53,-103.6114,43.7331,1686.81,21.90,14.00,71.18,340.00,10.00,T,29.79,1013.30,10.00,27.00,BKN,BKN,M,M,1900.00,2600.00,M,M,M,M,M,M,28.00,360.00,2020-02-12 14:43,10.30,KCUT 121453Z AUTO 34010G27KT 300V030 10SM BKN019 BKN026 M06/M10 A2979 RMK AO2 PK WND 36028/1443 SNE1359 SLP133 P0000 60000 T10561100 53027
ICR,2020-02-12 14:53,-99.8422,43.3903,611.93,36.00,27.00,69.51,310.00,10.00,0.00,29.78,1009.80,10.00,M,OVC,M,M,M,2600.00,M,M,M,M,M,M,M,M,M,M,27.98,KICR 121453Z AUTO 31010KT 10SM OVC026 02/M03 A2978 RMK AO2 SLP098 T00221028 53016
MHE,2020-02-12 14:53,-98.0386,43.7748,395.73,30.00,24.10,78.40,340.00,13.00,0.00,29.78,1009.90,10.00,M,SCT,OVC,M,M,3700.00,7000.00,M,M,M,M,M,M,M,M,M,19.01,KMHE 121453Z AUTO 34013KT 10SM SCT037 OVC070 M01/M04 A2978 RMK AO2 SLP099 T10111044 53021
ABR,2020-02-12 14:53,-98.4200,45.4500,395.00,6.10,1.00,79.05,360.00,30.00,T,30.00,1018.20,0.25,43.00,VV ,M,M,M,800.00,M,M,M,HZ,M,M,M,43.00,360.00,2020-02-12 14:52,-18.93,KABR 121453Z AUTO 36030G43KT 1/4SM HZ VV008 M14/M17 A3000 RMK AO2 PK WND 36043/1452 SNB02SNEMM SLP182 P0000 60002 T11441172 51080 PWINO FZRANO $
PIR,2020-02-12 14:53,-100.2860,44.3827,522.03,15.10,14.00,95.30,20.00,26.00,0.02,29.92,1015.40,0.25,41.00,VV ,M,M,M,600.00,M,M,M,FZFG,M,M,M,48.00,10.00,2020-02-12 14:38,-5.38,KPIR 121453Z AUTO 02026G41KT 1/4SM FZFG VV006 M09/M10 A2992 RMK AO2 PK WND 01048/1438 SNEMM PRESRR SLP154 P0002 60002 T10941100 53066 PWINO FZRANO
ATY,2020-02-12 14:53,-97.1547,44.9140,525.88,10.00,6.10,83.87,10.00,22.00,T,29.84,1013.40,0.75,M,VV ,M,M,M,1800.00,M,M,M,-SN BR,M,M,M,29.00,360.00,2020-02-12 14:43,-10.88,KATY 121453Z AUTO 01022KT 3/4SM -SN BR VV018 M12/M14 A2984 RMK AO2 PK WND 36029/1443 SNB04 PRESRR SLP134 P0000 60000 T11221144 53041
MDS,2020-02-12 14:55,-97.0859,44.0160,520.80,26.60,26.60,100.00,10.00,11.00,0.00,29.74,M,10.00,M,BKN,M,M,M,5000.00,M,M,M,M,M,M,M,M,M,M,15.64,KMDS 121455Z AUTO 01011KT 10SM BKN050 M03/M03 A2974 RMK AO2
PHP,2020-02-12 14:55,-101.6000,44.0500,671.74,19.00,15.10,84.49,360.00,24.00,T,29.94,1016.10,2.00,35.00,FEW,OVC,M,M,1000.00,2700.00,M,M,-SN BR,M,M,M,45.00,10.00,2020-02-12 14:41,0.52,KPHP 121455Z AUTO 36024G35KT 2SM -SN BR FEW010 OVC027 M07/M09 A2994 RMK AO2 PK WND 01045/1441 PRESRR SLP161 P0000 60002 T10721094 53058
9V9,2020-02-12 14:55,-99.3183,43.7667,509.76,33.30,31.50,93.01,20.00,15.00,0.00,29.80,M,10.00,24.00,BKN,BKN,OVC,M,1400.00,2100.00,3300.00,M,M,M,M,M,M,M,M,22.47,K9V9 121455Z AUTO 02015G24KT 10SM BKN014 BKN021 OVC033 01/00 A2980 RMK AO2 T00071003
HON,2020-02-12 14:55,-98.2286,44.3852,384.37,16.00,12.90,87.32,10.00,23.00,T,29.85,1012.90,0.25,42.00,VV ,M,M,M,1500.00,M,M,M,FZFG,M,M,M,42.00,360.00,2020-02-12 14:53,-3.19,KHON 121455Z AUTO 01023G42KT 1/4SM FZFG VV015 M09/M11 A2985 RMK AO2 PK WND 36042/1453 SNEMM PRESRR SLP129 P0000 60000 T10891106 53045 PWINO FZRANO $
SPF,2020-02-12 14:55,-103.7830,44.4803,1186.17,23.00,19.40,85.85,360.00,17.00,0.00,29.99,M,6.00,M,OVC,M,M,M,900.00,M,M,M,-SN,M,M,M,M,M,M,8.28,KSPF 121455Z AUTO 36017KT 6SM -SN OVC009 M05/M07 A2999 RMK AO2
2WX,2020-02-12 14:56,-103.5464,45.6044,919.07,12.00,6.10,76.73,20.00,18.00,0.00,30.04,1021.60,M,M,M,M,M,M,M,M,M,M,M,M,M,M,29.00,30.00,2020-02-12 14:08,-6.58,K2WX 121456Z AUTO 02018KT M11/M14 A3004 RMK AO1 PK WND 03029/1408 SLP216 T11111144 51066
8D3,2020-02-12 14:56,-96.9914,45.6689,351.81,1.90,-2.00,83.28,340.00,27.00,0.00,29.94,1017.40,M,37.00,M,M,M,M,M,M,M,M,M,M,M,M,42.00,340.00,2020-02-12 14:44,-23.68,K8D3 121456Z AUTO 34027G37KT M17/M19 A2994 RMK AO1 PK WND 34042/1444 SLP174 T11671189 51058
D07,2020-02-12 14:56,-102.0200,45.0300,778.50,9.00,5.00,83.41,10.00,25.00,0.00,30.01,1020.90,M,31.00,M,M,M,M,M,M,M,M,M,M,M,M,33.00,20.00,2020-02-12 13:58,-13.33,KD07 121456Z AUTO 01025G31KT M13/M15 A3001 RMK AO1 PK WND 02033/1358 SLP209 60001 T11281150 51092
FSD,2020-02-12 14:56,-96.7536,43.5769,428.94,30.90,25.00,78.48,0.00,0.00,0.00,29.74,1008.50,10.00,M,SCT,BKN,M,M,6500.00,17000.00,M,M,M,M,M,M,M,M,M,M,KFSD 121456Z 00000KT 10SM SCT065 BKN170 M01/M04 A2974 RMK AO2 SLP085 T10061039 53007
BKX,2020-02-12 14:56,-96.8169,44.3048,490.28,21.00,17.10,84.62,10.00,19.00,T,29.77,1012.00,9.00,24.00,BKN,OVC,M,M,800.00,1200.00,M,M,M,M,M,M,M,M,M,4.89,KBKX 121456Z AUTO 01019G24KT 9SM BKN008 OVC012 M06/M08 A2977 RMK AO2 SNB41E55 CIG 007V011 SLP120 P0000 60000 T10611083 53025 FZRANO
RCA,2020-02-12 14:56,-103.1036,44.1451,977.43,24.10,18.90,80.25,360.00,24.00,T,29.94,1017.70,8.00,31.00,OVC,M,M,M,900.00,M,M,M,-SN,M,M,M,35.00,10.00,2020-02-12 14:24,7.40,KRCA 121456Z 36024G31KT 8SM -SN OVC009 M04/M07 A2994 RMK AO2A PK WND 01035/24 SNE1359UPB1359E05SNB05E14UPB14 OVC V BKN CIG 008 RWY13 SLP177 P0000 60000 T10441073 52056 $
YKN,2020-02-12 14:56,-97.3859,42.9167,389.54,33.10,24.10,69.17,220.00,3.00,0.00,29.78,1010.80,10.00,M,CLR,M,M,M,M,M,M,M,M,M,M,M,M,M,M,29.95,KYKN 121456Z AUTO 22003KT 10SM CLR 01/M04 A2978 RMK AO2 PRESRR SLP108 T00061044 53013 FZRANO
MBG,2020-02-12 14:59,-100.4078,45.5464,515.17,6.10,-0.90,72.31,360.00,20.00,0.00,30.03,M,1.50,32.00,BKN,BKN,OVC,M,3700.00,4800.00,7500.00,M,HZ,M,M,M,32.00,360.00,2020-02-12 14:53,-15.26,KMBG 121459Z AUTO 36020G32KT 1 1/2SM HZ BKN037 BKN048 OVC075 M14/M18 A3003 RMK AO2 PK WND 36032/1453 PRESRR T11441183 PWINO FZRANO
ATY,2020-02-12 15:03,-97.1547,44.9140,525.88,9.00,6.10,87.71,360.00,23.00,T,29.84,M,1.00,30.00,BKN,BKN,OVC,M,2100.00,2800.00,3600.00,M,-SN BR,M,M,M,30.00,360.00,2020-02-12 15:02,-12.60,KATY 121503Z AUTO 36023G30KT 1SM -SN BR BKN021 BKN028 OVC036 M13/M14 A2984 RMK AO2 PK WND 36030/1502 P0000 T11281144
MBG,2020-02-12 15:06,-100.4078,45.5464,515.17,6.10,-0.90,72.31,360.00,24.00,0.00,30.04,M,1.50,33.00,FEW,BKN,OVC,M,900.00,2800.00,7000.00,M,HZ,M,M,M,33.00,360.00,2020-02-12 15:05,-16.88,KMBG 121506Z AUTO 36024G33KT 1 1/2SM HZ FEW009 BKN028 OVC070 M14/M18 A3004 RMK AO2 PK WND 36033/1505 T11441183 PWINO FZRANO
HON,2020-02-12 15:06,-98.2286,44.3852,384.37,14.00,10.90,87.20,360.00,27.00,0.00,29.87,M,0.25,36.00,VV ,M,M,M,1300.00,M,M,M,FZFG,M,M,M,36.00,360.00,2020-02-12 14:59,-7.19,KHON 121506Z AUTO 36027G36KT 1/4SM FZFG VV013 M10/M12 A2987 RMK AO2 PK WND 36036/1459 PRESRR T11001117 PWINO FZRANO $
PHP,2020-02-12 15:13,-101.6000,44.0500,671.74,17.10,12.00,80.01,10.00,24.00,T,29.97,M,3.00,37.00,OVC,M,M,M,3200.00,M,M,M,-SN,M,M,M,38.00,360.00,2020-02-12 14:59,-2.04,KPHP 121513Z AUTO 01024G37KT 3SM -SN OVC032 M08/M11 A2997 RMK AO2 PK WND 36038/1459 PRESRR P0000 T10831111
MDS,2020-02-12 15:15,-97.0859,44.0160,520.80,26.60,26.60,100.00,30.00,18.00,0.00,29.78,M,10.00,M,FEW,OVC,M,M,1200.00,4800.00,M,M,M,M,M,M,M,M,M,12.64,KMDS 121515Z AUTO 03018KT 10SM FEW012 OVC048 M03/M03 A2978 RMK AO2
9V9,2020-02-12 15:15,-99.3183,43.7667,509.76,23.20,20.50,89.22,10.00,22.00,0.00,29.85,M,4.00,33.00,OVC,M,M,M,1100.00,M,M,M,-SN,M,M,M,M,M,M,6.79,K9V9 121515Z AUTO 01022G33KT 4SM -SN OVC011 M05/M06 A2985 RMK AO2 T10491064
SPF,2020-02-12 15:15,-103.7830,44.4803,1186.17,21.20,19.40,92.63,340.00,18.00,0.00,30.01,M,3.00,M,OVC,M,M,M,800.00,M,M,M,-SN,M,M,M,M,M,M,5.53,KSPF 121515Z AUTO 34018KT 3SM -SN OVC008 M06/M07 A3001 RMK AO2
ATY,2020-02-12 15:16,-97.1547,44.9140,525.88,9.00,5.00,83.41,360.00,21.00,T,29.85,M,1.00,M,FEW,BKN,OVC,M,800.00,1700.00,3000.00,M,-SN BR,M,M,M,30.00,360.00,2020-02-12 15:02,-11.82,KATY 121516Z AUTO 36021KT 1SM -SN BR FEW008 BKN017 OVC030 M13/M15 A2985 RMK AO2 PK WND 36030/1502 P0000 T11281150
MBG,2020-02-12 15:17,-100.4078,45.5464,515.17,5.00,-2.00,72.18,10.00,24.00,T,30.05,M,1.75,36.00,FEW,BKN,OVC,M,800.00,3600.00,7000.00,M,-SN,M,M,M,36.00,10.00,2020-02-12 15:17,-18.37,KMBG 121517Z AUTO 01024G36KT 1 3/4SM -SN FEW008 BKN036 OVC070 M15/M19 A3005 RMK AO2 PK WND 01036/1517 SNB12 P0000 T11501189
PIR,2020-02-12 15:21,-100.2860,44.3827,522.03,14.00,10.90,87.20,10.00,27.00,0.00,29.97,M,0.25,37.00,VV ,M,M,M,1000.00,M,M,M,FZFG,M,M,M,43.00,20.00,2020-02-12 14:59,-7.19,KPIR 121521Z AUTO 01027G37KT 1/4SM FZFG VV010 M10/M12 A2997 RMK AO2 PK WND 02043/1459 PRESRR T11001117 PWINO FZRANO
RCA,2020-02-12 15:22,-103.1036,44.1451,977.43,23.00,17.60,79.47,360.00,26.00,0.00,29.97,1018.70,6.00,31.00,BKN,OVC,M,M,700.00,1100.00,M,M,BLSN,M,M,M,M,M,M,5.35,KRCA 121522Z 36026G31KT 6SM BLSN BKN007 OVC011 M05/M08 A2997 RMK AO2A SNE1456UPB1456E1457SNB1457 CIG 007V009 PRESRR SLP187 $
MHE,2020-02-12 15:23,-98.0386,43.7748,395.73,30.00,25.00,81.40,360.00,18.00,0.00,29.83,M,10.00,M,FEW,BKN,OVC,M,800.00,3700.00,7000.00,M,M,M,M,M,M,M,M,17.12,KMHE 121523Z AUTO 36018KT 10SM FEW008 BKN037 OVC070 M01/M04 A2983 RMK AO2 PRESRR T10111039
ABR,2020-02-12 15:24,-98.4200,45.4500,395.00,5.00,0.00,79.32,10.00,23.00,T,30.03,M,0.25,40.00,VV ,M,M,M,1300.00,M,M,M,+SN,M,M,M,41.00,360.00,2020-02-12 14:55,-17.98,KABR 121524Z AUTO 01023G40KT 1/4SM +SN VV013 M15/M18 A3003 RMK AO2 PK WND 36041/1455 SNB1459 P0000 T11501178 $
RAP,2020-02-12 15:28,-103.0574,44.0453,964.71,21.90,18.00,84.68,10.00,25.00,T,29.97,M,7.00,34.00,OVC,M,M,M,900.00,M,M,M,-SN,M,M,M,37.00,10.00,2020-02-12 15:13,4.14,KRAP 121528Z 01025G34KT 7SM -SN OVC009 M06/M08 A2997 RMK AO2 PK WND 01037/1513 SNB25 CIG 008V013 PRESRR P0000 T10561078
ICR,2020-02-12 15:29,-99.8422,43.3903,611.93,34.00,28.90,81.37,350.00,20.00,T,29.82,M,2.00,29.00,BKN,OVC,M,M,1500.00,2000.00,M,M,-SN,M,M,M,29.00,340.00,2020-02-12 15:23,21.80,KICR 121529Z AUTO 35020G29KT 2SM -SN BKN015 OVC020 01/M02 A2982 RMK AO2 PK WND 34029/1523 UPB22E24SNB24 PRESRR P0000 T00111017
BKX,2020-02-12 15:29,-96.8169,44.3048,490.28,15.80,12.20,85.40,360.00,19.00,T,29.83,M,7.00,22.00,SCT,OVC,M,M,800.00,1400.00,M,M,-SN,M,M,M,M,M,M,-1.99,KBKX 121529Z AUTO 36019G22KT 7SM -SN SCT008 OVC014 M09/M11 A2983 RMK AO2 SNB21 PRESRR P0000 FZRANO
PHP,2020-02-12 15:30,-101.6000,44.0500,671.74,17.10,12.00,80.01,360.00,24.00,T,30.00,M,1.75,33.00,BKN,OVC,M,M,3000.00,3700.00,M,M,-SN,M,M,M,38.00,360.00,2020-02-12 14:59,-2.04,KPHP 121530Z AUTO 36024G33KT 1 3/4SM -SN BKN030 OVC037 M08/M11 A3000 RMK AO2 PK WND 36038/1459 PRESRR P0000 T10831111
HON,2020-02-12 15:31,-98.2286,44.3852,384.37,12.00,9.00,87.48,360.00,26.00,0.00,29.92,M,0.25,35.00,VV ,M,M,M,900.00,M,M,M,FZFG,M,M,M,43.00,10.00,2020-02-12 15:18,-9.59,KHON 121531Z AUTO 36026G35KT 1/4SM FZFG VV009 M11/M13 A2992 RMK AO2 PK WND 01043/1518 PRESRR T11111128 PWINO FZRANO $
ICR,2020-02-12 15:32,-99.8422,43.3903,611.93,34.00,28.90,81.37,360.00,20.00,T,29.82,M,1.75,29.00,BKN,OVC,M,M,1300.00,2000.00,M,M,-SN,M,M,M,29.00,340.00,2020-02-12 15:23,21.80,KICR 121532Z AUTO 36020G29KT 1 3/4SM -SN BKN013 OVC020 01/M02 A2982 RMK AO2 PK WND 34029/1523 UPB22E24SNB24 PRESRR P0000 T00111017
MHE,2020-02-12 15:33,-98.0386,43.7748,395.73,28.00,24.10,85.08,340.00,25.00,0.00,29.86,M,6.00,32.00,BKN,BKN,OVC,M,800.00,1600.00,3700.00,M,BR,M,M,M,32.00,350.00,2020-02-12 15:33,12.40,KMHE 121533Z AUTO 34025G32KT 6SM BR BKN008 BKN016 OVC037 M02/M04 A2986 RMK AO2 PK WND 35032/1533 PRESRR T10221044
RCA,2020-02-12 15:33,-103.1036,44.1451,977.43,21.20,15.80,79.31,360.00,26.00,0.00,29.98,1019.40,4.00,33.00,BKN,OVC,M,M,700.00,1200.00,M,M,BLSN SQ,M,M,M,M,M,M,2.90,KRCA 121533Z 36026G33KT 4SM BLSN SQ BKN007 OVC012 M06/M09 A2998 RMK AO2A SNE1456UPB1456E1457SNB1457 CIG 006 RWY13 SLP194 $
MBG,2020-02-12 15:34,-100.4078,45.5464,515.17,6.10,-2.90,65.77,10.00,21.00,T,30.08,M,3.00,33.00,OVC,M,M,M,4300.00,M,M,M,BLSN,M,M,M,36.00,10.00,2020-02-12 15:17,-15.69,KMBG 121534Z AUTO 01021G33KT 3SM BLSN OVC043 M14/M19 A3008 RMK AO2 PK WND 01036/1517 SNB12E33 P0000 T11441194
MDS,2020-02-12 15:35,-97.0859,44.0160,520.80,23.00,23.00,100.00,30.00,22.00,0.00,29.82,M,10.00,29.00,BKN,BKN,OVC,M,700.00,1200.00,4500.00,M,-RA,M,M,M,M,M,M,6.53,KMDS 121535Z AUTO 03022G29KT 10SM -RA BKN007 BKN012 OVC045 M05/M05 A2982 RMK AO2
9V9,2020-02-12 15:35,-99.3183,43.7667,509.76,20.10,17.40,89.07,10.00,24.00,0.00,29.89,M,4.00,31.00,BKN,OVC,M,M,1300.00,1800.00,M,M,-SN,M,M,M,M,M,M,2.00,K9V9 121535Z AUTO 01024G31KT 4SM -SN BKN013 OVC018 M07/M08 A2989 RMK AO2 T10661081
SPF,2020-02-12 15:35,-103.7830,44.4803,1186.17,19.40,17.60,92.57,360.00,15.00,0.00,30.03,M,2.50,21.00,OVC,M,M,M,800.00,M,M,M,-SN,M,M,M,M,M,M,4.45,KSPF 121535Z AUTO 36015G21KT 2 1/2SM -SN OVC008 M07/M08 A3003 RMK AO2 VIS 1 1/2V3
BKX,2020-02-12 15:36,-96.8169,44.3048,490.28,15.80,10.40,78.84,10.00,18.00,T,29.85,M,3.00,M,SCT,OVC,M,M,1000.00,1600.00,M,M,-SN,M,M,M,M,M,M,-1.58,KBKX 121536Z AUTO 01018KT 3SM -SN SCT010 OVC016 M09/M12 A2985 RMK AO2 SNB21 PRESRR P0000 FZRANO
PHP,2020-02-12 15:38,-101.6000,44.0500,671.74,15.10,10.00,79.84,10.00,22.00,T,30.01,M,1.25,37.00,BKN,OVC,M,M,2800.00,3500.00,M,M,-SN,M,M,M,38.00,360.00,2020-02-12 14:59,-4.05,KPHP 121538Z AUTO 01022G37KT 1 1/4SM -SN BKN028 OVC035 M09/M12 A3001 RMK AO2 PK WND 36038/1459 PRESRR P0000 T10941122
ABR,2020-02-12 15:38,-98.4200,45.4500,395.00,3.90,-0.90,79.97,360.00,23.00,0.04,30.05,M,0.25,34.00,BKN,OVC,M,M,1500.00,3000.00,M,M,+SN,M,M,M,41.00,360.00,2020-02-12 14:55,-19.46,KABR 121538Z AUTO 36023G34KT 1/4SM +SN BKN015 OVC030 M16/M18 A3005 RMK AO2 PK WND 36041/1455 SNB1459 P0004 T11561183 $
ATY,2020-02-12 15:38,-97.1547,44.9140,525.88,7.00,3.00,83.27,10.00,21.00,T,29.88,M,1.25,28.00,OVC,M,M,M,1000.00,M,M,M,BR,M,M,M,30.00,360.00,2020-02-12 15:23,-14.49,KATY 121538Z AUTO 01021G28KT 1 1/4SM BR OVC010 M14/M16 A2988 RMK AO2 PK WND 36030/1523 SNE19 PRESRR P0000 T11391161
ICR,2020-02-12 15:39,-99.8422,43.3903,611.93,33.10,28.90,84.36,360.00,21.00,T,29.84,M,1.50,30.00,FEW,BKN,OVC,M,800.00,1300.00,1800.00,M,-SN BR,M,M,M,30.00,360.00,2020-02-12 15:35,20.32,KICR 121539Z AUTO 36021G30KT 1 1/2SM -SN BR FEW008 BKN013 OVC018 01/M02 A2984 RMK AO2 PK WND 36030/1535 UPB22E24SNB24 PRESRR P0000 T00061017
MHE,2020-02-12 15:41,-98.0386,43.7748,395.73,24.10,19.90,83.75,350.00,24.00,T,29.88,M,2.50,33.00,BKN,OVC,M,M,800.00,3500.00,M,M,UP BR,M,M,M,33.00,350.00,2020-02-12 15:36,7.40,KMHE 121541Z AUTO 35024G33KT 2 1/2SM UP BR BKN008 OVC035 M04/M07 A2988 RMK AO2 PK WND 35033/1536 UPB34 CIG 007V017 PRESRR P0000 T10441067
BKX,2020-02-12 15:42,-96.8169,44.3048,490.28,14.00,10.40,85.28,10.00,17.00,T,29.86,M,1.75,M,SCT,OVC,M,M,1300.00,1900.00,M,M,-SN BR,M,M,M,M,M,M,-3.51,KBKX 121542Z AUTO 01017KT 1 3/4SM -SN BR SCT013 OVC019 M10/M12 A2986 RMK AO2 VIS 1V4 SNB21 PRESRR P0000 FZRANO
HON,2020-02-12 15:43,-98.2286,44.3852,384.37,10.90,7.00,83.93,360.00,26.00,0.00,29.94,M,0.25,40.00,VV ,M,M,M,1200.00,M,M,M,FZFG,M,M,M,43.00,10.00,2020-02-12 15:18,-11.09,KHON 121543Z AUTO 36026G40KT 1/4SM FZFG VV012 M12/M14 A2994 RMK AO2 PK WND 01043/1518 PRESRR T11171139 PWINO FZRANO $
RCA,2020-02-12 15:43,-103.1036,44.1451,977.43,19.40,14.00,79.16,350.00,26.00,0.00,29.99,1019.70,6.00,34.00,SCT,BKN,OVC,M,800.00,1500.00,2800.00,M,BLSN,M,M,M,M,M,M,0.46,KRCA 121543Z 35026G34KT 6SM BLSN SCT008 BKN015 OVC028 M07/M10 A2999 RMK AO2A SNE1456UPB1456E1457SNB1457 CIG 007V015 CIG 008 RWY13 SLP197 $
ABR,2020-02-12 15:45,-98.4200,45.4500,395.00,3.90,-2.00,75.92,360.00,24.00,0.04,30.06,M,0.25,36.00,VV ,M,M,M,1400.00,M,M,M,+SN,M,M,M,41.00,360.00,2020-02-12 14:55,-19.85,KABR 121545Z AUTO 36024G36KT 1/4SM +SN VV014 M16/M19 A3006 RMK AO2 PK WND 36041/1455 SNB1459 PRESRR P0004 T11561189 $
RAP,2020-02-12 15:47,-103.0574,44.0453,964.71,19.40,15.80,85.63,360.00,25.00,T,30.00,M,5.00,33.00,SCT,OVC,M,M,900.00,2800.00,M,M,-SN,M,M,M,37.00,10.00,2020-02-12 15:13,0.75,KRAP 121547Z 36025G33KT 5SM -SN SCT009 OVC028 M07/M09 A3000 RMK AO2 PK WND 01037/1513 SNB25 PRESRR P0000
MBG,2020-02-12 15:47,-100.4078,45.5464,515.17,6.80,-2.20,65.87,360.00,21.00,T,30.09,M,1.75,32.00,FEW,OVC,M,M,1200.00,4400.00,M,M,BLSN,M,M,M,36.00,10.00,2020-02-12 15:17,-14.76,KMBG 121547Z AUTO 36021G32KT 1 3/4SM BLSN FEW012 OVC044 M14/M19 A3009 RMK AO2 PK WND 01036/1517 SNB12E33 P0000
RCA,2020-02-12 15:48,-103.1036,44.1451,977.43,19.40,14.00,79.16,360.00,26.00,0.00,30.00,1020.10,6.00,34.00,FEW,BKN,OVC,M,800.00,1700.00,2800.00,M,BLSN,M,M,M,M,M,M,0.46,KRCA 121548Z 36026G34KT 6SM BLSN FEW008 BKN017 OVC028 M07/M10 A3000 RMK AO2A SNE1456UPB1456E1457SNB1457 CIG 007V017 CIG 008 RWY13 SLP201 $
RAP,2020-02-12 15:52,-103.0574,44.0453,964.71,19.90,15.10,81.30,10.00,23.00,T,30.01,1020.10,7.00,33.00,BKN,OVC,M,M,900.00,3000.00,M,M,-SN,M,M,M,37.00,10.00,2020-02-12 15:13,2.05,KRAP 121552Z 01023G33KT 7SM -SN BKN009 OVC030 M07/M09 A3001 RMK AO2 PK WND 01037/1513 SNB25 CIG 008V014 PRESRR SLP201 P0000 T10671094
IEN,2020-02-12 15:52,-102.5110,43.0225,1008.84,30.00,21.90,71.48,350.00,19.00,0.00,29.95,1016.80,10.00,36.00,BKN,OVC,M,M,1800.00,2900.00,M,M,M,M,M,M,38.00,350.00,2020-02-12 15:04,16.79,KIEN 121552Z AUTO 35019G36KT 10SM BKN018 OVC029 M01/M06 A2995 RMK AO2 PK WND 35038/1504 PRESRR SLP168 T10111056
MBG,2020-02-12 15:52,-100.4078,45.5464,515.17,5.00,-2.90,69.16,360.00,23.00,T,30.10,1022.20,1.50,33.00,FEW,SCT,OVC,M,1200.00,2300.00,4400.00,M,BLSN,M,M,M,36.00,10.00,2020-02-12 15:17,-17.98,KMBG 121552Z AUTO 36023G33KT 1 1/2SM BLSN FEW012 SCT023 OVC044 M15/M19 A3010 RMK AO2 PK WND 01036/1517 SNB12E33 PRESRR SLP222 P0000 T11501194
CUT,2020-02-12 15:53,-103.6114,43.7331,1686.81,21.90,14.00,71.18,340.00,9.00,T,29.86,1015.60,10.00,16.00,OVC,M,M,M,2300.00,M,M,M,M,M,M,M,M,M,M,10.96,KCUT 121553Z AUTO 34009G16KT 300V010 10SM OVC023 M06/M10 A2986 RMK AO2 SNB1459E31 SLP156 P0000 T10561100
PHP,2020-02-12 15:53,-101.6000,44.0500,671.74,15.80,10.40,78.84,360.00,18.00,T,30.04,M,2.00,31.00,BKN,OVC,M,M,2600.00,4300.00,M,M,-SN,M,M,M,38.00,360.00,2020-02-12 14:59,-1.58,KPHP 121553Z AUTO 36018G31KT 2SM -SN BKN026 OVC043 M09/M12 A3004 RMK AO2 PK WND 36038/1459 PRESRR P0000
ICR,2020-02-12 15:53,-99.8422,43.3903,611.93,21.90,17.10,81.46,10.00,30.00,T,29.88,1014.10,1.50,44.00,BKN,OVC,M,M,700.00,1200.00,M,M,-SN,T,M,M,46.00,10.00,2020-02-12 15:41,2.80,KICR 121553Z AUTO 01030G44KT 1 1/2SM -SN BKN007 OVC012 M06/M08 A2988 RMK AO2 PK WND 01046/1541 UPB22E24SNB24 CIG 005V008 PRESRR SLP141 P0000 I1000 T10561083 $
BKX,2020-02-12 15:53,-96.8169,44.3048,490.28,12.20,8.60,85.17,10.00,17.00,T,29.87,M,1.00,M,BKN,OVC,M,M,1900.00,2400.00,M,M,-SN BR,M,M,M,M,M,M,-5.86,KBKX 121553Z AUTO 01017KT 1SM -SN BR BKN019 OVC024 M11/M13 A2987 RMK AO2 SNB21 PRESRR P0000 FZRANO RVRNO
MHE,2020-02-12 15:53,-98.0386,43.7748,395.73,21.90,18.00,84.68,350.00,25.00,T,29.90,1014.20,3.00,33.00,SCT,OVC,M,M,800.00,1400.00,M,M,UP BR,M,M,M,33.00,350.00,2020-02-12 15:36,4.14,KMHE 121553Z AUTO 35025G33KT 3SM UP BR SCT008 OVC014 M06/M08 A2990 RMK AO2 PK WND 35033/1536 UPB34 PRESRR SLP142 P0000 T10561078
ABR,2020-02-12 15:53,-98.4200,45.4500,395.00,3.00,-2.90,75.82,10.00,21.00,0.04,30.07,1020.70,0.50,36.00,FEW,OVC,M,M,1100.00,1500.00,M,M,SN,M,M,M,41.00,360.00,2020-02-12 14:55,-19.83,KABR 121553Z AUTO 01021G36KT 1/2SM SN FEW011 OVC015 M16/M19 A3007 RMK AO2 PK WND 36041/1455 SNB1459 PRESRR SLP207 P0004 T11611194 $
PIR,2020-02-12 15:53,-100.2860,44.3827,522.03,10.90,8.10,88.21,10.00,28.00,0.00,30.02,1019.20,0.25,40.00,VV ,M,M,M,1200.00,M,M,M,FZFG,M,M,M,43.00,20.00,2020-02-12 14:59,-11.73,KPIR 121553Z AUTO 01028G40KT 1/4SM FZFG VV012 M12/M13 A3002 RMK AO2 PK WND 02043/1459 PRESRR SLP192 T11171133 PWINO FZRANO
ATY,2020-02-12 15:53,-97.1547,44.9140,525.88,6.10,1.90,82.43,360.00,24.00,T,29.90,1015.80,0.75,30.00,VV ,M,M,M,1100.00,M,M,M,-SN BR,M,M,M,30.00,360.00,2020-02-12 15:23,-16.88,KATY 121553Z AUTO 36024G30KT 3/4SM -SN BR VV011 M14/M17 A2990 RMK AO2 PK WND 36030/1523 SNE19B50 SLP158 P0000 T11441167
MDS,2020-02-12 15:55,-97.0859,44.0160,520.80,17.60,17.60,100.00,30.00,24.00,0.00,29.85,M,7.00,30.00,OVC,M,M,M,700.00,M,M,M,-RA,M,M,M,M,M,M,-1.37,KMDS 121555Z AUTO 03024G30KT 7SM -RA OVC007 M08/M08 A2985 RMK AO2
PHP,2020-02-12 15:55,-101.6000,44.0500,671.74,15.10,10.00,79.84,360.00,17.00,T,30.04,1019.90,2.50,29.00,BKN,OVC,M,M,2600.00,4300.00,M,M,-SN,M,M,M,38.00,360.00,2020-02-12 14:59,-2.06,KPHP 121555Z AUTO 36017G29KT 2 1/2SM -SN BKN026 OVC043 M09/M12 A3004 RMK AO2 PK WND 36038/1459 PRESRR SLP199 P0000 T10941122
9V9,2020-02-12 15:55,-99.3183,43.7667,509.76,17.80,15.40,90.13,10.00,21.00,0.00,29.93,M,1.00,30.00,BKN,OVC,M,M,1500.00,2100.00,M,M,-SN,M,M,M,M,M,M,-0.09,K9V9 121555Z AUTO 01021G30KT 1SM -SN BKN015 OVC021 M08/M09 A2993 RMK AO2 T10791092
HON,2020-02-12 15:55,-98.2286,44.3852,384.37,10.00,6.10,83.87,360.00,23.00,0.00,29.97,1016.80,0.25,38.00,VV ,M,M,M,1300.00,M,M,M,FZFG,M,M,M,43.00,10.00,2020-02-12 15:18,-11.26,KHON 121555Z AUTO 36023G38KT 1/4SM FZFG VV013 M12/M14 A2997 RMK AO2 PK WND 01043/1518 PRESRR SLP168 T11221144 PWINO FZRANO $
SPF,2020-02-12 15:55,-103.7830,44.4803,1186.17,15.80,14.00,92.44,20.00,17.00,0.00,30.05,M,1.00,M,OVC,M,M,M,700.00,M,M,M,-SN,M,M,M,M,M,M,-1.15,KSPF 121555Z AUTO 02017KT 1SM -SN OVC007 M09/M10 A3005 RMK AO2
2WX,2020-02-12 15:56,-103.5464,45.6044,919.07,12.90,6.10,73.74,20.00,8.00,0.00,30.09,1023.60,M,M,M,M,M,M,M,M,M,M,M,M,M,M,M,M,M,0.59,K2WX 121556Z AUTO 02008KT M11/M14 A3009 RMK AO1 SLP236 T11061144
8D3,2020-02-12 15:56,-96.9914,45.6689,351.81,-0.90,-6.00,78.40,350.00,25.00,0.00,30.02,1020.30,M,40.00,M,M,M,M,M,M,M,M,M,M,M,M,45.00,340.00,2020-02-12 15:34,-26.73,K8D3 121556Z AUTO 35025G40KT M18/M21 A3002 RMK AO1 PK WND 34045/1534 SLP203 T11831211
D07,2020-02-12 15:56,-102.0200,45.0300,778.50,9.00,3.00,76.08,10.00,23.00,0.00,30.05,1022.40,M,M,M,M,M,M,M,M,M,M,M,M,M,M,35.00,20.00,2020-02-12 15:04,-12.60,KD07 121556Z AUTO 01023KT M13/M16 A3005 RMK AO1 PK WND 02035/1504 SLP224 T11281161
FSD,2020-02-12 15:56,-96.7536,43.5769,428.94,32.00,26.10,78.58,320.00,5.00,0.00,29.81,1011.00,10.00,M,OVC,M,M,M,6000.00,M,M,M,M,M,M,M,M,M,M,26.40,KFSD 121556Z 32005KT 10SM OVC060 00/M03 A2981 RMK AO2 PRESRR SLP110 T00001033
BKX,2020-02-12 15:56,-96.8169,44.3048,490.28,12.00,8.10,84.01,360.00,14.00,T,29.88,1015.90,1.00,M,BKN,OVC,M,M,1900.00,2400.00,M,M,-SN BR,M,M,M,M,M,M,-4.62,KBKX 121556Z AUTO 36014KT 1SM -SN BR BKN019 OVC024 M11/M13 A2988 RMK AO2 SNB21 PRESRR SLP159 P0000 T11111133 FZRANO RVRNO
RCA,2020-02-12 15:56,-103.1036,44.1451,977.43,19.00,13.30,78.08,360.00,24.00,T,30.01,1020.40,6.00,32.00,FEW,BKN,OVC,M,800.00,1700.00,2800.00,M,BLSN,M,M,M,34.00,350.00,2020-02-12 15:41,0.52,KRCA 121556Z 36024G32KT 6SM BLSN FEW008 BKN017 OVC028 M07/M10 A3001 RMK AO2A PK WND 35034/41 SNE1456UPB1456E1457SNB1457 CIG 008 RWY13 SLP204 P0000 T10721104 $
YKN,2020-02-12 15:56,-97.3859,42.9167,389.54,36.00,25.00,63.98,280.00,8.00,0.00,29.82,1012.20,10.00,M,BKN,OVC,M,M,7000.00,11000.00,M,M,M,M,M,M,M,M,M,29.04,KYKN 121556Z AUTO 28008KT 10SM BKN070 OVC110 02/M04 A2982 RMK AO2 SLP122 T00221039 FZRANO
ATY,2020-02-12 15:57,-97.1547,44.9140,525.88,6.10,1.90,82.43,360.00,21.00,T,29.90,M,1.00,30.00,FEW,OVC,M,M,900.00,1500.00,M,M,-SN BR,M,M,M,30.00,360.00,2020-02-12 15:55,-15.69,KATY 121557Z AUTO 36021G30KT 1SM -SN BR FEW009 OVC015 M14/M17 A2990 RMK AO2 PK WND 36030/1555 P0000 T11441167
RAP,2020-02-12 16:00,-103.0574,44.0453,964.71,18.00,12.00,76.97,10.00,26.00,T,30.02,M,5.00,36.00,FEW,BKN,OVC,M,1100.00,2700.00,3200.00,M,-SN,M,M,M,36.00,10.00,2020-02-12 15:57,-1.44,KRAP 121600Z 01026G36KT 5SM -SN FEW011 BKN027 OVC032 M08/M11 A3002 RMK AO2 PK WND 01036/1557 PRESRR P0000 T10781111
MBG,2020-02-12 16:03,-100.4078,45.5464,515.17,5.00,-6.00,59.60,10.00,14.00,0.00,30.12,M,3.00,32.00,FEW,FEW,BKN,M,1200.00,2600.00,4600.00,M,BLSN,M,M,M,32.00,10.00,2020-02-12 15:55,-13.64,KMBG 121603Z AUTO 01014G32KT 3SM BLSN FEW012 FEW026 BKN046 M15/M21 A3012 RMK AO2 PK WND 01032/1555 PRESRR T11501211
BKX,2020-02-12 16:04,-96.8169,44.3048,490.28,12.20,8.60,85.17,10.00,17.00,T,29.89,M,1.50,M,BKN,OVC,M,M,2200.00,2700.00,M,M,-SN BR,M,M,M,M,M,M,-5.86,KBKX 121604Z AUTO 01017KT 1 1/2SM -SN BR BKN022 OVC027 M11/M13 A2989 RMK AO2 PRESRR P0000 FZRANO
PHP,2020-02-12 16:06,-101.6000,44.0500,671.74,14.00,10.00,83.77,350.00,14.00,0.01,30.08,M,4.00,24.00,FEW,OVC,M,M,1200.00,2200.00,M,M,-SN BR,M,M,M,M,M,M,-2.04,KPHP 121606Z AUTO 35014G24KT 4SM -SN BR FEW012 OVC022 M10/M12 A3008 RMK AO2 PRESRR P0001 T11001122
PIR,2020-02-12 16:08,-100.2860,44.3827,522.03,10.00,7.00,87.37,360.00,27.00,0.00,30.05,M,0.50,39.00,VV ,M,M,M,1200.00,M,M,M,FZFG,M,M,M,39.00,10.00,2020-02-12 16:06,-12.64,KPIR 121608Z AUTO 36027G39KT 1/2SM FZFG VV012 M12/M14 A3005 RMK AO2 PK WND 01039/1606 PRESRR T11221139 PWINO FZRANO
MHE,2020-02-12 16:09,-98.0386,43.7748,395.73,19.90,16.00,84.55,360.00,27.00,T,29.93,M,1.75,37.00,OVC,M,M,M,1200.00,M,M,M,BLSN BR,M,M,M,37.00,360.00,2020-02-12 16:05,0.85,KMHE 121609Z AUTO 36027G37KT 1 3/4SM BLSN BR OVC012 M07/M09 A2993 RMK AO2 PK WND 36037/1605 UPE02 P0000 T10671089
ATY,2020-02-12 16:09,-97.1547,44.9140,525.88,5.00,1.90,86.68,360.00,23.00,T,29.92,M,0.75,31.00,FEW,OVC,M,M,900.00,1300.00,M,M,-SN BR,M,M,M,31.00,360.00,2020-02-12 16:07,-17.98,KATY 121609Z AUTO 36023G31KT 3/4SM -SN BR FEW009 OVC013 M15/M17 A2992 RMK AO2 PK WND 36031/1607 PRESRR P0000 T11501167
BKX,2020-02-12 16:13,-96.8169,44.3048,490.28,10.40,6.80,85.05,10.00,16.00,T,29.90,M,3.00,21.00,BKN,BKN,OVC,M,2400.00,3000.00,3600.00,M,-SN BR,M,M,M,M,M,M,-7.74,KBKX 121613Z AUTO 01016G21KT 3SM -SN BR BKN024 BKN030 OVC036 M12/M14 A2990 RMK AO2 PRESRR P0000 FZRANO
ICR,2020-02-12 16:14,-99.8422,43.3903,611.93,19.00,15.10,84.49,360.00,26.00,T,29.94,M,2.00,38.00,BKN,OVC,M,M,800.00,1400.00,M,M,-SN BR,M,M,M,42.00,10.00,2020-02-12 15:58,-0.09,KICR 121614Z AUTO 36026G38KT 2SM -SN BR BKN008 OVC014 M07/M09 A2994 RMK AO2 PK WND 01042/1558 CIG 005V010 PRESRR P0000 T10721094 $
ABR,2020-02-12 16:14,-98.4200,45.4500,395.00,1.90,-4.00,75.71,10.00,27.00,T,30.09,M,0.75,34.00,BKN,OVC,M,M,1200.00,1700.00,M,M,UP,M,M,M,36.00,10.00,2020-02-12 15:56,-23.68,KABR 121614Z AUTO 01027G34KT 3/4SM UP BKN012 OVC017 M17/M20 A3009 RMK AO2 PK WND 01036/1556 UPB01SNE01 PRESRR P0000 T11671200
MDS,2020-02-12 16:15,-97.0859,44.0160,520.80,14.00,14.00,100.00,20.00,23.00,0.04,29.87,M,0.25,26.00,OVC,M,M,M,400.00,M,M,M,+SN,M,M,M,M,M,M,-5.88,KMDS 121615Z AUTO 02023G26KT 1/4SM +SN OVC004 M10/M10 A2987 RMK AO2 P0004
9V9,2020-02-12 16:15,-99.3183,43.7667,509.76,15.80,13.60,90.83,20.00,19.00,0.00,29.96,M,1.00,31.00,OVC,M,M,M,900.00,M,M,M,-SN,M,M,M,M,M,M,-1.99,K9V9 121615Z AUTO 02019G31KT 1SM -SN OVC009 M09/M10 A2996 RMK AO2 T10901102
SPF,2020-02-12 16:15,-103.7830,44.4803,1186.17,15.80,14.00,92.44,10.00,14.00,0.00,30.07,M,1.00,19.00,M,M,M,M,M,M,M,M,-SN,M,M,M,M,M,M,0.28,KSPF 121615Z AUTO 01014G19KT 1SM -SN M09/M10 A3007 RMK AO2
RCA,2020-02-12 16:16,-103.1036,44.1451,977.43,15.80,8.60,72.73,360.00,24.00,0.00,30.05,1022.10,2.75,M,SCT,OVC,M,M,900.00,1600.00,M,M,BLSN,M,M,M,M,M,M,-3.80,KRCA 121616Z 36024KT 2 3/4SM BLSN SCT009 OVC016 M09/M13 A3005 RMK AO2A VIS 2 3/4V4 CIG 008 RWY13 PRESRR SLP221 $
HON,2020-02-12 16:18,-98.2286,44.3852,384.37,10.00,6.10,83.87,10.00,20.00,0.00,30.00,M,0.50,32.00,VV ,M,M,M,1200.00,M,M,M,FZFG,M,M,M,43.00,360.00,2020-02-12 16:01,-10.08,KHON 121618Z AUTO 01020G32KT 1/2SM FZFG VV012 M12/M14 A3000 RMK AO2 PK WND 36043/1601 PRESRR T11221144 $
RCA,2020-02-12 16:20,-103.1036,44.1451,977.43,15.80,8.60,72.73,350.00,25.00,0.00,30.05,1022.10,2.25,M,SCT,OVC,M,M,700.00,1600.00,M,M,BLSN,M,M,M,M,M,M,-4.12,KRCA 121620Z 35025KT 2 1/4SM BLSN SCT007 OVC016 M09/M13 A3005 RMK AO2A VIS 2 1/4V4 CIG 008 RWY13 SLP221 $
ICR,2020-02-12 16:22,-99.8422,43.3903,611.93,18.00,12.90,80.09,10.00,29.00,T,29.96,M,1.25,39.00,BKN,OVC,M,M,1000.00,2700.00,M,M,-SN,M,M,M,42.00,10.00,2020-02-12 15:58,-2.30,KICR 121622Z AUTO 01029G39KT 1 1/4SM -SN BKN010 OVC027 M08/M11 A2996 RMK AO2 PK WND 01042/1558 PRESRR P0000 T10781106 $
MHE,2020-02-12 16:22,-98.0386,43.7748,395.73,18.00,14.00,84.05,360.00,25.00,T,29.95,M,0.50,36.00,OVC,M,M,M,1600.00,M,M,M,-SN FZFG,M,M,M,37.00,10.00,2020-02-12 16:10,-1.14,KMHE 121622Z AUTO 36025G36KT 1/2SM -SN FZFG OVC016 M08/M10 A2995 RMK AO2 PK WND 01037/1610 UPE02SNB17 PRESRR P0000 T10781100
RCA,2020-02-12 16:25,-103.1036,44.1451,977.43,14.00,8.60,78.68,360.00,20.00,0.00,30.06,1022.50,3.00,27.00,SCT,OVC,M,M,700.00,1400.00,M,M,BLSN,M,M,M,M,M,M,-4.77,KRCA 121625Z 36020G27KT 3SM BLSN SCT007 OVC014 M10/M13 A3006 RMK AO2A VIS 2V3 CIG 006 RWY13 SLP225 $
BKX,2020-02-12 16:26,-96.8169,44.3048,490.28,10.40,6.80,85.05,20.00,14.00,T,29.91,M,2.50,24.00,OVC,M,M,M,2900.00,M,M,M,-SN BR,M,M,M,M,M,M,-6.68,KBKX 121626Z AUTO 02014G24KT 2 1/2SM -SN BR OVC029 M12/M14 A2991 RMK AO2 VIS 1 3/4V4 P0000 FZRANO
HON,2020-02-12 16:28,-98.2286,44.3852,384.37,8.60,5.00,84.93,20.00,25.00,0.00,30.02,M,0.25,37.00,VV ,M,M,M,1100.00,M,M,M,SN FZFG,M,M,M,M,M,M,-13.87,KHON 121628Z AUTO 02025G37KT 1/4SM SN FZFG VV011 M13/M15 A3002
MHE,2020-02-12 16:29,-98.0386,43.7748,395.73,17.10,12.90,83.25,360.00,28.00,T,29.96,M,0.25,39.00,BKN,OVC,M,M,1400.00,2000.00,M,M,-SN FZFG,M,M,M,39.00,360.00,2020-02-12 16:27,-3.25,KMHE 121629Z AUTO 36028G39KT 1/4SM -SN FZFG BKN014 OVC020 M08/M11 A2996 RMK AO2 PK WND 36039/1627 UPE02SNB17 PRESRR P0000 T10831106
PHP,2020-02-12 16:30,-101.6000,44.0500,671.74,15.10,9.00,76.34,10.00,11.00,0.01,30.11,M,9.00,21.00,SCT,OVC,M,M,1300.00,7000.00,M,M,-SN,M,M,M,27.00,360.00,2020-02-12 16:16,1.11,KPHP 121630Z AUTO 01011G21KT 9SM -SN SCT013 OVC070 M09/M13 A3011 RMK AO2 PK WND 36027/1616 P0001 T10941128
RCA,2020-02-12 16:30,-103.1036,44.1451,977.43,14.00,8.60,78.68,360.00,20.00,0.00,30.07,1022.80,2.25,24.00,SCT,OVC,M,M,700.00,1400.00,M,M,-SN,M,M,M,M,M,M,-4.77,KRCA 121630Z 36020G24KT 2 1/4SM -SN SCT007 OVC014 M10/M13 A3007 RMK AO2A CIG 005 RWY13 SLP228 $
ICR,2020-02-12 16:32,-99.8422,43.3903,611.93,17.10,12.00,80.01,10.00,21.00,T,29.97,M,0.50,40.00,SCT,BKN,OVC,M,1000.00,2200.00,2900.00,M,SN,M,M,M,42.00,10.00,2020-02-12 15:58,-1.02,KICR 121632Z AUTO 01021G40KT 1/2SM SN SCT010 BKN022 OVC029 M08/M11 A2997 RMK AO2 PK WND 01042/1558 PRESRR P0000 T10831111 $
RAP,2020-02-12 16:34,-103.0574,44.0453,964.71,14.00,9.00,80.10,360.00,20.00,T,30.07,M,2.00,30.00,BKN,OVC,M,M,1300.00,1900.00,M,M,-SN,M,M,M,36.00,10.00,2020-02-12 16:02,-4.77,KRAP 121634Z 36020G30KT 2SM -SN BKN013 OVC019 M10/M13 A3007 RMK AO2 PK WND 01036/1602 P0000 T11001128
BKX,2020-02-12 16:34,-96.8169,44.3048,490.28,10.40,6.80,85.05,360.00,21.00,T,29.92,M,3.00,24.00,FEW,OVC,M,M,1100.00,2900.00,M,M,-SN BR,M,M,M,M,M,M,-9.96,KBKX 121634Z AUTO 36021G24KT 3SM -SN BR FEW011 OVC029 M12/M14 A2992 RMK AO2 P0000 FZRANO
MDS,2020-02-12 16:35,-97.0859,44.0160,520.80,12.20,12.20,100.00,20.00,24.00,0.31,29.89,M,0.25,27.00,OVC,M,M,M,400.00,M,M,M,+SN,M,M,M,M,M,M,-8.65,KMDS 121635Z AUTO 02024G27KT 1/4SM +SN OVC004 M11/M11 A2989 RMK AO2 P0031
9V9,2020-02-12 16:35,-99.3183,43.7667,509.76,14.70,12.20,89.59,20.00,20.00,0.00,30.00,M,0.25,29.00,OVC,M,M,M,900.00,M,M,M,SN,M,M,M,M,M,M,-3.84,K9V9 121635Z AUTO 02020G29KT 1/4SM SN OVC009 M10/M11 A3000 RMK AO2 T10961110
SPF,2020-02-12 16:35,-103.7830,44.4803,1186.17,15.80,12.20,85.40,20.00,10.00,0.00,30.09,M,1.25,M,M,M,M,M,M,M,M,M,-SN,M,M,M,M,M,M,2.65,KSPF 121635Z AUTO 02010KT 1 1/4SM -SN M09/M11 A3009 RMK AO2
PIR,2020-02-12 16:35,-100.2860,44.3827,522.03,8.10,5.00,86.86,360.00,29.00,0.00,30.07,M,0.25,37.00,VV ,M,M,M,1500.00,M,M,M,FZFG,M,M,M,39.00,10.00,2020-02-12 16:06,-15.87,KPIR 121635Z AUTO 36029G37KT 1/4SM FZFG VV015 M13/M15 A3007 RMK AO2 PK WND 01039/1606 T11331150 PWINO FZRANO
MHE,2020-02-12 16:36,-98.0386,43.7748,395.73,16.00,12.00,83.91,360.00,25.00,T,29.96,M,0.25,39.00,BKN,OVC,M,M,1500.00,2200.00,M,M,SN FZFG,M,M,M,39.00,360.00,2020-02-12 16:27,-3.85,KMHE 121636Z AUTO 36025G39KT 1/4SM SN FZFG BKN015 OVC022 M09/M11 A2996 RMK AO2 PK WND 36039/1627 UPE02SNB17 P0000 T10891111
CUT,2020-02-12 16:37,-103.6114,43.7331,1686.81,19.90,12.90,73.83,20.00,10.00,T,29.89,M,2.00,M,BKN,OVC,M,M,2000.00,2500.00,M,M,-SN,M,M,M,M,M,M,7.79,KCUT 121637Z AUTO 02010KT 2SM -SN BKN020 OVC025 M07/M11 A2989 RMK AO2 SNB09 P0000 T10671106
ICR,2020-02-12 16:39,-99.8422,43.3903,611.93,18.00,12.90,80.09,10.00,25.00,T,29.99,M,1.25,33.00,SCT,BKN,OVC,M,900.00,2200.00,3400.00,M,-SN,M,M,M,42.00,10.00,2020-02-12 15:58,-1.14,KICR 121639Z AUTO 01025G33KT 1 1/4SM -SN SCT009 BKN022 OVC034 M08/M11 A2999 RMK AO2 PK WND 01042/1558 PRESRR P0000 T10781106 $
PIR,2020-02-12 16:40,-100.2860,44.3827,522.03,9.00,5.00,83.41,360.00,22.00,0.00,30.08,M,0.50,37.00,FEW,OVC,M,M,600.00,1700.00,M,M,FZFG,M,M,M,39.00,10.00,2020-02-12 16:06,-12.22,KPIR 121640Z AUTO 36022G37KT 1/2SM FZFG FEW006 OVC017 M13/M15 A3008 RMK AO2 PK WND 01039/1606 PRESRR T11281150 PWINO FZRANO
BKX,2020-02-12 16:41,-96.8169,44.3048,490.28,8.60,5.00,84.93,360.00,16.00,T,29.93,M,2.00,24.00,FEW,BKN,OVC,M,1100.00,2600.00,3100.00,M,-SN BR,M,M,M,M,M,M,-10.08,KBKX 121641Z AUTO 36016G24KT 2SM -SN BR FEW011 BKN026 OVC031 M13/M15 A2993 RMK AO2 P0000 FZRANO
ABR,2020-02-12 16:42,-98.4200,45.4500,395.00,3.00,-4.00,71.95,360.00,27.00,T,30.13,M,1.00,36.00,OVC,M,M,M,1200.00,M,M,M,UP,M,M,M,36.00,10.00,2020-02-12 15:56,-22.18,KABR 121642Z AUTO 36027G36KT 1SM UP OVC012 M16/M20 A3013 RMK AO2 PK WND 01036/1556 VIS 1/2V2 UPB01SNE01 PRESRR P0000 T11611200
RAP,2020-02-12 16:45,-103.0574,44.0453,964.71,12.90,8.10,80.74,10.00,23.00,T,30.08,M,1.75,M,OVC,M,M,M,1300.00,M,M,M,-SN,M,M,M,36.00,10.00,2020-02-12 16:02,-7.36,KRAP 121645Z 01023KT 1 3/4SM -SN OVC013 M11/M13 A3008 RMK AO2 PK WND 01036/1602 P0000 T11061133
FSD,2020-02-12 16:45,-96.7536,43.5769,428.94,26.10,21.00,80.75,20.00,19.00,T,29.83,M,4.00,29.00,BKN,OVC,M,M,1000.00,6000.00,M,M,-SN BLSN,M,M,M,29.00,10.00,2020-02-12 16:35,11.63,KFSD 121645Z 02019G29KT 4SM -SN BLSN BKN010 OVC060 M03/M06 A2983 RMK AO2 PK WND 01029/1635 SNB07 P0000 T10331061
RCA,2020-02-12 16:48,-103.1036,44.1451,977.43,14.00,8.60,78.68,10.00,15.00,0.00,30.08,1023.50,2.00,M,BKN,OVC,M,M,400.00,1500.00,M,M,BLSN,M,M,M,M,M,M,-2.56,KRCA 121648Z 01015KT 2SM BLSN BKN004 OVC015 M10/M13 A3008 RMK AO2A VIS 2V2 3/4 SLP235 $
MHE,2020-02-12 16:51,-98.0386,43.7748,395.73,15.80,10.40,78.84,10.00,27.00,T,29.97,M,0.25,38.00,BKN,OVC,M,M,1200.00,2200.00,M,M,SN FZFG,M,M,M,39.00,360.00,2020-02-12 16:27,-4.74,KMHE 121651Z AUTO 01027G38KT 1/4SM SN FZFG BKN012 OVC022 M09/M12 A2997 RMK AO2 PK WND 36039/1627 UPE02SNB17 P0000
ABR,2020-02-12 16:51,-98.4200,45.4500,395.00,1.40,-5.80,71.07,10.00,26.00,T,30.14,M,0.50,38.00,OVC,M,M,M,1200.00,M,M,M,UP,M,M,M,38.00,360.00,2020-02-12 16:49,-23.99,KABR 121651Z AUTO 01026G38KT 1/2SM UP OVC012 M17/M21 A3014 RMK AO2 PK WND 36038/1649 UPB01SNE01 P0000
RAP,2020-02-12 16:52,-103.0574,44.0453,964.71,12.90,8.10,80.74,10.00,22.00,T,30.09,1023.60,1.25,M,BKN,OVC,M,M,1300.00,1900.00,M,M,-SN,M,M,M,36.00,10.00,2020-02-12 16:02,-7.00,KRAP 121652Z 01022KT 1 1/4SM -SN BKN013 OVC019 M11/M13 A3009 RMK AO2 PK WND 01036/1602 SLP236 P0000 T11061133
IEN,2020-02-12 16:52,-102.5110,43.0225,1008.84,27.00,19.90,74.25,360.00,15.00,T,30.02,1019.60,6.00,25.00,BKN,BKN,OVC,M,1500.00,2100.00,3400.00,M,-SN,M,M,M,32.00,350.00,2020-02-12 15:53,14.30,KIEN 121652Z AUTO 36015G25KT 6SM -SN BKN015 BKN021 OVC034 M03/M07 A3002 RMK AO2 PK WND 35032/1553 SNB37 SLP196 P0000 T10281067
MBG,2020-02-12 16:52,-100.4078,45.5464,515.17,3.90,-7.10,59.44,10.00,15.00,0.00,30.16,1024.40,10.00,25.00,FEW,M,M,M,1500.00,M,M,M,M,M,M,M,32.00,10.00,2020-02-12 15:55,-15.65,KMBG 121652Z AUTO 01015G25KT 10SM FEW015 M16/M22 A3016 RMK AO2 PK WND 01032/1555 SLP244 T11561217
CUT,2020-02-12 16:53,-103.6114,43.7331,1686.81,19.90,12.00,70.95,350.00,9.00,T,29.89,1016.80,8.00,M,BKN,OVC,M,M,2000.00,2700.00,M,M,-SN,M,M,M,M,M,M,8.47,KCUT 121653Z AUTO 35009KT 8SM -SN BKN020 OVC027 M07/M11 A2989 RMK AO2 SNB09 SLP168 P0000 T10671111
ICR,2020-02-12 16:53,-99.8422,43.3903,611.93,17.10,12.00,80.01,360.00,23.00,T,30.02,1019.20,0.75,32.00,FEW,BKN,OVC,M,900.00,1600.00,3600.00,M,-SN,M,M,M,42.00,10.00,2020-02-12 15:58,-1.71,KICR 121653Z AUTO 36023G32KT 3/4SM -SN FEW009 BKN016 OVC036 M08/M11 A3002 RMK AO2 PK WND 01042/1558 PRESRR SLP192 P0000 T10831111 $
MHE,2020-02-12 16:53,-98.0386,43.7748,395.73,15.10,10.90,83.11,10.00,28.00,T,29.98,1016.90,0.25,38.00,BKN,OVC,M,M,1200.00,2200.00,M,M,SN FZFG,M,M,M,39.00,360.00,2020-02-12 16:27,-5.99,KMHE 121653Z AUTO 01028G38KT 1/4SM SN FZFG BKN012 OVC022 M09/M12 A2998 RMK AO2 PK WND 36039/1627 UPE02SNB17 SLP169 P0000 T10941117
ABR,2020-02-12 16:53,-98.4200,45.4500,395.00,1.90,-5.10,71.82,360.00,26.00,T,30.14,1023.30,0.75,38.00,OVC,M,M,M,1200.00,M,M,M,UP,M,M,M,38.00,360.00,2020-02-12 16:49,-23.32,KABR 121653Z AUTO 36026G38KT 3/4SM UP OVC012 M17/M21 A3014 RMK AO2 PK WND 36038/1649 UPB01SNE01 PRESRR SLP233 P0000 T11671206
PIR,2020-02-12 16:53,-100.2860,44.3827,522.03,8.10,3.90,82.58,360.00,26.00,0.00,30.10,1022.10,0.50,38.00,BKN,OVC,M,M,1500.00,3600.00,M,M,FZFG,M,M,M,40.00,360.00,2020-02-12 16:43,-14.89,KPIR 121653Z AUTO 36026G38KT 1/2SM FZFG BKN015 OVC036 M13/M16 A3010 RMK AO2 PK WND 36040/1643 PRESRR SLP221 T11331156 PWINO FZRANO
ATY,2020-02-12 16:53,-97.1547,44.9140,525.88,3.00,-0.90,83.36,360.00,26.00,T,29.97,1018.50,0.50,32.00,FEW,OVC,M,M,600.00,1100.00,M,M,FZFG,M,M,M,38.00,350.00,2020-02-12 16:23,-21.82,KATY 121653Z AUTO 36026G32KT 1/2SM FZFG FEW006 OVC011 M16/M18 A2997 RMK AO2 PK WND 35038/1623 SNE51 SLP185 P0000 T11611183
MDS,2020-02-12 16:55,-97.0859,44.0160,520.80,10.40,10.40,100.00,20.00,26.00,0.59,29.90,M,0.25,33.00,OVC,M,M,M,600.00,M,M,M,+SN,M,M,M,M,M,M,-11.77,KMDS 121655Z AUTO 02026G33KT 1/4SM +SN OVC006 M12/M12 A2990 RMK AO2 P0059
PHP,2020-02-12 16:55,-101.6000,44.0500,671.74,15.10,9.00,76.34,10.00,11.00,0.01,30.13,1022.70,9.00,24.00,OVC,M,M,M,6500.00,M,M,M,-SN,M,M,M,27.00,360.00,2020-02-12 16:16,1.11,KPHP 121655Z AUTO 01011G24KT 9SM -SN OVC065 M09/M13 A3013 RMK AO2 PK WND 36027/1616 SLP227 P0001 T10941128
9V9,2020-02-12 16:55,-99.3183,43.7667,509.76,14.90,11.30,85.34,360.00,19.00,0.00,30.02,M,1.25,28.00,OVC,M,M,M,900.00,M,M,M,-SN,M,M,M,M,M,M,-3.18,K9V9 121655Z AUTO 36019G28KT 1 1/4SM -SN OVC009 M09/M11 A3002 RMK AO2 T10951115
HON,2020-02-12 16:55,-98.2286,44.3852,384.37,8.10,3.90,82.58,360.00,21.00,T,30.05,1019.70,0.25,35.00,VV ,M,M,M,1200.00,M,M,M,SN FZFG,M,M,M,43.00,360.00,2020-02-12 16:01,-13.02,KHON 121655Z AUTO 36021G35KT 1/4SM SN FZFG VV012 M13/M16 A3005 RMK AO2 PK WND 36043/1601 SNB19 SLP197 P0000 T11331156 $
SPF,2020-02-12 16:55,-103.7830,44.4803,1186.17,14.00,12.20,92.38,20.00,15.00,0.00,30.10,M,0.75,M,M,M,M,M,M,M,M,M,-SN,M,M,M,M,M,M,-2.56,KSPF 121655Z AUTO 02015KT 3/4SM -SN M10/M11 A3010 RMK AO2
2WX,2020-02-12 16:56,-103.5464,45.6044,919.07,14.00,6.10,70.26,340.00,12.00,0.00,30.13,1024.70,M,M,M,M,M,M,M,M,M,M,M,M,M,M,M,M,M,-0.91,K2WX 121656Z AUTO 34012KT M10/M14 A3013 RMK AO1 SLP247 T11001144
8D3,2020-02-12 16:56,-96.9914,45.6689,351.81,-4.00,-9.00,78.48,350.00,25.00,0.00,30.10,1023.00,M,37.00,M,M,M,M,M,M,M,M,M,M,M,M,41.00,350.00,2020-02-12 16:09,-30.93,K8D3 121656Z AUTO 35025G37KT M20/M23 A3010 RMK AO1 PK WND 35041/1609 SLP230 T12001228
D07,2020-02-12 16:56,-102.0200,45.0300,778.50,10.90,5.00,76.62,10.00,17.00,0.00,30.12,1024.80,M,M,M,M,M,M,M,M,M,M,M,M,M,M,31.00,10.00,2020-02-12 16:07,-7.57,KD07 121656Z AUTO 01017KT M12/M15 A3012 RMK AO1 PK WND 01031/1607 SLP248 T11171150
FSD,2020-02-12 16:56,-96.7536,43.5769,428.94,23.00,19.00,84.39,30.00,19.00,T,29.85,1012.60,4.00,29.00,BKN,OVC,M,M,1000.00,6000.00,M,M,-SN BLSN,M,M,M,29.00,10.00,2020-02-12 16:35,7.54,KFSD 121656Z 03019G29KT 4SM -SN BLSN BKN010 OVC060 M05/M07 A2985 RMK AO2 PK WND 01029/1635 SNB07 SLP126 VIS SW 2 1/2 P0000 T10501072
BKX,2020-02-12 16:56,-96.8169,44.3048,490.28,8.10,3.90,82.58,360.00,16.00,T,29.93,1017.70,1.75,M,SCT,SCT,OVC,M,1300.00,2000.00,2900.00,M,-SN BR,M,M,M,M,M,M,-10.73,KBKX 121656Z AUTO 36016KT 1 3/4SM -SN BR SCT013 SCT020 OVC029 M13/M16 A2993 RMK AO2 SLP177 P0000 T11331156 FZRANO
RCA,2020-02-12 16:56,-103.1036,44.1451,977.43,13.60,7.70,76.89,10.00,16.00,T,30.09,1023.80,2.00,M,BKN,OVC,M,M,400.00,1700.00,M,M,BLSN,M,M,M,32.00,350.00,2020-02-12 16:05,-3.56,KRCA 121656Z 01016KT 2SM BLSN BKN004 OVC017 M10/M13 A3009 RMK AO2A PK WND 35032/05 CIG 003 RWY13 SLP238 P0000 T11021135 $
YKN,2020-02-12 16:56,-97.3859,42.9167,389.54,35.10,24.10,63.86,320.00,16.00,0.00,29.83,1012.50,10.00,M,OVC,M,M,M,8000.00,M,M,M,M,M,M,M,M,M,M,24.46,KYKN 121656Z AUTO 32016KT 10SM OVC080 02/M04 A2983 RMK AO2 SLP125 T00171044 FZRANO
ICR,2020-02-12 17:01,-99.8422,43.3903,611.93,16.00,10.90,79.92,360.00,22.00,T,30.03,M,0.50,33.00,FEW,BKN,OVC,M,800.00,1300.00,2300.00,M,SN,M,M,M,33.00,360.00,2020-02-12 16:56,-2.85,KICR 121701Z AUTO 36022G33KT 1/2SM SN FEW008 BKN013 OVC023 M09/M12 A3003 RMK AO2 PK WND 36033/1656 P0000 T10891117 $
IEN,2020-02-12 17:01,-102.5110,43.0225,1008.84,26.10,19.90,77.06,20.00,19.00,T,30.03,M,5.00,26.00,BKN,BKN,OVC,M,1300.00,2100.00,3400.00,M,-SN,M,M,M,26.00,20.00,2020-02-12 17:01,11.63,KIEN 121701Z AUTO 02019G26KT 5SM -SN BKN013 BKN021 OVC034 M03/M07 A3003 RMK AO2 PK WND 02026/1701 P0000 T10331067
PIR,2020-02-12 17:02,-100.2860,44.3827,522.03,8.10,3.90,82.58,350.00,22.00,0.00,30.12,M,0.50,35.00,FEW,OVC,M,M,600.00,1400.00,M,M,FZFG,M,M,M,35.00,350.00,2020-02-12 16:57,-13.42,KPIR 121702Z AUTO 35022G35KT 1/2SM FZFG FEW006 OVC014 M13/M16 A3012 RMK AO2 PK WND 35035/1657 T11331156 PWINO FZRANO
RAP,2020-02-12 17:05,-103.0574,44.0453,964.71,12.90,8.10,80.74,10.00,19.00,T,30.10,M,1.50,27.00,OVC,M,M,M,1800.00,M,M,M,-SN,M,M,M,27.00,10.00,2020-02-12 16:57,-5.82,KRAP 121705Z 01019G27KT 1 1/2SM -SN OVC018 M11/M13 A3010 RMK AO2 PK WND 01027/1657 P0000 T11061133
HON,2020-02-12 17:06,-98.2286,44.3852,384.37,7.00,3.00,83.27,10.00,22.00,T,30.06,M,0.50,37.00,FEW,OVC,M,M,800.00,1300.00,M,M,-SN FZFG,M,M,M,37.00,10.00,2020-02-12 16:59,-14.90,KHON 121706Z AUTO 01022G37KT 1/2SM -SN FZFG FEW008 OVC013 M14/M16 A3006 RMK AO2 PK WND 01037/1659 P0000 T11391161 $
RCA,2020-02-12 17:06,-103.1036,44.1451,977.43,14.00,8.60,78.68,10.00,14.00,0.00,30.10,1024.10,1.75,18.00,SCT,OVC,M,M,400.00,1900.00,M,M,BLSN,M,M,M,M,M,M,-2.04,KRCA 121706Z 01014G18KT 1 3/4SM BLSN SCT004 OVC019 M10/M13 A3010 RMK AO2A CIG 004V019 CIG 003 RWY13 SLP241 $
ABR,2020-02-12 17:06,-98.4200,45.4500,395.00,1.00,-7.10,67.99,10.00,24.00,T,30.16,M,1.00,36.00,VV ,M,M,M,1300.00,M,M,M,BLSN,M,M,M,36.00,10.00,2020-02-12 16:59,-23.76,KABR 121706Z AUTO 01024G36KT 1SM BLSN VV013 M17/M22 A3016 RMK AO2 PK WND 01036/1659 UPE02 PRESRR P0000 T11721217
BKX,2020-02-12 17:08,-96.8169,44.3048,490.28,8.60,3.20,78.18,10.00,19.00,T,29.93,M,1.00,30.00,FEW,SCT,OVC,M,1400.00,2600.00,3500.00,M,-SN BR,M,M,M,30.00,350.00,2020-02-12 17:01,-11.51,KBKX 121708Z AUTO 01019G30KT 1SM -SN BR FEW014 SCT026 OVC035 M13/M16 A2993 RMK AO2 PK WND 35030/1701 P0000 FZRANO RVRNO
RCA,2020-02-12 17:11,-103.1036,44.1451,977.43,14.00,8.60,78.68,20.00,12.00,0.00,30.10,1024.10,1.50,M,SCT,OVC,M,M,400.00,1900.00,M,M,BLSN,M,M,M,M,M,M,-0.91,KRCA 121711Z 02012KT 1 1/2SM BLSN SCT004 OVC019 M10/M13 A3010 RMK AO2A CIG 003 RWY13 SLP241 $
MDS,2020-02-12 17:15,-97.0859,44.0160,520.80,10.40,10.40,100.00,10.00,26.00,0.05,29.91,M,0.50,31.00,OVC,M,M,M,600.00,M,M,M,-RA,M,M,M,M,M,M,-11.77,KMDS 121715Z AUTO 01026G31KT 1/2SM -RA OVC006 M12/M12 A2991 RMK AO2 P0005
9V9,2020-02-12 17:15,-99.3183,43.7667,509.76,13.80,10.00,84.51,360.00,20.00,0.00,30.04,M,2.00,29.00,BKN,OVC,M,M,900.00,1500.00,M,M,-SN,M,M,M,M,M,M,-5.03,K9V9 121715Z AUTO 36020G29KT 2SM -SN BKN009 OVC015 M10/M12 A3004 RMK AO2 VIS 1V5 T11011122
SPF,2020-02-12 17:15,-103.7830,44.4803,1186.17,14.00,10.40,85.28,350.00,7.00,0.00,30.12,M,1.25,14.00,M,M,M,M,M,M,M,M,-SN,M,M,M,M,M,M,2.84,KSPF 121715Z AUTO 35007G14KT 1 1/4SM -SN M10/M12 A3012 RMK AO2
RCA,2020-02-12 17:16,-103.1036,44.1451,977.43,14.00,8.60,78.68,10.00,13.00,0.00,30.11,1024.50,1.25,M,FEW,OVC,M,M,300.00,1700.00,M,M,BLSN,M,M,M,M,M,M,-1.49,KRCA 121716Z 01013KT 1 1/4SM BLSN FEW003 OVC017 M10/M13 A3011 RMK AO2A VIS 1 1/4V1 3/4 CIG 003 RWY13 SLP245 $
ABR,2020-02-12 17:16,-98.4200,45.4500,395.00,1.00,-7.10,67.99,10.00,24.00,T,30.17,M,1.50,34.00,BKN,M,M,M,1300.00,M,M,M,BLSN,M,M,M,36.00,10.00,2020-02-12 16:59,-23.76,KABR 121716Z AUTO 01024G34KT 1 1/2SM BLSN BKN013 M17/M22 A3017 RMK AO2 PK WND 01036/1659 UPE02 P0000 T11721217
BKX,2020-02-12 17:17,-96.8169,44.3048,490.28,6.80,3.20,84.80,10.00,20.00,T,29.94,M,0.75,30.00,FEW,BKN,OVC,M,1600.00,2500.00,3500.00,M,-SN BR,M,M,M,30.00,10.00,2020-02-12 17:14,-14.33,KBKX 121717Z AUTO 01020G30KT 3/4SM -SN BR FEW016 BKN025 OVC035 M14/M16 A2994 RMK AO2 PK WND 01030/1714 P0000 FZRANO RVRNO
ICR,2020-02-12 17:21,-99.8422,43.3903,611.93,16.00,10.00,76.77,10.00,21.00,T,30.04,M,1.75,30.00,FEW,BKN,OVC,M,700.00,1200.00,2800.00,M,-SN,M,M,M,33.00,360.00,2020-02-12 16:56,-2.49,KICR 121721Z AUTO 01021G30KT 1 3/4SM -SN FEW007 BKN012 OVC028 M09/M12 A3004 RMK AO2 PK WND 36033/1656 P0000 T10891122 $
RAP,2020-02-12 17:26,-103.0574,44.0453,964.71,12.90,8.10,80.74,30.00,15.00,T,30.13,M,0.75,24.00,VV ,M,M,M,1500.00,M,M,M,-SN,M,M,M,27.00,10.00,2020-02-12 16:57,-3.98,KRAP 121726Z 03015G24KT 3/4SM -SN VV015 M11/M13 A3013 RMK AO2 PK WND 01027/1657 PRESRR P0000 T11061133 RVRNO
ATY,2020-02-12 17:26,-97.1547,44.9140,525.88,1.90,-2.00,83.28,360.00,22.00,T,29.99,M,1.00,31.00,VV ,M,M,M,1000.00,M,M,M,BR,M,M,M,36.00,360.00,2020-02-12 16:59,-21.73,KATY 121726Z AUTO 36022G31KT 1SM BR VV010 M17/M19 A2999 RMK AO2 PK WND 36036/1659 SNB03E12 P0000 T11671189
ABR,2020-02-12 17:28,-98.4200,45.4500,395.00,0.00,-7.10,71.25,360.00,26.00,T,30.18,M,0.75,35.00,VV ,M,M,M,1300.00,M,M,M,BLSN,M,M,M,36.00,10.00,2020-02-12 16:59,-25.90,KABR 121728Z AUTO 36026G35KT 3/4SM BLSN VV013 M18/M22 A3018 RMK AO2 PK WND 01036/1659 UPE02 P0000 T11781217
PIR,2020-02-12 17:28,-100.2860,44.3827,522.03,6.10,1.90,82.43,360.00,26.00,0.00,30.14,M,0.75,35.00,FEW,BKN,OVC,M,700.00,1900.00,4600.00,M,BR,M,M,M,35.00,360.00,2020-02-12 17:21,-17.61,KPIR 121728Z AUTO 36026G35KT 3/4SM BR FEW007 BKN019 OVC046 M14/M17 A3014 RMK AO2 PK WND 36035/1721 T11441167 PWINO FZRANO
MBG,2020-02-12 17:31,-100.4078,45.5464,515.17,1.90,-9.00,59.42,10.00,20.00,0.00,30.20,M,7.00,29.00,SCT,M,M,M,1500.00,M,M,M,M,M,M,M,29.00,350.00,2020-02-12 17:23,-20.84,KMBG 121731Z AUTO 01020G29KT 7SM SCT015 M17/M23 A3020 RMK AO2 PK WND 35029/1723 T11671228
RCA,2020-02-12 17:31,-103.1036,44.1451,977.43,14.00,10.40,85.28,10.00,10.00,0.00,30.12,1024.80,1.38,M,SCT,M,M,M,500.00,M,M,M,BLSN,M,M,M,M,M,M,0.40,KRCA 121731Z 01010KT 1 3/8SM BLSN SCT005 M10/M12 A3012 RMK AO2A SLP248 $
MDS,2020-02-12 17:35,-97.0859,44.0160,520.80,8.60,8.60,100.00,20.00,22.00,0.06,29.93,M,1.00,30.00,OVC,M,M,M,600.00,M,M,M,-SN,M,M,M,M,M,M,-12.76,KMDS 121735Z AUTO 02022G30KT 1SM -SN OVC006 M13/M13 A2993 RMK AO2 P0006
9V9,2020-02-12 17:35,-99.3183,43.7667,509.76,12.20,7.90,82.52,10.00,19.00,0.00,30.07,M,0.75,32.00,OVC,M,M,M,900.00,M,M,M,-SN,M,M,M,M,M,M,-6.75,K9V9 121735Z AUTO 01019G32KT 3/4SM -SN OVC009 M11/M13 A3007 RMK AO2 T11101134
SPF,2020-02-12 17:35,-103.7830,44.4803,1186.17,14.00,10.40,85.28,0.00,0.00,0.00,30.13,M,2.00,M,M,M,M,M,M,M,M,M,-SN,M,M,M,M,M,M,M,KSPF 121735Z AUTO 00000KT 2SM -SN M10/M12 A3013 RMK AO2
RAP,2020-02-12 17:36,-103.0574,44.0453,964.71,14.00,9.00,80.10,20.00,11.00,T,30.14,M,0.75,M,VV ,M,M,M,1400.00,M,M,M,-SN,M,M,M,27.00,10.00,2020-02-12 16:57,-0.28,KRAP 121736Z 02011KT 3/4SM -SN VV014 M10/M13 A3014 RMK AO2 PK WND 01027/1657 P0000 T11001128 RVRNO
RCA,2020-02-12 17:36,-103.1036,44.1451,977.43,14.00,10.40,85.28,10.00,11.00,0.00,30.13,1024.90,1.38,M,FEW,OVC,M,M,500.00,1400.00,M,M,-SN,M,M,M,M,M,M,-0.28,KRCA 121736Z 01011KT 1 3/8SM -SN FEW005 OVC014 M10/M12 A3013 RMK AO2A CIG 003 RWY13 SLP249 $
ABR,2020-02-12 17:38,-98.4200,45.4500,395.00,1.00,-7.10,67.99,360.00,22.00,T,30.18,M,1.50,35.00,BKN,M,M,M,1400.00,M,M,M,BLSN,M,M,M,36.00,10.00,2020-02-12 16:59,-22.93,KABR 121738Z AUTO 36022G35KT 1 1/2SM BLSN BKN014 M17/M22 A3018 RMK AO2 PK WND 01036/1659 UPE02B31E33 P0000 T11721217
ATY,2020-02-12 17:40,-97.1547,44.9140,525.88,1.00,-2.90,83.21,350.00,23.00,T,29.99,M,0.75,33.00,FEW,OVC,M,M,800.00,1200.00,M,M,BR,M,M,M,36.00,360.00,2020-02-12 16:59,-23.36,KATY 121740Z AUTO 35023G33KT 3/4SM BR FEW008 OVC012 M17/M19 A2999 RMK AO2 PK WND 36036/1659 SNB03E12 P0000 T11721194
BKX,2020-02-12 17:41,-96.8169,44.3048,490.28,6.80,1.40,78.01,360.00,20.00,T,29.95,M,0.50,29.00,BKN,OVC,M,M,1600.00,2300.00,M,M,-SN FZFG,M,M,M,30.00,10.00,2020-02-12 17:14,-14.33,KBKX 121741Z AUTO 36020G29KT 1/2SM -SN FZFG BKN016 OVC023 M14/M17 A2995 RMK AO2 PK WND 01030/1714 P0000 FZRANO RVRNO
RCA,2020-02-12 17:41,-103.1036,44.1451,977.43,14.00,10.40,85.28,360.00,13.00,0.00,30.13,1024.90,1.12,M,FEW,OVC,M,M,500.00,1400.00,M,M,-SN,M,M,M,M,M,M,-1.49,KRCA 121741Z 36013KT 1 1/8SM -SN FEW005 OVC014 M10/M12 A3013 RMK AO2A CIG 003 RWY13 SLP249 $
CUT,2020-02-12 17:44,-103.6114,43.7331,1686.81,17.10,10.90,76.20,70.00,11.00,T,29.93,M,1.75,17.00,OVC,M,M,M,1900.00,M,M,M,-SN,M,M,M,M,M,M,3.64,KCUT 121744Z AUTO 07011G17KT 1 3/4SM -SN OVC019 M08/M12 A2993 RMK AO2 SNE01B38 P0000 T10831117
PIR,2020-02-12 17:44,-100.2860,44.3827,522.03,7.00,1.90,79.13,360.00,20.00,0.00,30.17,M,1.75,30.00,FEW,BKN,OVC,M,800.00,2800.00,5500.00,M,HZ,M,M,M,36.00,360.00,2020-02-12 17:30,-14.07,KPIR 121744Z AUTO 36020G30KT 1 3/4SM HZ FEW008 BKN028 OVC055 M14/M17 A3017 RMK AO2 PK WND 36036/1730 PRESRR T11391167 PWINO FZRANO
RCA,2020-02-12 17:51,-103.1036,44.1451,977.43,15.80,10.40,78.84,350.00,14.00,0.00,30.14,1024.90,1.38,M,SCT,OVC,M,M,500.00,1400.00,M,M,-SN,M,M,M,M,M,M,0.28,KRCA 121751Z 35014KT 1 3/8SM -SN SCT005 OVC014 M09/M12 A3014 RMK AO2A CIG 003 RWY13 SLP249 $
RAP,2020-02-12 17:52,-103.0574,44.0453,964.71,14.00,10.00,83.77,10.00,12.00,T,30.15,1025.20,0.50,M,VV ,M,M,M,1300.00,M,M,M,SN FZFG,M,M,M,27.00,10.00,2020-02-12 16:57,-0.91,KRAP 121752Z 01012KT 1/2SM SN FZFG VV013 M10/M12 A3015 RMK AO2 PK WND 01027/1657 SLP252 P0000 60000 T11001122 10000 21106 51067 RVRNO
IEN,2020-02-12 17:52,-102.5110,43.0225,1008.84,21.90,15.10,74.69,360.00,15.00,T,30.08,1022.10,4.00,26.00,OVC,M,M,M,1600.00,M,M,M,-SN,M,M,M,29.00,10.00,2020-02-12 17:21,7.69,KIEN 121752Z AUTO 36015G26KT 4SM -SN OVC016 M06/M09 A3008 RMK AO2 PK WND 01029/1721 SLP221 P0000 60000 T10561094 10006 21056 53058
MBG,2020-02-12 17:52,-100.4078,45.5464,515.17,3.00,-8.00,59.30,350.00,18.00,0.00,30.22,1026.50,9.00,26.00,SCT,M,M,M,4500.00,M,M,M,M,M,M,M,30.00,350.00,2020-02-12 17:41,-18.43,KMBG 121752Z AUTO 35018G26KT 9SM SCT045 M16/M22 A3022 RMK AO2 PK WND 35030/1741 SLP265 60002 T11611222 11033 21167 51062
HON,2020-02-12 17:52,-98.2286,44.3852,384.37,5.00,1.40,84.68,360.00,25.00,0.00,30.09,M,0.50,35.00,VV ,M,M,M,900.00,M,M,M,-SN FZFG,M,M,M,M,M,M,-18.74,KHON 121752Z AUTO 36025G35KT 1/2SM -SN FZFG VV009 M15/M17 A3009
CUT,2020-02-12 17:53,-103.6114,43.7331,1686.81,16.00,10.90,79.92,M,6.00,T,29.94,1018.70,0.75,17.00,OVC,M,M,M,1800.00,M,M,M,-SN,M,M,M,M,M,M,6.26,KCUT 121753Z AUTO VRB06G17KT 3/4SM -SN OVC018 M09/M12 A2994 RMK AO2 SNE01B38 SLP187 P0000 60000 T10891117 11039 21089 51042
ICR,2020-02-12 17:53,-99.8422,43.3903,611.93,15.10,9.00,76.34,360.00,23.00,T,30.08,1021.30,1.00,29.00,BKN,OVC,M,M,1200.00,1700.00,M,M,-SN,M,M,T,33.00,360.00,2020-02-12 16:56,-4.40,KICR 121753Z AUTO 36023G29KT 1SM -SN BKN012 OVC017 M09/M13 A3008 RMK AO2 PK WND 36033/1656 SLP213 P0000 60000 I6000 T10941128 10028 21094 51097 $
MHE,2020-02-12 17:53,-98.0386,43.7748,395.73,10.00,5.00,79.76,350.00,24.00,T,30.04,1019.30,0.25,38.00,VV ,M,M,M,1000.00,M,M,M,+SN,M,M,M,38.00,350.00,2020-02-12 17:49,-11.62,KMHE 121753Z AUTO 35024G38KT 1/4SM +SN VV010 M12/M15 A3004 RMK AO2 PK WND 35038/1749 SLP193 P0000 60000 T11221150 10011 21122 51045
ABR,2020-02-12 17:53,-98.4200,45.4500,395.00,0.00,-8.00,68.19,360.00,26.00,T,30.19,1025.10,1.25,36.00,BKN,M,M,M,1300.00,M,M,M,BLSN,M,M,M,36.00,360.00,2020-02-12 17:51,-25.90,KABR 121753Z AUTO 36026G36KT 1 1/4SM BLSN BKN013 M18/M22 A3019 RMK AO2 PK WND 36036/1751 VIS 3/4V2 UPE02B31E33 SLP251 P0000 60006 T11781222 11011 21178 51040
PIR,2020-02-12 17:53,-100.2860,44.3827,522.03,5.00,-0.90,76.03,360.00,24.00,0.00,30.18,1024.80,1.00,35.00,FEW,SCT,OVC,M,900.00,2800.00,5000.00,M,HZ,M,M,M,36.00,360.00,2020-02-12 17:30,-18.37,KPIR 121753Z AUTO 36024G35KT 1SM HZ FEW009 SCT028 OVC050 M15/M18 A3018 RMK AO2 PK WND 36036/1730 PRESRR SLP248 60002 T11501183 10011 21150 51085 PWINO FZRANO
ATY,2020-02-12 17:53,-97.1547,44.9140,525.88,1.00,-4.00,78.95,360.00,22.00,T,30.00,1019.30,1.25,31.00,FEW,BKN,OVC,M,800.00,1200.00,4500.00,M,HZ,M,M,M,36.00,360.00,2020-02-12 16:59,-22.93,KATY 121753Z AUTO 36022G31KT 1 1/4SM HZ FEW008 BKN012 OVC045 M17/M20 A3000 RMK AO2 PK WND 36036/1659 SNB03E12 SLP193 P0000 60000 T11721200 11028 21172 51053
MDS,2020-02-12 17:55,-97.0859,44.0160,520.80,8.60,8.60,100.00,10.00,19.00,0.07,29.94,M,0.75,M,OVC,M,M,M,800.00,M,M,M,-SN,M,M,M,M,M,M,-11.51,KMDS 121755Z AUTO 01019KT 3/4SM -SN OVC008 M13/M13 A2994 RMK AO2 P0007
PHP,2020-02-12 17:55,-101.6000,44.0500,671.74,14.00,8.10,76.92,360.00,21.00,T,30.18,1024.70,9.00,27.00,OVC,M,M,M,3400.00,M,M,M,UP,M,M,M,27.00,360.00,2020-02-12 17:51,-5.15,KPHP 121755Z AUTO 36021G27KT 9SM UP OVC034 M10/M13 A3018 RMK AO2 PK WND 36027/1751 UPB05E07B50SNE05B07E50 SLP247 P0000 60003 T11001133 10028 21106 53043
9V9,2020-02-12 17:55,-99.3183,43.7667,509.76,12.70,9.50,86.74,360.00,21.00,0.00,30.09,M,0.75,27.00,OVC,M,M,M,900.00,M,M,M,-SN,M,M,M,M,M,M,-6.89,K9V9 121755Z AUTO 36021G27KT 3/4SM -SN OVC009 M11/M12 A3009 RMK AO2 T11071125 10017 21112
HON,2020-02-12 17:55,-98.2286,44.3852,384.37,5.00,1.00,83.12,360.00,27.00,T,30.09,1021.20,0.50,36.00,VV ,M,M,M,900.00,M,M,M,-SN FZFG,M,M,M,37.00,10.00,2020-02-12 16:59,-19.46,KHON 121755Z AUTO 36027G36KT 1/2SM -SN FZFG VV009 M15/M17 A3009 RMK AO2 PK WND 01037/1659 SLP212 P0000 60000 T11501172 11017 21150 50040 $
SPF,2020-02-12 17:55,-103.7830,44.4803,1186.17,14.00,8.60,78.68,340.00,9.00,0.00,30.14,M,2.00,M,M,M,M,M,M,M,M,M,-SN,M,M,M,M,M,M,1.13,KSPF 121755Z AUTO 34009KT 2SM -SN M10/M13 A3014 RMK AO2 VIS 1 1/4V3
2WX,2020-02-12 17:56,-103.5464,45.6044,919.07,15.10,7.00,69.75,330.00,13.00,0.00,30.16,1025.80,M,20.00,M,M,M,M,M,M,M,M,M,M,M,M,M,M,M,-0.08,K2WX 121756Z AUTO 33013G20KT M09/M14 A3016 RMK AO1 SLP258 T10941139 11028 21117 51038
8D3,2020-02-12 17:56,-96.9914,45.6689,351.81,-5.10,-11.00,74.97,340.00,26.00,0.00,30.15,1024.70,M,36.00,M,M,M,M,M,M,M,M,M,M,M,M,39.00,340.00,2020-02-12 17:13,-32.82,K8D3 121756Z AUTO 34026G36KT M21/M24 A3015 RMK AO1 PK WND 34039/1713 SLP247 T12061239 11083 21211 51067
D07,2020-02-12 17:56,-102.0200,45.0300,778.50,9.00,1.90,72.30,360.00,20.00,0.00,30.17,1026.40,M,M,M,M,M,M,M,M,M,M,M,M,M,M,26.00,350.00,2020-02-12 17:39,-11.41,KD07 121756Z AUTO 36020KT M13/M17 A3017 RMK AO1 PK WND 35026/1739 SLP264 60001 T11281167 11011 21139 53051
FSD,2020-02-12 17:56,-96.7536,43.5769,428.94,16.00,9.00,73.41,10.00,20.00,T,29.93,1015.50,5.00,28.00,SCT,OVC,M,M,1400.00,2100.00,M,M,-SN BLSN,M,M,M,30.00,10.00,2020-02-12 17:40,-2.11,KFSD 121756Z 01020G28KT 5SM -SN BLSN SCT014 OVC021 M09/M13 A2993 RMK AO2 PK WND 01030/1740 SLP155 P0000 60000 T10891128 10006 21089 53061
BKX,2020-02-12 17:56,-96.8169,44.3048,490.28,5.00,1.00,83.12,10.00,22.00,T,29.96,1018.90,0.50,27.00,BKN,OVC,M,M,1400.00,2300.00,M,M,SN FZFG,M,M,M,30.00,10.00,2020-02-12 17:14,-17.58,KBKX 121756Z AUTO 01022G27KT 1/2SM SN FZFG BKN014 OVC023 M15/M17 A2996 RMK AO2 PK WND 01030/1714 SLP189 P0000 60000 T11501172 11011 21150 53028 FZRANO RVRNO
RCA,2020-02-12 17:56,-103.1036,44.1451,977.43,15.10,9.70,78.78,350.00,13.00,T,30.14,1024.90,1.50,M,FEW,OVC,M,M,400.00,1400.00,M,M,-SN,M,M,M,M,M,M,-0.08,KRCA 121756Z 35013KT 1 1/2SM -SN FEW004 OVC014 M09/M12 A3014 RMK CIG 003 RWY13 SLP249 P0000 60000 T10941124 10000 21104 52061 $
YKN,2020-02-12 17:56,-97.3859,42.9167,389.54,33.10,26.10,75.18,340.00,20.00,T,29.87,1014.00,10.00,M,FEW,OVC,M,M,1900.00,4200.00,M,M,-RA,M,M,M,26.00,340.00,2020-02-12 17:39,20.60,KYKN 121756Z AUTO 34020KT 10SM -RA FEW019 OVC042 01/M03 A2987 RMK AO2 PK WND 34026/1739 RAB56 SLP140 P0000 60000 T00061033 10022 21011 51030 FZRANO
PIR,2020-02-12 18:00,-100.2860,44.3827,522.03,5.00,0.00,79.32,360.00,21.00,0.00,30.19,M,3.00,30.00,SCT,SCT,BKN,M,900.00,2800.00,5000.00,M,HZ,M,M,M,29.00,350.00,2020-02-12 18:00,-17.16,KPIR 121800Z AUTO 36021G30KT 3SM HZ SCT009 SCT028 BKN050 M15/M18 A3019 RMK AO2 PK WND 35029/1800 T11501178 PWINO FZRANO
RCA,2020-02-12 18:01,-103.1036,44.1451,977.43,15.80,10.40,78.84,350.00,13.00,0.00,30.14,1025.20,1.62,M,FEW,OVC,M,M,400.00,1400.00,M,M,-SN,M,M,M,M,M,M,0.81,KRCA 121801Z 35013KT 1 5/8SM -SN FEW004 OVC014 M09/M12 A3014 RMK AO2A CIG 003 RWY13 SLP252 $
CUT,2020-02-12 18:02,-103.6114,43.7331,1686.81,16.00,10.90,79.92,50.00,9.00,T,29.95,M,1.50,M,OVC,M,M,M,1800.00,M,M,M,-SN,M,M,M,M,M,M,3.62,KCUT 121802Z AUTO 05009KT 1 1/2SM -SN OVC018 M09/M12 A2995 RMK AO2 P0000 T10891117
PIR,2020-02-12 18:02,-100.2860,44.3827,522.03,6.10,0.00,75.43,350.00,26.00,0.00,30.19,M,2.50,35.00,SCT,BKN,BKN,M,900.00,2200.00,5000.00,M,HZ,M,M,M,35.00,360.00,2020-02-12 18:02,-17.61,KPIR 121802Z AUTO 35026G35KT 2 1/2SM HZ SCT009 BKN022 BKN050 M14/M18 A3019 RMK AO2 PK WND 36035/1802 VIS 1 1/4V5 T11441178 PWINO FZRANO
RCA,2020-02-12 18:06,-103.1036,44.1451,977.43,15.80,10.40,78.84,360.00,14.00,0.00,30.15,1025.60,1.50,M,FEW,OVC,M,M,400.00,1400.00,M,M,-SN,M,M,M,M,M,M,0.28,KRCA 121806Z 36014KT 1 1/2SM -SN FEW004 OVC014 M09/M12 A3015 RMK AO2A CIG 003 RWY13 SLP256 $
ATY,2020-02-12 18:09,-97.1547,44.9140,525.88,0.00,-5.10,78.48,360.00,25.00,0.00,30.01,M,0.50,33.00,BKN,OVC,M,M,800.00,1300.00,M,M,HZ,M,M,M,33.00,350.00,2020-02-12 18:04,-25.51,KATY 121809Z AUTO 36025G33KT 1/2SM HZ BKN008 OVC013 M18/M21 A3001 RMK AO2 PK WND 35033/1804 T11781206
RCA,2020-02-12 18:11,-103.1036,44.1451,977.43,15.80,10.40,78.84,360.00,15.00,0.00,30.15,1025.60,1.38,M,FEW,OVC,M,M,400.00,1400.00,M,M,-SN,M,M,M,M,M,M,-0.22,KRCA 121811Z 36015KT 1 3/8SM -SN FEW004 OVC014 M09/M12 A3015 RMK AO2A CIG 003 RWY13 SLP256 $
HON,2020-02-12 18:14,-98.2286,44.3852,384.37,3.20,-0.40,84.56,360.00,25.00,0.00,30.10,M,0.25,40.00,VV ,M,M,M,900.00,M,M,M,FZFG BLSN,M,M,M,M,M,M,-21.18,KHON 121814Z AUTO 36025G40KT 1/4SM FZFG BLSN VV009 M16/M18 A3010
PIR,2020-02-12 18:14,-100.2860,44.3827,522.03,5.00,-2.00,72.18,360.00,23.00,0.00,30.20,M,2.00,34.00,FEW,BKN,M,M,900.00,5000.00,M,M,HZ,M,M,M,35.00,360.00,2020-02-12 18:02,-17.98,KPIR 121814Z AUTO 36023G34KT 2SM HZ FEW009 BKN050 M15/M19 A3020 RMK AO2 PK WND 36035/1802 VIS 1 1/4V4 T11501189 PWINO FZRANO
MDS,2020-02-12 18:15,-97.0859,44.0160,520.80,8.60,8.60,100.00,10.00,24.00,0.03,29.95,M,0.50,30.00,OVC,M,M,M,800.00,M,M,M,SN,M,M,M,M,M,M,-13.51,KMDS 121815Z AUTO 01024G30KT 1/2SM SN OVC008 M13/M13 A2995 RMK AO2 P0003
9V9,2020-02-12 18:15,-99.3183,43.7667,509.76,12.60,8.40,82.92,360.00,22.00,0.00,30.09,M,0.75,28.00,OVC,M,M,M,1000.00,M,M,M,-SN,M,M,M,M,M,M,-7.40,K9V9 121815Z AUTO 36022G28KT 3/4SM -SN OVC010 M11/M13 A3009 RMK AO2 T11081131
SPF,2020-02-12 18:15,-103.7830,44.4803,1186.17,14.00,8.60,78.68,340.00,5.00,0.00,30.14,M,1.00,M,SCT,SCT,M,M,1400.00,2100.00,M,M,-SN,M,M,M,M,M,M,5.02,KSPF 121815Z AUTO 34005KT 1SM -SN SCT014 SCT021 M10/M13 A3014 RMK AO2
RCA,2020-02-12 18:16,-103.1036,44.1451,977.43,15.80,10.40,78.84,360.00,15.00,0.00,30.15,1025.60,1.62,M,SCT,OVC,M,M,400.00,1700.00,M,M,-SN,M,M,M,M,M,M,-0.22,KRCA 121816Z 36015KT 1 5/8SM -SN SCT004 OVC017 M09/M12 A3015 RMK AO2A CIG 003 RWY13 SLP256 $
ICR,2020-02-12 18:17,-99.8422,43.3903,611.93,15.10,8.10,73.31,350.00,22.00,T,30.10,M,1.50,32.00,SCT,OVC,M,M,1200.00,2100.00,M,M,-SN,M,M,M,32.00,360.00,2020-02-12 18:08,-4.05,KICR 121817Z AUTO 35022G32KT 1 1/2SM -SN SCT012 OVC021 M09/M13 A3010 RMK AO2 PK WND 36032/1808 P0000 T10941133 $
ABR,2020-02-12 18:18,-98.4200,45.4500,395.00,-0.90,-9.90,64.81,360.00,25.00,T,30.21,M,3.00,35.00,BKN,M,M,M,1200.00,M,M,M,HZ,M,M,M,36.00,360.00,2020-02-12 17:58,-26.73,KABR 121818Z AUTO 36025G35KT 3SM HZ BKN012 M18/M23 A3021 RMK AO2 PK WND 36036/1758 UPB00E18 P0000 T11831233
RCA,2020-02-12 18:21,-103.1036,44.1451,977.43,15.80,10.40,78.84,360.00,12.00,0.00,30.15,1025.60,1.88,M,SCT,OVC,M,M,400.00,1700.00,M,M,-SN,M,M,M,M,M,M,1.38,KRCA 121821Z 36012KT 1 7/8SM -SN SCT004 OVC017 M09/M12 A3015 RMK AO2A VIS 1 3/8V1 7/8 CIG 003 RWY13 SLP256 $
BKX,2020-02-12 18:22,-96.8169,44.3048,490.28,3.20,-0.40,84.56,360.00,19.00,T,29.98,M,0.50,27.00,BKN,BKN,OVC,M,1200.00,1800.00,2800.00,M,-SN FZFG,M,M,M,27.00,360.00,2020-02-12 18:18,-18.65,KBKX 121822Z AUTO 36019G27KT 1/2SM -SN FZFG BKN012 BKN018 OVC028 M16/M18 A2998 RMK AO2 PK WND 36027/1818 P0000 FZRANO RVRNO
YKN,2020-02-12 18:22,-97.3859,42.9167,389.54,28.40,23.00,79.92,350.00,21.00,T,29.90,M,10.00,28.00,BKN,OVC,M,M,1100.00,1900.00,M,M,-SN,M,M,M,32.00,350.00,2020-02-12 18:08,14.05,KYKN 121822Z AUTO 35021G28KT 10SM -SN BKN011 OVC019 M02/M05 A2990 RMK AO2 PK WND 35032/1808 RAE05UPB05E15SNB15 PRESRR P0000 FZRANO
PIR,2020-02-12 18:24,-100.2860,44.3827,522.03,5.00,-2.00,72.18,350.00,23.00,0.00,30.20,M,4.00,31.00,FEW,BKN,M,M,1100.00,5000.00,M,M,HZ,M,M,M,35.00,360.00,2020-02-12 18:02,-17.98,KPIR 121824Z AUTO 35023G31KT 4SM HZ FEW011 BKN050 M15/M19 A3020 RMK AO2 PK WND 36035/1802 T11501189 PWINO FZRANO
RCA,2020-02-12 18:26,-103.1036,44.1451,977.43,15.80,10.40,78.84,360.00,12.00,0.00,30.15,1025.60,2.00,M,BKN,OVC,M,M,300.00,1700.00,M,M,-SN,M,M,M,M,M,M,1.38,KRCA 121826Z 36012KT 2SM -SN BKN003 OVC017 M09/M12 A3015 RMK AO2A CIG 003V017 SLP256 $
ABR,2020-02-12 18:26,-98.4200,45.4500,395.00,-2.00,-9.90,68.27,10.00,26.00,T,30.21,M,1.75,35.00,BKN,M,M,M,1200.00,M,M,M,UP,M,M,M,36.00,360.00,2020-02-12 17:58,-28.61,KABR 121826Z AUTO 01026G35KT 1 3/4SM UP BKN012 M19/M23 A3021 RMK AO2 PK WND 36036/1758 VIS 1V4 UPB00E18B20 P0000 T11891233
RAP,2020-02-12 18:27,-103.0574,44.0453,964.71,15.10,10.00,79.84,360.00,12.00,T,30.16,M,1.00,M,VV ,M,M,M,1300.00,M,M,M,-SN,M,M,M,M,M,M,0.49,KRAP 121827Z 36012KT 1SM -SN VV013 M09/M12 A3016 RMK AO2 P0000 T10941122 RVRNO
ICR,2020-02-12 18:28,-99.8422,43.3903,611.93,15.10,8.10,73.31,340.00,23.00,T,30.11,M,2.00,29.00,SCT,OVC,M,M,1300.00,2100.00,M,M,-SN,M,M,M,32.00,360.00,2020-02-12 18:08,-4.40,KICR 121828Z AUTO 34023G29KT 2SM -SN SCT013 OVC021 M09/M13 A3011 RMK AO2 PK WND 36032/1808 P0000 T10941133 $
BKX,2020-02-12 18:28,-96.8169,44.3048,490.28,5.00,1.40,84.68,360.00,19.00,T,29.97,M,0.75,M,SCT,BKN,OVC,M,1200.00,1600.00,2800.00,M,-SN BR,M,M,M,27.00,360.00,2020-02-12 18:18,-16.27,KBKX 121828Z AUTO 36019KT 3/4SM -SN BR SCT012 BKN016 OVC028 M15/M17 A2997 RMK AO2 PK WND 36027/1818 P0000 FZRANO RVRNO
RCA,2020-02-12 18:31,-103.1036,44.1451,977.43,15.80,10.40,78.84,360.00,11.00,0.00,30.15,1025.60,1.62,M,SCT,OVC,M,M,400.00,1700.00,M,M,-SN,M,M,M,M,M,M,1.99,KRCA 121831Z 36011KT 1 5/8SM -SN SCT004 OVC017 M09/M12 A3015 RMK AO2A CIG 003V017 CIG 003 RWY13 SLP256 $
ICR,2020-02-12 18:32,-99.8422,43.3903,611.93,15.10,8.10,73.31,350.00,23.00,T,30.11,M,3.00,M,FEW,OVC,M,M,1300.00,2000.00,M,M,-SN,M,M,M,32.00,360.00,2020-02-12 18:08,-4.40,KICR 121832Z AUTO 35023KT 3SM -SN FEW013 OVC020 M09/M13 A3011 RMK AO2 PK WND 36032/1808 P0000 T10941133 $
FSD,2020-02-12 18:33,-96.7536,43.5769,428.94,15.10,8.10,73.31,20.00,16.00,T,29.92,M,2.00,27.00,OVC,M,M,M,2900.00,M,M,M,-SN BLSN,M,M,M,33.00,20.00,2020-02-12 18:00,-1.61,KFSD 121833Z 02016G27KT 2SM -SN BLSN OVC029 M09/M13 A2992 RMK AO2 PK WND 02033/1800 P0000 T10941133
MDS,2020-02-12 18:35,-97.0859,44.0160,520.80,6.80,6.80,100.00,10.00,26.00,0.06,29.95,M,0.50,33.00,BKN,M,M,M,600.00,M,M,M,SN,M,M,M,M,M,M,-16.66,KMDS 121835Z AUTO 01026G33KT 1/2SM SN BKN006 M14/M14 A2995 RMK AO2 P0006
BKX,2020-02-12 18:35,-96.8169,44.3048,490.28,5.00,-0.40,77.84,360.00,20.00,T,29.97,M,0.50,25.00,BKN,BKN,OVC,M,1000.00,1500.00,2800.00,M,SN,M,M,M,27.00,360.00,2020-02-12 18:18,-16.72,KBKX 121835Z AUTO 36020G25KT 1/2SM SN BKN010 BKN015 OVC028 M15/M18 A2997 RMK AO2 PK WND 36027/1818 CIG 007V014 P0000 FZRANO RVRNO
9V9,2020-02-12 18:35,-99.3183,43.7667,509.76,12.70,8.60,83.31,350.00,24.00,0.00,30.10,M,0.75,29.00,OVC,M,M,M,1000.00,M,M,M,-SN,M,M,M,M,M,M,-7.98,K9V9 121835Z AUTO 35024G29KT 3/4SM -SN OVC010 M11/M13 A3010 RMK AO2 T11071130
SPF,2020-02-12 18:35,-103.7830,44.4803,1186.17,14.00,10.40,85.28,300.00,4.00,0.00,30.14,M,4.00,M,FEW,SCT,M,M,1700.00,2200.00,M,M,-SN,M,M,M,M,M,M,6.40,KSPF 121835Z AUTO 30004KT 4SM -SN FEW017 SCT022 M10/M12 A3014 RMK AO2
RCA,2020-02-12 18:36,-103.1036,44.1451,977.43,15.80,10.40,78.84,360.00,12.00,0.00,30.15,1025.60,1.75,M,BKN,OVC,M,M,400.00,1900.00,M,M,-SN,M,M,M,M,M,M,1.38,KRCA 121836Z 36012KT 1 3/4SM -SN BKN004 OVC019 M09/M12 A3015 RMK AO2A VIS 1 1/2V2 CIG 003V017 BKN V SCT CIG 003 RWY13 SLP256 $
IEN,2020-02-12 18:38,-102.5110,43.0225,1008.84,21.00,14.00,73.94,360.00,14.00,T,30.10,M,3.00,M,SCT,OVC,M,M,1700.00,4500.00,M,M,-SN,M,M,M,28.00,20.00,2020-02-12 17:57,6.98,KIEN 121838Z AUTO 36014KT 3SM -SN SCT017 OVC045 M06/M10 A3010 RMK AO2 PK WND 02028/1757 P0000 T10611100
MHE,2020-02-12 18:38,-98.0386,43.7748,395.73,9.00,3.90,79.31,360.00,25.00,T,30.06,M,0.25,34.00,FEW,BKN,OVC,M,700.00,1300.00,3000.00,M,+SN,M,M,M,38.00,350.00,2020-02-12 17:55,-13.33,KMHE 121838Z AUTO 36025G34KT 1/4SM +SN FEW007 BKN013 OVC030 M13/M16 A3006 RMK AO2 PK WND 35038/1755 P0000 T11281156
RCA,2020-02-12 18:41,-103.1036,44.1451,977.43,15.80,10.40,78.84,350.00,13.00,0.00,30.15,1025.60,2.75,M,BKN,BKN,OVC,M,400.00,1100.00,1900.00,M,-SN,M,M,M,M,M,M,0.81,KRCA 121841Z 35013KT 2 3/4SM -SN BKN004 BKN011 OVC019 M09/M12 A3015 RMK AO2A VIS 1 1/2V2 3/4 CIG 003 RWY13 SLP256 $
FSD,2020-02-12 18:42,-96.7536,43.5769,428.94,14.00,6.10,70.26,10.00,19.00,T,29.93,M,7.00,26.00,OVC,M,M,M,3100.00,M,M,M,-SN,M,M,M,33.00,20.00,2020-02-12 18:00,-4.37,KFSD 121842Z 01019G26KT 7SM -SN OVC031 M10/M14 A2993 RMK AO2 PK WND 02033/1800 DRSN P0000 T11001144
RCA,2020-02-12 18:46,-103.1036,44.1451,977.43,15.80,10.40,78.84,360.00,13.00,0.00,30.15,1025.60,3.00,M,BKN,OVC,M,M,400.00,1000.00,M,M,-SN,M,M,M,M,M,M,0.81,KRCA 121846Z 36013KT 3SM -SN BKN004 OVC010 M09/M12 A3015 RMK AO2A CIG 003 RWY13 SLP256 $
ABR,2020-02-12 18:46,-98.4200,45.4500,395.00,-2.00,-11.00,64.65,10.00,23.00,T,30.22,M,3.00,35.00,BKN,M,M,M,1300.00,M,M,M,HZ,M,M,M,36.00,360.00,2020-02-12 17:58,-27.39,KABR 121846Z AUTO 01023G35KT 3SM HZ BKN013 M19/M24 A3022 RMK AO2 PK WND 36036/1758 UPB00E18B20E46 P0000 T11891239
RCA,2020-02-12 18:51,-103.1036,44.1451,977.43,15.80,10.40,78.84,350.00,16.00,0.00,30.15,1025.60,4.00,M,BKN,OVC,M,M,700.00,1000.00,M,M,-SN,M,M,M,M,M,M,-0.70,KRCA 121851Z 35016KT 4SM -SN BKN007 OVC010 M09/M12 A3015 RMK AO2A CIG 004V007 CIG 003 RWY13 SLP256 $
YKN,2020-02-12 18:51,-97.3859,42.9167,389.54,21.20,15.80,79.31,340.00,24.00,T,29.94,M,9.00,29.00,OVC,M,M,M,1600.00,M,M,M,-SN,M,M,M,32.00,350.00,2020-02-12 18:08,3.49,KYKN 121851Z AUTO 34024G29KT 9SM -SN OVC016 M06/M09 A2994 RMK AO2 PK WND 35032/1808 RAE05UPB05E15SNB15 P0000 FZRANO
RAP,2020-02-12 18:52,-103.0574,44.0453,964.71,15.10,10.00,79.84,10.00,9.00,T,30.16,1025.60,1.25,M,FEW,BKN,OVC,M,1100.00,1600.00,2800.00,M,-SN,M,M,M,M,M,M,2.50,KRAP 121852Z 01009KT 1 1/4SM -SN FEW011 BKN016 OVC028 M09/M12 A3016 RMK AO2 SLP256 P0000 T10941122
IEN,2020-02-12 18:52,-102.5110,43.0225,1008.84,21.90,12.90,67.82,10.00,12.00,T,30.10,1023.10,4.00,20.00,FEW,BKN,OVC,M,1600.00,2900.00,4500.00,M,-SN,M,M,M,28.00,20.00,2020-02-12 17:57,9.15,KIEN 121852Z AUTO 01012G20KT 4SM -SN FEW016 BKN029 OVC045 M06/M11 A3010 RMK AO2 PK WND 02028/1757 SLP231 P0000 T10561106
MBG,2020-02-12 18:52,-100.4078,45.5464,515.17,3.00,-9.00,56.47,360.00,16.00,0.00,30.23,1027.00,10.00,25.00,CLR,M,M,M,M,M,M,M,M,M,M,M,31.00,10.00,2020-02-12 18:16,-17.38,KMBG 121852Z AUTO 36016G25KT 10SM CLR M16/M23 A3023 RMK AO2 PK WND 01031/1816 SLP270 T11611228
CUT,2020-02-12 18:53,-103.6114,43.7331,1686.81,18.00,10.00,70.41,50.00,9.00,0.01,29.96,1019.10,4.00,M,FEW,OVC,M,M,1800.00,2300.00,M,M,-SN,M,M,M,M,M,M,6.11,KCUT 121853Z AUTO 05009KT 4SM -SN FEW018 OVC023 M08/M12 A2996 RMK AO2 SLP191 P0001 T10781122
ICR,2020-02-12 18:53,-99.8422,43.3903,611.93,14.00,7.00,73.19,340.00,22.00,T,30.13,1022.90,2.50,29.00,SCT,OVC,M,M,1300.00,2200.00,M,M,-SN,M,M,M,32.00,360.00,2020-02-12 18:08,-5.52,KICR 121853Z AUTO 34022G29KT 2 1/2SM -SN SCT013 OVC022 M10/M14 A3013 RMK AO2 PK WND 36032/1808 SLP229 P0000 T11001139 $
MHE,2020-02-12 18:53,-98.0386,43.7748,395.73,10.00,3.90,75.83,350.00,27.00,T,30.08,1020.50,0.25,34.00,VV ,M,M,M,900.00,M,M,M,+SN,M,M,M,38.00,350.00,2020-02-12 17:55,-12.64,KMHE 121853Z AUTO 35027G34KT 1/4SM +SN VV009 M12/M16 A3008 RMK AO2 PK WND 35038/1755 SLP205 P0000 T11221156
ABR,2020-02-12 18:53,-98.4200,45.4500,395.00,-2.00,-11.00,64.65,360.00,29.00,T,30.23,1026.40,3.00,37.00,BKN,M,M,M,1300.00,M,M,M,HZ,M,M,M,37.00,10.00,2020-02-12 18:52,-29.73,KABR 121853Z AUTO 36029G37KT 3SM HZ BKN013 M19/M24 A3023 RMK AO2 PK WND 01037/1852 UPB00E18B20E46 SLP264 P0000 T11891239
PIR,2020-02-12 18:53,-100.2860,44.3827,522.03,3.90,-2.90,72.74,360.00,17.00,0.00,30.23,1026.70,9.00,28.00,FEW,FEW,BKN,M,900.00,1200.00,5000.00,M,M,M,M,M,35.00,360.00,2020-02-12 18:02,-16.74,KPIR 121853Z AUTO 36017G28KT 9SM FEW009 FEW012 BKN050 M16/M19 A3023 RMK AO2 PK WND 36035/1802 SLP267 T11561194 PWINO FZRANO
ATY,2020-02-12 18:53,-97.1547,44.9140,525.88,-2.00,-7.10,78.29,350.00,27.00,0.00,30.03,1020.30,0.75,35.00,OVC,M,M,M,700.00,M,M,M,HZ,M,M,M,37.00,350.00,2020-02-12 18:28,-29.00,KATY 121853Z AUTO 35027G35KT 3/4SM HZ OVC007 M19/M22 A3003 RMK AO2 PK WND 35037/1828 SLP203 T11891217
MDS,2020-02-12 18:55,-97.0859,44.0160,520.80,6.80,6.80,100.00,10.00,20.00,0.07,29.96,M,1.00,M,BKN,M,M,M,600.00,M,M,M,-SN,M,M,M,M,M,M,-14.33,KMDS 121855Z AUTO 01020KT 1SM -SN BKN006 M14/M14 A2996 RMK AO2 P0007
PHP,2020-02-12 18:55,-101.6000,44.0500,671.74,14.00,8.10,76.92,350.00,18.00,T,30.21,1025.80,9.00,24.00,FEW,OVC,M,M,2700.00,4100.00,M,M,UP,M,M,M,27.00,10.00,2020-02-12 18:01,-3.95,KPHP 121855Z AUTO 35018G24KT 9SM UP FEW027 OVC041 M10/M13 A3021 RMK AO2 PK WND 01027/1801 UPE08B46 SLP258 P0000 T11001133
9V9,2020-02-12 18:55,-99.3183,43.7667,509.76,11.10,6.30,80.58,340.00,25.00,0.00,30.12,M,0.75,34.00,SCT,OVC,M,M,700.00,1200.00,M,M,-SN,M,M,M,M,M,M,-10.48,K9V9 121855Z AUTO 34025G34KT 3/4SM -SN SCT007 OVC012 M12/M14 A3012 RMK AO2 T11161143
HON,2020-02-12 18:55,-98.2286,44.3852,384.37,3.00,-2.00,79.14,360.00,27.00,T,30.12,1022.30,0.50,39.00,VV ,M,M,M,900.00,M,M,M,BLSN,M,M,M,41.00,350.00,2020-02-12 18:35,-22.18,KHON 121855Z AUTO 36027G39KT 1/2SM BLSN VV009 M16/M19 A3012 RMK AO2 PK WND 35041/1835 SNE1757 SLP223 P0000 T11611189 $
SPF,2020-02-12 18:55,-103.7830,44.4803,1186.17,14.00,10.40,85.28,330.00,5.00,0.00,30.13,M,2.50,M,FEW,FEW,FEW,M,1700.00,2200.00,2800.00,M,-SN,M,M,M,M,M,M,5.02,KSPF 121855Z AUTO 33005KT 2 1/2SM -SN FEW017 FEW022 FEW028 M10/M12 A3013 RMK AO2
2WX,2020-02-12 18:56,-103.5464,45.6044,919.07,12.90,5.00,70.13,340.00,13.00,0.00,30.17,1026.10,M,M,M,M,M,M,M,M,M,M,M,M,M,M,M,M,M,-2.90,K2WX 121856Z AUTO 34013KT M11/M15 A3017 RMK AO1 SLP261 T11061150
8D3,2020-02-12 18:56,-96.9914,45.6689,351.81,-7.10,-13.00,74.75,350.00,27.00,0.00,30.17,1025.70,M,34.00,M,M,M,M,M,M,M,M,M,M,M,M,39.00,350.00,2020-02-12 18:27,-35.95,K8D3 121856Z AUTO 35027G34KT M22/M25 A3017 RMK AO1 PK WND 35039/1827 SLP257 T12171250
D07,2020-02-12 18:56,-102.0200,45.0300,778.50,7.00,0.00,72.41,360.00,17.00,0.00,30.20,1027.50,M,M,M,M,M,M,M,M,M,M,M,M,M,M,28.00,350.00,2020-02-12 18:11,-12.68,KD07 121856Z AUTO 36017KT M14/M18 A3020 RMK AO1 PK WND 35028/1811 SLP275 T11391178
FSD,2020-02-12 18:56,-96.7536,43.5769,428.94,12.00,5.00,72.97,10.00,20.00,T,29.94,1016.00,7.00,29.00,OVC,M,M,M,3500.00,M,M,M,-SN,M,M,M,33.00,20.00,2020-02-12 18:00,-7.42,KFSD 121856Z 01020G29KT 7SM -SN OVC035 M11/M15 A2994 RMK AO2 PK WND 02033/1800 SLP160 DRSN P0000 T11111150
BKX,2020-02-12 18:56,-96.8169,44.3048,490.28,3.90,0.00,83.42,350.00,15.00,T,29.98,1019.40,0.75,26.00,OVC,M,M,M,700.00,M,M,M,-SN BR,M,M,M,28.00,360.00,2020-02-12 18:44,-15.65,KBKX 121856Z AUTO 35015G26KT 3/4SM -SN BR OVC007 M16/M18 A2998 RMK AO2 PK WND 36028/1844 CIG 006V012 SLP194 P0000 T11561178 FZRANO RVRNO
RCA,2020-02-12 18:56,-103.1036,44.1451,977.43,16.30,10.40,77.15,360.00,15.00,T,30.15,1025.60,3.00,M,BKN,BKN,OVC,M,700.00,1100.00,1600.00,M,-SN,M,M,M,M,M,M,0.43,KRCA 121856Z 36015KT 3SM -SN BKN007 BKN011 OVC016 M09/M12 A3015 RMK AO2A CIG 004V007 CIG 005 RWY13 SLP256 P0000 T10871120 $
YKN,2020-02-12 18:56,-97.3859,42.9167,389.54,21.00,16.00,80.69,340.00,23.00,T,29.94,1016.90,9.00,29.00,OVC,M,M,M,1800.00,M,M,M,-SN,M,M,M,32.00,350.00,2020-02-12 18:08,3.53,KYKN 121856Z AUTO 34023G29KT 9SM -SN OVC018 M06/M09 A2994 RMK AO2 PK WND 35032/1808 RAE05UPB05E15SNB15 SLP169 P0000 T10611089 FZRANO
ABR,2020-02-12 19:00,-98.4200,45.4500,395.00,-2.90,-11.00,67.48,360.00,26.00,0.00,30.23,M,1.75,37.00,BKN,M,M,M,1300.00,M,M,M,HZ,M,M,M,35.00,360.00,2020-02-12 18:59,-29.84,KABR 121900Z AUTO 36026G37KT 1 3/4SM HZ BKN013 M19/M24 A3023 RMK AO2 PK WND 36035/1859 VIS 1V5 T11941239
MHE,2020-02-12 19:01,-98.0386,43.7748,395.73,8.10,3.00,79.23,350.00,25.00,T,30.08,M,0.25,36.00,VV ,M,M,M,1000.00,M,M,M,BLSN,M,M,M,36.00,340.00,2020-02-12 18:59,-14.54,KMHE 121901Z AUTO 35025G36KT 1/4SM BLSN VV010 M13/M16 A3008 RMK AO2 PK WND 34036/1859 SNE1858 P0000 T11331161
IEN,2020-02-12 19:04,-102.5110,43.0225,1008.84,21.90,12.90,67.82,360.00,15.00,T,30.11,M,4.00,24.00,FEW,SCT,OVC,M,1800.00,2900.00,4700.00,M,-SN,M,M,M,M,M,M,7.69,KIEN 121904Z AUTO 36015G24KT 4SM -SN FEW018 SCT029 OVC047 M06/M11 A3011 RMK AO2 P0000 T10561106
ABR,2020-02-12 19:05,-98.4200,45.4500,395.00,-2.00,-11.90,61.83,360.00,23.00,T,30.23,M,2.50,35.00,SCT,M,M,M,1300.00,M,M,M,HZ,M,M,M,35.00,360.00,2020-02-12 18:59,-27.39,KABR 121905Z AUTO 36023G35KT 2 1/2SM HZ SCT013 M19/M24 A3023 RMK AO2 PK WND 36035/1859 UPB01E04 P0000 T11891244
RCA,2020-02-12 19:06,-103.1036,44.1451,977.43,15.80,10.40,78.84,350.00,13.00,0.00,30.15,1025.60,5.00,M,SCT,OVC,M,M,700.00,1600.00,M,M,-SN,M,M,M,M,M,M,0.81,KRCA 121906Z 35013KT 5SM -SN SCT007 OVC016 M09/M12 A3015 RMK AO2A CIG 007V016 CIG 004 RWY13 SLP256 $
PIR,2020-02-12 19:06,-100.2860,44.3827,522.03,5.00,-0.90,76.03,350.00,18.00,0.00,30.24,M,5.00,M,BKN,BKN,M,M,1200.00,5000.00,M,M,HZ,M,M,M,M,M,M,-15.79,KPIR 121906Z AUTO 35018KT 5SM HZ BKN012 BKN050 M15/M18 A3024 RMK AO2 T11501183 PWINO FZRANO
BKX,2020-02-12 19:07,-96.8169,44.3048,490.28,3.20,-0.40,84.56,10.00,21.00,T,29.98,M,0.50,29.00,BKN,OVC,M,M,700.00,1500.00,M,M,-SN FZFG,M,M,M,29.00,350.00,2020-02-12 19:01,-19.56,KBKX 121907Z AUTO 01021G29KT 1/2SM -SN FZFG BKN007 OVC015 M16/M18 A2998 RMK AO2 PK WND 35029/1901 CIG 005V012 P0000 FZRANO RVRNO
ICR,2020-02-12 19:09,-99.8422,43.3903,611.93,12.00,5.00,72.97,340.00,19.00,T,30.14,M,4.00,30.00,BKN,BKN,OVC,M,1700.00,2100.00,3000.00,M,-SN,M,M,M,30.00,350.00,2020-02-12 19:03,-7.01,KICR 121909Z AUTO 34019G30KT 4SM -SN BKN017 BKN021 OVC030 M11/M15 A3014 RMK AO2 PK WND 35030/1903 P0000 T11111150 $
RCA,2020-02-12 19:11,-103.1036,44.1451,977.43,15.80,10.40,78.84,350.00,12.00,0.00,30.15,1025.60,7.00,M,SCT,OVC,M,M,700.00,1800.00,M,M,-SN,M,M,M,M,M,M,1.38,KRCA 121911Z 35012KT 7SM -SN SCT007 OVC018 M09/M12 A3015 RMK AO2A CIG 007V018 SLP256 $
RAP,2020-02-12 19:14,-103.0574,44.0453,964.71,16.00,9.00,73.41,10.00,14.00,T,30.16,M,3.00,M,FEW,BKN,OVC,M,1300.00,1800.00,3300.00,M,-SN,M,M,M,M,M,M,0.54,KRAP 121914Z 01014KT 3SM -SN FEW013 BKN018 OVC033 M09/M13 A3016 RMK AO2 P0000 T10891128
MDS,2020-02-12 19:15,-97.0859,44.0160,520.80,6.80,6.80,100.00,360.00,24.00,0.00,29.96,M,0.75,30.00,BKN,M,M,M,600.00,M,M,M,-SN,M,M,M,M,M,M,-15.94,KMDS 121915Z AUTO 36024G30KT 3/4SM -SN BKN006 M14/M14 A2996 RMK AO2
9V9,2020-02-12 19:15,-99.3183,43.7667,509.76,10.80,4.50,75.22,340.00,22.00,0.00,30.14,M,4.00,32.00,SCT,BKN,OVC,M,1300.00,2600.00,3600.00,M,HZ,M,M,M,M,M,M,-9.81,K9V9 121915Z AUTO 34022G32KT 4SM HZ SCT013 BKN026 OVC036 M12/M15 A3014 RMK AO2 T11181153
IEN,2020-02-12 19:15,-102.5110,43.0225,1008.84,21.90,14.00,71.18,360.00,14.00,T,30.10,M,4.00,22.00,SCT,BKN,OVC,M,2100.00,2900.00,4800.00,M,-SN,M,M,M,M,M,M,8.14,KIEN 121915Z AUTO 36014G22KT 4SM -SN SCT021 BKN029 OVC048 M06/M10 A3010 RMK AO2 P0000 T10561100
SPF,2020-02-12 19:15,-103.7830,44.4803,1186.17,14.00,10.40,85.28,310.00,5.00,0.00,30.13,M,3.00,M,SCT,SCT,SCT,M,1600.00,2200.00,2800.00,M,-SN,M,M,M,M,M,M,5.02,KSPF 121915Z AUTO 31005KT 3SM -SN SCT016 SCT022 SCT028 M10/M12 A3013 RMK AO2
PIR,2020-02-12 19:17,-100.2860,44.3827,522.03,5.00,-4.00,65.62,360.00,19.00,0.00,30.24,M,10.00,27.00,SCT,BKN,M,M,1200.00,5000.00,M,M,M,M,M,M,27.00,350.00,2020-02-12 19:14,-16.27,KPIR 121917Z AUTO 36019G27KT 10SM SCT012 BKN050 M15/M20 A3024 RMK AO2 PK WND 35027/1914 T11501200 PWINO FZRANO
ICR,2020-02-12 19:18,-99.8422,43.3903,611.93,12.90,6.10,73.74,340.00,24.00,T,30.14,M,2.00,30.00,BKN,OVC,M,M,1400.00,1800.00,M,M,-SN,M,M,M,30.00,350.00,2020-02-12 19:03,-7.71,KICR 121918Z AUTO 34024G30KT 2SM -SN BKN014 OVC018 M11/M14 A3014 RMK AO2 PK WND 35030/1903 P0000 T11061144 $
YKN,2020-02-12 19:21,-97.3859,42.9167,389.54,19.40,15.80,85.63,320.00,23.00,T,29.96,M,2.50,30.00,BKN,BKN,OVC,M,1400.00,2000.00,2500.00,M,-SN BR,M,M,M,30.00,340.00,2020-02-12 19:14,1.38,KYKN 121921Z AUTO 32023G30KT 2 1/2SM -SN BR BKN014 BKN020 OVC025 M07/M09 A2996 RMK AO2 PK WND 34030/1914 VIS 1 1/2V4 P0000 FZRANO
RAP,2020-02-12 19:23,-103.0574,44.0453,964.71,16.00,10.00,76.77,360.00,10.00,T,30.16,M,5.00,M,SCT,OVC,M,M,1500.00,3300.00,M,M,-SN,M,M,M,M,M,M,2.90,KRAP 121923Z 36010KT 5SM -SN SCT015 OVC033 M09/M12 A3016 RMK AO2 P0000 T10891122
ICR,2020-02-12 19:26,-99.8422,43.3903,611.93,12.00,3.90,69.38,340.00,23.00,T,30.15,M,1.75,32.00,BKN,OVC,M,M,1400.00,1900.00,M,M,-SN,M,M,M,32.00,330.00,2020-02-12 19:20,-8.57,KICR 121926Z AUTO 34023G32KT 1 3/4SM -SN BKN014 OVC019 M11/M16 A3015 RMK AO2 PK WND 33032/1920 P0000 T11111156 $
HON,2020-02-12 19:27,-98.2286,44.3852,384.37,1.00,-4.00,78.95,360.00,22.00,T,30.15,M,0.50,38.00,VV ,M,M,M,900.00,M,M,M,BLSN,M,M,M,38.00,350.00,2020-02-12 19:16,-22.93,KHON 121927Z AUTO 36022G38KT 1/2SM BLSN VV009 M17/M20 A3015 RMK AO2 PK WND 35038/1916 UPB14E26 P0000 T11721200 $
ABR,2020-02-12 19:27,-98.4200,45.4500,395.00,-2.00,-11.00,64.65,360.00,25.00,T,30.23,M,6.00,32.00,SCT,M,M,M,1400.00,M,M,M,HZ,M,M,M,36.00,360.00,2020-02-12 19:14,-28.22,KABR 121927Z AUTO 36025G32KT 6SM HZ SCT014 M19/M24 A3023 RMK AO2 PK WND 36036/1914 UPB01E04B10E11 P0000 T11891239
ICR,2020-02-12 19:29,-99.8422,43.3903,611.93,10.90,3.90,72.85,350.00,20.00,T,30.15,M,2.50,32.00,BKN,BKN,OVC,M,1600.00,2200.00,3300.00,M,-SN,M,M,M,32.00,330.00,2020-02-12 19:20,-8.89,KICR 121929Z AUTO 35020G32KT 2 1/2SM -SN BKN016 BKN022 OVC033 M12/M16 A3015 RMK AO2 PK WND 33032/1920 P0000 T11171156 $
YKN,2020-02-12 19:34,-97.3859,42.9167,389.54,17.60,12.20,79.00,340.00,27.00,T,29.97,M,7.00,31.00,SCT,OVC,M,M,1400.00,2700.00,M,M,-SN,M,M,M,31.00,330.00,2020-02-12 19:31,-2.28,KYKN 121934Z AUTO 34027G31KT 7SM -SN SCT014 OVC027 M08/M11 A2997 RMK AO2 PK WND 33031/1931 P0000 FZRANO
MDS,2020-02-12 19:35,-97.0859,44.0160,520.80,5.00,5.00,100.00,350.00,24.00,0.01,29.98,M,0.50,33.00,BKN,M,M,M,600.00,M,M,M,-RA,M,M,M,M,M,M,-18.37,KMDS 121935Z AUTO 35024G33KT 1/2SM -RA BKN006 M15/M15 A2998 RMK AO2 P0001
9V9,2020-02-12 19:35,-99.3183,43.7667,509.76,10.40,4.30,75.87,350.00,22.00,0.00,30.16,M,3.00,29.00,SCT,BKN,OVC,M,1500.00,2100.00,3400.00,M,HZ,M,M,M,M,M,M,-10.35,K9V9 121935Z AUTO 35022G29KT 3SM HZ SCT015 BKN021 OVC034 M12/M15 A3016 RMK AO2 T11201154
SPF,2020-02-12 19:35,-103.7830,44.4803,1186.17,14.00,10.40,85.28,290.00,5.00,0.00,30.13,M,8.00,M,BKN,OVC,M,M,2100.00,2600.00,M,M,-SN,M,M,M,M,M,M,5.02,KSPF 121935Z AUTO 29005KT 8SM -SN BKN021 OVC026 M10/M12 A3013 RMK AO2
ICR,2020-02-12 19:36,-99.8422,43.3903,611.93,12.00,5.00,72.97,330.00,24.00,T,30.15,M,3.00,31.00,BKN,BKN,OVC,M,1600.00,2200.00,3800.00,M,BLSN,M,M,M,32.00,330.00,2020-02-12 19:20,-8.92,KICR 121936Z AUTO 33024G31KT 3SM BLSN BKN016 BKN022 OVC038 M11/M15 A3015 RMK AO2 PK WND 33032/1920 SNE32 P0000 T11111150 $
FSD,2020-02-12 19:39,-96.7536,43.5769,428.94,10.90,5.00,76.62,360.00,15.00,T,29.96,M,2.50,21.00,SCT,OVC,M,M,1900.00,4500.00,M,M,-SN BLSN,M,M,M,29.00,350.00,2020-02-12 19:10,-6.57,KFSD 121939Z 36015G21KT 2 1/2SM -SN BLSN SCT019 OVC045 M12/M15 A2996 RMK AO2 PK WND 35029/1910 P0000 T11171150
FSD,2020-02-12 19:46,-96.7536,43.5769,428.94,12.00,6.10,76.73,10.00,15.00,T,29.97,M,1.75,21.00,BKN,OVC,M,M,1700.00,4000.00,M,M,-SN BLSN,M,M,M,29.00,350.00,2020-02-12 19:10,-5.15,KFSD 121946Z 01015G21KT 1 3/4SM -SN BLSN BKN017 OVC040 M11/M14 A2997 RMK AO2 PK WND 35029/1910 TWR VIS 2 1/2 P0000 T11111144
MHE,2020-02-12 19:46,-98.0386,43.7748,395.73,6.10,0.00,75.43,350.00,24.00,T,30.12,M,0.50,36.00,OVC,M,M,M,1000.00,M,M,M,BLSN,M,M,M,42.00,340.00,2020-02-12 19:23,-16.88,KMHE 121946Z AUTO 35024G36KT 1/2SM BLSN OVC010 M14/M18 A3012 RMK AO2 PK WND 34042/1923 SNE1858B19E24 P0000 T11441178
RCA,2020-02-12 19:46,-103.1036,44.1451,977.43,17.60,8.60,67.28,360.00,10.00,0.00,30.15,1025.30,9.00,M,BKN,BKN,OVC,M,700.00,1600.00,2500.00,M,-SN,M,M,M,M,M,M,4.91,KRCA 121946Z 36010KT 9SM -SN BKN007 BKN016 OVC025 M08/M13 A3015 RMK AO2A CIG 007V017 CIG 006 RWY13 SLP253 $
PIR,2020-02-12 19:46,-100.2860,44.3827,522.03,5.00,-0.90,76.03,350.00,21.00,0.00,30.25,M,3.00,30.00,FEW,BKN,OVC,M,900.00,1200.00,5000.00,M,HZ,M,M,M,30.00,350.00,2020-02-12 19:45,-17.16,KPIR 121946Z AUTO 35021G30KT 3SM HZ FEW009 BKN012 OVC050 M15/M18 A3025 RMK AO2 PK WND 35030/1945 T11501183 PWINO FZRANO
RAP,2020-02-12 19:47,-103.0574,44.0453,964.71,15.80,8.60,72.73,10.00,12.00,T,30.16,M,9.00,M,OVC,M,M,M,2900.00,M,M,M,-SN,M,M,M,M,M,M,1.38,KRAP 121947Z 01012KT 9SM -SN OVC029 M09/M13 A3016 RMK AO2 P0000
HON,2020-02-12 19:50,-98.2286,44.3852,384.37,-0.40,-5.80,77.32,350.00,25.00,T,30.17,M,0.50,35.00,VV ,M,M,M,1000.00,M,M,M,BLSN,M,M,M,38.00,350.00,2020-02-12 19:16,-26.05,KHON 121950Z AUTO 35025G35KT 1/2SM BLSN VV010 M18/M21 A3017 RMK AO2 PK WND 35038/1916 UPB14E26SNB31E40 PRESRR P0000 $
RAP,2020-02-12 19:52,-103.0574,44.0453,964.71,16.00,9.00,73.41,10.00,9.00,T,30.16,1025.30,9.00,M,OVC,M,M,M,2700.00,M,M,M,M,M,M,M,M,M,M,3.62,KRAP 121952Z 01009KT 9SM OVC027 M09/M13 A3016 RMK AO2 UPB50E52SNE50 SLP253 P0000 T10891128
IEN,2020-02-12 19:52,-102.5110,43.0225,1008.84,21.00,12.00,67.71,30.00,16.00,T,30.11,1023.40,5.00,22.00,OVC,M,M,M,2000.00,M,M,M,-SN,M,M,M,27.00,10.00,2020-02-12 19:23,6.08,KIEN 121952Z AUTO 03016G22KT 5SM -SN OVC020 M06/M11 A3011 RMK AO2 PK WND 01027/1923 SLP234 P0000 T10611111
MBG,2020-02-12 19:52,-100.4078,45.5464,515.17,1.90,-11.00,53.84,350.00,18.00,0.00,30.26,1027.90,10.00,M,CLR,M,M,M,M,M,M,M,M,M,M,M,32.00,360.00,2020-02-12 19:33,-19.87,KMBG 121952Z AUTO 35018KT 10SM CLR M17/M24 A3026 RMK AO2 PK WND 36032/1933 SLP279 T11671239
CUT,2020-02-12 19:53,-103.6114,43.7331,1686.81,18.00,6.10,59.06,350.00,9.00,T,29.96,1019.40,10.00,14.00,FEW,SCT,BKN,M,2400.00,3000.00,10000.00,M,M,M,M,M,M,M,M,6.11,KCUT 121953Z AUTO 35009G14KT 310V020 10SM FEW024 SCT030 BKN100 M08/M14 A2996 RMK AO2 SNE13 SLP194 P0000 T10781144
ICR,2020-02-12 19:53,-99.8422,43.3903,611.93,10.90,3.90,72.85,340.00,22.00,T,30.16,1024.40,5.00,31.00,BKN,OVC,M,M,1600.00,2200.00,M,M,BLSN,M,M,M,32.00,330.00,2020-02-12 19:20,-9.68,KICR 121953Z AUTO 34022G31KT 5SM BLSN BKN016 OVC022 M12/M16 A3016 RMK AO2 PK WND 33032/1920 SNE32 SLP244 P0000 T11171156 $
MHE,2020-02-12 19:53,-98.0386,43.7748,395.73,5.00,-0.90,76.03,350.00,27.00,T,30.13,1022.40,0.50,37.00,OVC,M,M,M,1000.00,M,M,M,BLSN,M,M,M,42.00,340.00,2020-02-12 19:23,-19.46,KMHE 121953Z AUTO 35027G37KT 1/2SM BLSN OVC010 M15/M18 A3013 RMK AO2 PK WND 34042/1923 SNE1858B19E24 PRESRR SLP224 P0000 T11501183
ABR,2020-02-12 19:53,-98.4200,45.4500,395.00,-2.90,-11.90,64.53,10.00,25.00,T,30.25,1027.20,6.00,32.00,FEW,M,M,M,1400.00,M,M,M,HZ,M,M,M,36.00,360.00,2020-02-12 19:14,-29.44,KABR 121953Z AUTO 01025G32KT 6SM HZ FEW014 M19/M24 A3025 RMK AO2 PK WND 36036/1914 UPB01E04B10E11 SLP272 P0000 T11941244
PIR,2020-02-12 19:53,-100.2860,44.3827,522.03,3.90,-2.90,72.74,340.00,20.00,0.00,30.25,1027.30,8.00,30.00,BKN,BKN,M,M,1300.00,5000.00,M,M,M,M,M,M,30.00,350.00,2020-02-12 19:45,-18.18,KPIR 121953Z AUTO 34020G30KT 8SM BKN013 BKN050 M16/M19 A3025 RMK AO2 PK WND 35030/1945 SLP273 T11561194 PWINO FZRANO
ATY,2020-02-12 19:53,-97.1547,44.9140,525.88,-4.00,-9.90,75.09,360.00,24.00,T,30.05,1021.20,0.75,M,OVC,M,M,M,700.00,M,M,M,HZ,M,M,M,36.00,350.00,2020-02-12 18:58,-30.51,KATY 121953Z AUTO 36024KT 3/4SM HZ OVC007 M20/M23 A3005 RMK AO2 PK WND 35036/1858 SNB1858E06 SLP212 P0000 T12001233
MDS,2020-02-12 19:55,-97.0859,44.0160,520.80,3.20,3.20,100.00,350.00,26.00,0.01,30.00,M,0.50,32.00,BKN,M,M,M,600.00,M,M,M,SN,M,M,M,M,M,M,-21.55,KMDS 121955Z AUTO 35026G32KT 1/2SM SN BKN006 M16/M16 A3000 RMK AO2 P0001
PHP,2020-02-12 19:55,-101.6000,44.0500,671.74,14.00,7.00,73.19,360.00,12.00,T,30.24,1026.80,10.00,20.00,BKN,OVC,M,M,2000.00,4300.00,M,M,M,M,M,M,29.00,360.00,2020-02-12 19:05,-0.91,KPHP 121955Z AUTO 36012G20KT 10SM BKN020 OVC043 M10/M14 A3024 RMK AO2 PK WND 36029/1905 UPE1859 SLP268 P0000 T11001139
9V9,2020-02-12 19:55,-99.3183,43.7667,509.76,8.60,2.80,76.75,340.00,20.00,0.00,30.17,M,2.00,31.00,BKN,OVC,M,M,1300.00,1900.00,M,M,HZ,M,M,M,M,M,M,-11.94,K9V9 121955Z AUTO 34020G31KT 2SM HZ BKN013 OVC019 M13/M16 A3017 RMK AO2 T11301162
HON,2020-02-12 19:55,-98.2286,44.3852,384.37,0.00,-5.10,78.48,350.00,26.00,T,30.18,1024.30,0.50,35.00,BKN,OVC,M,M,1000.00,1400.00,M,M,BLSN,M,M,M,38.00,350.00,2020-02-12 19:16,-25.90,KHON 121955Z AUTO 35026G35KT 1/2SM BLSN BKN010 OVC014 M18/M21 A3018 RMK AO2 PK WND 35038/1916 UPB14E26SNB31E40 SLP243 P0000 T11781206 $
SPF,2020-02-12 19:55,-103.7830,44.4803,1186.17,15.80,10.40,78.84,310.00,5.00,0.00,30.13,M,5.00,M,FEW,BKN,OVC,M,1500.00,2300.00,2700.00,M,VCTS SN,M,M,M,M,M,M,7.16,KSPF 121955Z AUTO 31005KT 5SM VCTS SN FEW015 BKN023 OVC027 M09/M12 A3013 RMK AO2
2WX,2020-02-12 19:56,-103.5464,45.6044,919.07,10.90,1.90,66.41,350.00,18.00,0.00,30.18,1026.60,M,M,M,M,M,M,M,M,M,M,M,M,M,M,M,M,M,-8.03,K2WX 121956Z AUTO 35018KT M12/M17 A3018 RMK AO1 SLP266 T11171167
8D3,2020-02-12 19:56,-96.9914,45.6689,351.81,-7.10,-14.10,70.73,340.00,29.00,0.00,30.19,1026.10,M,37.00,M,M,M,M,M,M,M,M,M,M,M,M,37.00,340.00,2020-02-12 19:51,-36.72,K8D3 121956Z AUTO 34029G37KT M22/M26 A3019 RMK AO1 PK WND 34037/1951 SLP261 T12171256
D07,2020-02-12 19:56,-102.0200,45.0300,778.50,8.10,1.00,72.20,360.00,15.00,0.00,30.20,1027.40,M,M,M,M,M,M,M,M,M,M,M,M,M,M,M,M,M,-10.20,KD07 121956Z AUTO 36015KT M13/M17 A3020 RMK AO1 SLP274 T11331172
FSD,2020-02-12 19:56,-96.7536,43.5769,428.94,10.90,5.00,76.62,350.00,18.00,T,29.97,1017.30,1.75,24.00,BKN,BKN,OVC,M,1700.00,2600.00,4800.00,M,-SN BLSN,M,M,M,29.00,350.00,2020-02-12 19:10,-8.03,KFSD 121956Z 35018G24KT 1 3/4SM -SN BLSN BKN017 BKN026 OVC048 M12/M15 A2997 RMK AO2 PK WND 35029/1910 TWR VIS 2 SLP173 P0000 T11171150
BKX,2020-02-12 19:56,-96.8169,44.3048,490.28,1.00,-5.10,74.89,350.00,25.00,T,30.00,1020.20,0.50,33.00,BKN,BKN,OVC,M,700.00,1100.00,1500.00,M,SN,M,M,M,33.00,350.00,2020-02-12 19:52,-24.16,KBKX 121956Z AUTO 35025G33KT 1/2SM SN BKN007 BKN011 OVC015 M17/M21 A3000 RMK AO2 PK WND 35033/1952 CIG 004V009 SLP202 P0000 T11721206 FZRANO RVRNO
RCA,2020-02-12 19:56,-103.1036,44.1451,977.43,16.90,9.70,72.85,350.00,7.00,T,30.15,1025.30,6.00,M,SCT,BKN,OVC,M,600.00,1300.00,2300.00,M,-SN,M,M,M,M,M,M,6.37,KRCA 121956Z 35007KT 6SM -SN SCT006 BKN013 OVC023 M08/M12 A3015 RMK AO2A CIG 006V015 CIG 006 RWY13 SLP253 P0000 T10841124 $
YKN,2020-02-12 19:56,-97.3859,42.9167,389.54,16.00,12.00,83.91,330.00,24.00,T,29.99,1018.60,3.00,30.00,FEW,SCT,OVC,M,1400.00,2900.00,3300.00,M,-SN BR,M,M,M,31.00,330.00,2020-02-12 19:35,-3.53,KYKN 121956Z AUTO 33024G30KT 3SM -SN BR FEW014 SCT029 OVC033 M09/M11 A2999 RMK AO2 PK WND 33031/1935 SLP186 P0000 T10891111 FZRANO
RCA,2020-02-12 20:01,-103.1036,44.1451,977.43,17.60,10.40,72.93,360.00,9.00,0.00,30.15,1025.30,2.75,M,SCT,BKN,OVC,M,600.00,1500.00,2300.00,M,-SN,M,M,M,M,M,M,5.61,KRCA 122001Z 36009KT 2 3/4SM -SN SCT006 BKN015 OVC023 M08/M12 A3015 RMK AO2A VIS 2 3/4V7 CIG 006V015 CIG 006 RWY13 SLP253 $
CUT,2020-02-12 20:03,-103.6114,43.7331,1686.81,19.00,6.10,56.57,360.00,8.00,0.00,29.96,M,10.00,M,BKN,BKN,M,M,2900.00,10000.00,M,M,M,M,M,M,M,M,M,8.10,KCUT 122003Z AUTO 36008KT 310V020 10SM BKN029 BKN100 M07/M14 A2996 RMK AO2 T10721144
PIR,2020-02-12 20:04,-100.2860,44.3827,522.03,3.90,-2.90,72.74,340.00,22.00,0.00,30.25,M,10.00,29.00,SCT,BKN,M,M,1300.00,4100.00,M,M,M,M,M,M,29.00,340.00,2020-02-12 20:04,-19.05,KPIR 122004Z AUTO 34022G29KT 10SM SCT013 BKN041 M16/M19 A3025 RMK AO2 PK WND 34029/2004 T11561194 PWINO FZRANO
YKN,2020-02-12 20:04,-97.3859,42.9167,389.54,15.80,10.40,78.84,330.00,24.00,T,30.00,M,2.00,30.00,SCT,OVC,M,M,1600.00,3100.00,M,M,-SN,M,M,M,28.00,330.00,2020-02-12 20:03,-3.80,KYKN 122004Z AUTO 33024G30KT 2SM -SN SCT016 OVC031 M09/M12 A3000 RMK AO2 PK WND 33028/2003 VIS 1 1/2V3 PRESRR P0000 FZRANO
BKX,2020-02-12 20:05,-96.8169,44.3048,490.28,-0.40,-4.00,84.30,350.00,26.00,T,30.00,M,0.75,32.00,BKN,OVC,M,M,700.00,1500.00,M,M,-SN BR,M,M,M,32.00,350.00,2020-02-12 20:04,-26.44,KBKX 122005Z AUTO 35026G32KT 3/4SM -SN BR BKN007 OVC015 M18/M20 A3000 RMK AO2 PK WND 35032/2004 CIG 004V010 P0000 FZRANO RVRNO
RCA,2020-02-12 20:07,-103.1036,44.1451,977.43,17.60,10.40,72.93,360.00,9.00,0.00,30.15,1025.30,3.00,M,BKN,OVC,M,M,600.00,1600.00,M,M,-SN,M,M,M,M,M,M,5.61,KRCA 122007Z 36009KT 3SM -SN BKN006 OVC016 M08/M12 A3015 RMK CIG 015V023 CIG 013 RWY13 SLP253 $
FSD,2020-02-12 20:12,-96.7536,43.5769,428.94,10.00,3.90,75.83,350.00,21.00,T,29.98,M,1.50,28.00,FEW,BKN,OVC,M,700.00,1400.00,2600.00,M,-SN BLSN,M,M,M,28.00,350.00,2020-02-12 20:10,-10.49,KFSD 122012Z 35021G28KT 1 1/2SM -SN BLSN FEW007 BKN014 OVC026 M12/M16 A2998 RMK AO2 PK WND 35028/2010 TWR VIS 2 P0000 T11221156
RCA,2020-02-12 20:12,-103.1036,44.1451,977.43,15.80,10.40,78.84,360.00,8.00,0.00,30.15,1025.60,3.00,M,FEW,BKN,OVC,M,600.00,1700.00,2200.00,M,-SN,M,M,M,M,M,M,4.16,KRCA 122012Z 36008KT 3SM -SN FEW006 BKN017 OVC022 M09/M12 A3015 RMK AO2A CIG 017V023 CIG 016 RWY13 SLP256 $
PHP,2020-02-12 20:13,-101.6000,44.0500,671.74,14.00,7.00,73.19,350.00,14.00,0.00,30.24,M,10.00,M,SCT,OVC,M,M,2000.00,3800.00,M,M,M,M,M,M,M,M,M,-2.04,KPHP 122013Z AUTO 35014KT 10SM SCT020 OVC038 M10/M14 A3024 RMK AO2 T11001139
YKN,2020-02-12 20:13,-97.3859,42.9167,389.54,15.80,10.40,78.84,320.00,23.00,T,30.02,M,2.50,32.00,FEW,BKN,OVC,M,900.00,1800.00,3300.00,M,-SN,M,M,M,32.00,320.00,2020-02-12 20:06,-3.46,KYKN 122013Z AUTO 32023G32KT 2 1/2SM -SN FEW009 BKN018 OVC033 M09/M12 A3002 RMK AO2 PK WND 32032/2006 VIS 1 3/4V4 PRESRR P0000 FZRANO
MDS,2020-02-12 20:15,-97.0859,44.0160,520.80,1.40,1.40,100.00,360.00,28.00,0.00,30.01,M,0.50,33.00,BKN,M,M,M,600.00,M,M,M,SN,M,M,M,M,M,M,-24.72,KMDS 122015Z AUTO 36028G33KT 1/2SM SN BKN006 M17/M17 A3001 RMK AO2
9V9,2020-02-12 20:15,-99.3183,43.7667,509.76,8.10,0.50,70.53,350.00,22.00,0.00,30.18,M,2.50,31.00,BKN,M,M,M,1100.00,M,M,M,HZ,M,M,M,M,M,M,-13.42,K9V9 122015Z AUTO 35022G31KT 2 1/2SM HZ BKN011 M13/M17 A3018 RMK AO2 T11331175
SPF,2020-02-12 20:15,-103.7830,44.4803,1186.17,15.80,10.40,78.84,280.00,4.00,0.00,30.12,M,9.00,M,M,M,M,M,M,M,M,M,-SN,M,M,M,M,M,M,8.50,KSPF 122015Z AUTO 28004KT 9SM -SN M09/M12 A3012 RMK AO2
MHE,2020-02-12 20:16,-98.0386,43.7748,395.73,3.90,-2.00,75.92,350.00,26.00,0.00,30.15,M,0.50,37.00,SCT,BKN,OVC,M,1200.00,2500.00,5500.00,M,BLSN,M,M,M,40.00,360.00,2020-02-12 19:57,-20.60,KMHE 122016Z AUTO 35026G37KT 1/2SM BLSN SCT012 BKN025 OVC055 M16/M19 A3015 RMK AO2 PK WND 36040/1957 T11561189
RAP,2020-02-12 20:17,-103.0574,44.0453,964.71,16.00,10.00,76.77,360.00,10.00,0.00,30.16,M,5.00,M,BKN,OVC,M,M,2500.00,3300.00,M,M,HZ,M,M,M,M,M,M,2.90,KRAP 122017Z 36010KT 5SM HZ BKN025 OVC033 M09/M12 A3016 RMK AO2 T10891122
RCA,2020-02-12 20:17,-103.1036,44.1451,977.43,15.80,10.40,78.84,10.00,8.00,0.00,30.15,1025.60,3.00,M,FEW,OVC,M,M,600.00,2000.00,M,M,-SN,M,M,M,M,M,M,4.16,KRCA 122017Z 01008KT 3SM -SN FEW006 OVC020 M09/M12 A3015 RMK AO2A CIG 017V022 CIG 014 RWY13 SLP256 $
CUT,2020-02-12 20:19,-103.6114,43.7331,1686.81,19.00,6.10,56.57,M,6.00,0.00,29.95,M,10.00,17.00,SCT,M,M,M,2800.00,M,M,M,M,M,M,M,M,M,M,9.87,KCUT 122019Z AUTO VRB06G17KT 10SM SCT028 M07/M14 A2995 RMK AO2 T10721144
ICR,2020-02-12 20:23,-99.8422,43.3903,611.93,10.90,1.90,66.41,330.00,19.00,0.00,30.19,M,10.00,27.00,SCT,BKN,OVC,M,1900.00,3600.00,5000.00,M,M,M,M,M,30.00,330.00,2020-02-12 19:57,-8.47,KICR 122023Z AUTO 33019G27KT 10SM SCT019 BKN036 OVC050 M12/M17 A3019 RMK AO2 PK WND 33030/1957 T11171167
YKN,2020-02-12 20:25,-97.3859,42.9167,389.54,12.20,8.60,85.17,330.00,24.00,T,30.03,M,2.00,30.00,BKN,BKN,OVC,M,1100.00,1600.00,2700.00,M,-SN BR,M,M,M,32.00,320.00,2020-02-12 20:06,-8.65,KYKN 122025Z AUTO 33024G30KT 2SM -SN BR BKN011 BKN016 OVC027 M11/M13 A3003 RMK AO2 PK WND 32032/2006 PRESRR P0000 FZRANO
BKX,2020-02-12 20:26,-96.8169,44.3048,490.28,-0.40,-5.80,77.32,350.00,21.00,T,30.03,M,1.25,26.00,OVC,M,M,M,700.00,M,M,M,-SN,M,M,M,32.00,350.00,2020-02-12 20:10,-24.36,KBKX 122026Z AUTO 35021G26KT 1 1/4SM -SN OVC007 M18/M21 A3003 RMK AO2 PK WND 35032/2010 CIG 005V010 PRESRR P0000 FZRANO
RAP,2020-02-12 20:31,-103.0574,44.0453,964.71,16.00,10.00,76.77,360.00,10.00,0.00,30.16,M,1.75,M,OVC,M,M,M,2300.00,M,M,M,HZ,M,M,M,M,M,M,2.90,KRAP 122031Z 36010KT 1 3/4SM HZ OVC023 M09/M12 A3016 RMK AO2 T10891122
YKN,2020-02-12 20:32,-97.3859,42.9167,389.54,12.20,8.60,85.17,330.00,25.00,T,30.04,M,1.25,32.00,BKN,OVC,M,M,1100.00,1600.00,M,M,-SN BR,M,M,M,32.00,330.00,2020-02-12 20:30,-8.99,KYKN 122032Z AUTO 33025G32KT 1 1/4SM -SN BR BKN011 OVC016 M11/M13 A3004 RMK AO2 PK WND 33032/2030 CIG 007V014 P0000 FZRANO
MDS,2020-02-12 20:35,-97.0859,44.0160,520.80,1.40,1.40,100.00,350.00,22.00,0.01,30.03,M,1.00,28.00,SCT,M,M,M,9500.00,M,M,M,-RA,M,M,M,M,M,M,-22.40,KMDS 122035Z AUTO 35022G28KT 1SM -RA SCT095 M17/M17 A3003 RMK AO2 P0001
9V9,2020-02-12 20:35,-99.3183,43.7667,509.76,8.60,0.50,68.96,340.00,23.00,0.00,30.20,M,7.00,31.00,BKN,M,M,M,1100.00,M,M,M,M,M,M,M,M,M,M,-13.14,K9V9 122035Z AUTO 34023G31KT 7SM BKN011 M13/M17 A3020 RMK AO2 T11301175
SPF,2020-02-12 20:35,-103.7830,44.4803,1186.17,15.80,10.40,78.84,270.00,5.00,0.00,30.12,M,10.00,M,M,M,M,M,M,M,M,M,-SN,M,M,M,M,M,M,7.16,KSPF 122035Z AUTO 27005KT 10SM -SN M09/M12 A3012 RMK AO2
HON,2020-02-12 20:36,-98.2286,44.3852,384.37,-2.00,-7.10,78.29,350.00,26.00,T,30.20,M,0.50,36.00,VV ,M,M,M,900.00,M,M,M,UP,M,M,M,39.00,350.00,2020-02-12 20:21,-28.61,KHON 122036Z AUTO 35026G36KT 1/2SM UP VV009 M19/M22 A3020 RMK AO2 PK WND 35039/2021 UPB02 P0000 T11891217
PHP,2020-02-12 20:37,-101.6000,44.0500,671.74,14.00,7.00,73.19,360.00,14.00,0.00,30.24,M,10.00,21.00,SCT,OVC,M,M,1800.00,3800.00,M,M,M,M,M,M,M,M,M,-2.04,KPHP 122037Z AUTO 36014G21KT 10SM SCT018 OVC038 M10/M14 A3024 RMK AO2 T11001139
BKX,2020-02-12 20:40,-96.8169,44.3048,490.28,-0.40,-5.80,77.32,350.00,21.00,T,30.03,M,2.00,29.00,BKN,BKN,OVC,M,700.00,9500.00,11000.00,M,HZ,M,M,M,32.00,350.00,2020-02-12 20:10,-24.36,KBKX 122040Z AUTO 35021G29KT 2SM HZ BKN007 BKN095 OVC110 M18/M21 A3003 RMK AO2 PK WND 35032/2010 VIS 1 1/4V4 SNE30 CIG 005V010 P0000 FZRANO
ABR,2020-02-12 20:40,-98.4200,45.4500,395.00,-2.90,-11.90,64.53,350.00,22.00,0.00,30.28,M,10.00,31.00,BKN,M,M,M,1400.00,M,M,M,M,M,M,M,34.00,10.00,2020-02-12 20:03,-28.15,KABR 122040Z AUTO 35022G31KT 10SM BKN014 M19/M24 A3028 RMK AO2 PK WND 01034/2003 T11941244 $
BKX,2020-02-12 20:45,-96.8169,44.3048,490.28,-0.40,-5.80,77.32,360.00,18.00,T,30.04,M,1.50,28.00,SCT,SCT,BKN,M,700.00,9500.00,11000.00,M,HZ,M,M,M,32.00,350.00,2020-02-12 20:10,-22.90,KBKX 122045Z AUTO 36018G28KT 1 1/2SM HZ SCT007 SCT095 BKN110 M18/M21 A3004 RMK AO2 PK WND 35032/2010 SNE30 P0000 FZRANO
HON,2020-02-12 20:45,-98.2286,44.3852,384.37,-2.00,-7.10,78.29,350.00,25.00,T,30.21,M,0.25,36.00,OVC,M,M,M,1000.00,M,M,M,UP,M,M,M,39.00,350.00,2020-02-12 20:21,-28.22,KHON 122045Z AUTO 35025G36KT 1/4SM UP OVC010 M19/M22 A3021 RMK AO2 PK WND 35039/2021 UPB02 P0000 T11891217
MHE,2020-02-12 20:46,-98.0386,43.7748,395.73,3.00,-2.90,75.82,340.00,24.00,0.00,30.19,M,0.75,33.00,OVC,M,M,M,1300.00,M,M,M,BLSN,M,M,M,40.00,360.00,2020-02-12 19:57,-21.07,KMHE 122046Z AUTO 34024G33KT 3/4SM BLSN OVC013 M16/M19 A3019 RMK AO2 PK WND 36040/1957 PRESRR T11611194
YKN,2020-02-12 20:46,-97.3859,42.9167,389.54,10.40,6.80,85.05,330.00,25.00,T,30.05,M,2.50,33.00,BKN,BKN,OVC,M,1000.00,1600.00,2700.00,M,-SN,M,M,M,33.00,320.00,2020-02-12 20:39,-11.43,KYKN 122046Z AUTO 33025G33KT 2 1/2SM -SN BKN010 BKN016 OVC027 M12/M14 A3005 RMK AO2 PK WND 32033/2039 CIG 007V011 P0000 FZRANO
YKN,2020-02-12 20:51,-97.3859,42.9167,389.54,10.40,6.80,85.05,320.00,28.00,T,30.06,M,3.00,33.00,SCT,BKN,OVC,M,800.00,1300.00,2700.00,M,-SN,M,M,M,33.00,320.00,2020-02-12 20:51,-12.41,KYKN 122051Z AUTO 32028G33KT 3SM -SN SCT008 BKN013 OVC027 M12/M14 A3006 RMK AO2 PK WND 32033/2051 P0000 FZRANO
RAP,2020-02-12 20:52,-103.0574,44.0453,964.71,16.00,10.00,76.77,10.00,7.00,T,30.16,1025.60,2.00,M,BKN,OVC,M,M,2100.00,2700.00,M,M,-SN,M,M,M,M,M,M,5.28,KRAP 122052Z 01007KT 2SM -SN BKN021 OVC027 M09/M12 A3016 RMK AO2 SNB49 SLP256 P0000 60000 T10891122 56001
IEN,2020-02-12 20:52,-102.5110,43.0225,1008.84,21.00,10.90,64.48,30.00,16.00,T,30.11,1023.00,9.00,25.00,OVC,M,M,M,2100.00,M,M,M,M,M,M,M,26.00,20.00,2020-02-12 20:20,6.08,KIEN 122052Z AUTO 03016G25KT 9SM OVC021 M06/M12 A3011 RMK AO2 PK WND 02026/2020 SNE48 SLP230 P0000 60000 T10611117 50008
MBG,2020-02-12 20:52,-100.4078,45.5464,515.17,3.00,-9.00,56.47,350.00,15.00,0.00,30.28,1028.80,10.00,23.00,CLR,M,M,M,M,M,M,M,M,M,M,M,28.00,360.00,2020-02-12 20:11,-16.82,KMBG 122052Z AUTO 35015G23KT 10SM CLR M16/M23 A3028 RMK AO2 PK WND 36028/2011 SLP288 T11611228 53020
CUT,2020-02-12 20:53,-103.6114,43.7331,1686.81,19.90,6.10,54.44,360.00,8.00,0.00,29.95,1018.90,10.00,15.00,BKN,M,M,M,3700.00,M,M,M,M,M,M,M,M,M,M,9.21,KCUT 122053Z AUTO 36008G15KT 330V040 10SM BKN037 M07/M14 A2995 RMK AO2 SLP189 60001 T10671144 50004
ICR,2020-02-12 20:53,-99.8422,43.3903,611.93,10.90,1.00,63.69,340.00,18.00,0.00,30.20,1025.50,10.00,27.00,FEW,BKN,OVC,M,1600.00,3900.00,5000.00,M,M,M,M,M,30.00,330.00,2020-02-12 19:57,-8.03,KICR 122053Z AUTO 34018G27KT 10SM FEW016 BKN039 OVC050 M12/M17 A3020 RMK AO2 PK WND 33030/1957 SLP255 60000 T11171172 51038
MHE,2020-02-12 20:53,-98.0386,43.7748,395.73,3.00,-4.00,71.95,340.00,25.00,0.00,30.20,1024.90,0.75,33.00,OVC,M,M,M,1300.00,M,M,M,BLSN,M,M,M,40.00,360.00,2020-02-12 19:57,-21.45,KMHE 122053Z AUTO 34025G33KT 3/4SM BLSN OVC013 M16/M20 A3020 RMK AO2 PK WND 36040/1957 PRESRR SLP249 60000 T11611200 53051
RCA,2020-02-12 20:53,-103.1036,44.1451,977.43,15.80,10.40,78.84,50.00,5.00,0.00,30.15,1025.90,2.75,M,SCT,OVC,M,M,400.00,2000.00,M,M,-SN,M,M,M,M,M,M,7.16,KRCA 122053Z 05005KT 2 3/4SM -SN SCT004 OVC020 M09/M12 A3015 RMK AO2A CIG 016 RWY13 SLP259 $
ABR,2020-02-12 20:53,-98.4200,45.4500,395.00,-2.90,-13.00,61.08,360.00,18.00,0.00,30.29,1028.50,10.00,30.00,SCT,M,M,M,1400.00,M,M,M,M,M,M,M,34.00,10.00,2020-02-12 20:03,-26.19,KABR 122053Z AUTO 36018G30KT 10SM SCT014 M19/M25 A3029 RMK AO2 PK WND 01034/2003 SLP285 60000 T11941250 53032 $
PIR,2020-02-12 20:53,-100.2860,44.3827,522.03,3.00,-5.10,68.25,340.00,20.00,0.00,30.27,1028.10,10.00,M,CLR,M,M,M,M,M,M,M,M,M,M,M,29.00,350.00,2020-02-12 20:19,-19.38,KPIR 122053Z AUTO 34020KT 10SM CLR M16/M21 A3027 RMK AO2 PK WND 35029/2019 SLP281 T11611206 51030 PWINO FZRANO
ATY,2020-02-12 20:53,-97.1547,44.9140,525.88,-5.10,-9.90,79.16,340.00,27.00,0.00,30.09,1022.70,0.75,33.00,BKN,M,M,M,700.00,M,M,M,HZ,M,M,M,34.00,350.00,2020-02-12 20:34,-33.22,KATY 122053Z AUTO 34027G33KT 3/4SM HZ BKN007 M21/M23 A3009 RMK AO2 PK WND 35034/2034 SLP227 60000 T12061233 53021
FSD,2020-02-12 20:54,-96.7536,43.5769,428.94,8.60,1.40,71.92,360.00,22.00,0.00,30.02,M,1.00,33.00,SCT,BKN,OVC,M,900.00,1500.00,4300.00,M,-SN BLSN,M,M,M,M,M,M,-12.76,KFSD 122054Z 36022G33KT 1SM -SN BLSN SCT009 BKN015 OVC043 M13/M17 A3002
MDS,2020-02-12 20:55,-97.0859,44.0160,520.80,-0.40,-0.40,100.00,350.00,25.00,0.01,30.05,M,1.00,29.00,CLR,M,M,M,M,M,M,M,-RA,M,M,M,M,M,M,-26.05,KMDS 122055Z AUTO 35025G29KT 1SM -RA CLR M18/M18 A3005 RMK AO2 P0001
PHP,2020-02-12 20:55,-101.6000,44.0500,671.74,14.00,7.00,73.19,360.00,14.00,0.00,30.24,1026.80,10.00,19.00,BKN,OVC,M,M,2000.00,3700.00,M,M,M,M,M,M,M,M,M,-2.04,KPHP 122055Z AUTO 36014G19KT 10SM BKN020 OVC037 M10/M14 A3024 RMK AO2 SLP268 60000 T11001139 50019
9V9,2020-02-12 20:55,-99.3183,43.7667,509.76,7.90,0.50,71.17,340.00,22.00,0.00,30.22,M,10.00,30.00,BKN,M,M,M,1300.00,M,M,M,M,M,M,M,M,M,M,-13.69,K9V9 122055Z AUTO 34022G30KT 10SM BKN013 M13/M17 A3022 RMK AO2 T11341175
HON,2020-02-12 20:55,-98.2286,44.3852,384.37,-2.00,-7.10,78.29,350.00,23.00,T,30.22,1026.00,0.75,34.00,OVC,M,M,M,1100.00,M,M,M,UP,M,M,M,39.00,350.00,2020-02-12 20:21,-27.39,KHON 122055Z AUTO 35023G34KT 3/4SM UP OVC011 M19/M22 A3022 RMK AO2 PK WND 35039/2021 UPB02 SLP260 P0000 60000 T11891217 52016
SPF,2020-02-12 20:55,-103.7830,44.4803,1186.17,15.80,12.20,85.40,270.00,7.00,0.00,30.12,M,10.00,M,M,M,M,M,M,M,M,M,-SN,M,M,M,M,M,M,5.03,KSPF 122055Z AUTO 27007KT 10SM -SN M09/M11 A3012 RMK AO2
2WX,2020-02-12 20:56,-103.5464,45.6044,919.07,10.00,0.00,63.26,340.00,18.00,0.00,30.19,1027.00,M,M,M,M,M,M,M,M,M,M,M,M,M,M,28.00,340.00,2020-02-12 20:35,-9.21,K2WX 122056Z AUTO 34018KT M12/M18 A3019 RMK AO1 PK WND 34028/2035 SLP270 T11221178 52010
8D3,2020-02-12 20:56,-96.9914,45.6689,351.81,-7.10,-14.10,70.73,340.00,22.00,0.00,30.22,1027.40,M,32.00,M,M,M,M,M,M,M,M,M,M,M,M,37.00,350.00,2020-02-12 20:09,-33.78,K8D3 122056Z AUTO 34022G32KT M22/M26 A3022 RMK AO1 PK WND 35037/2009 SLP274 T12171256 53024
D07,2020-02-12 20:56,-102.0200,45.0300,778.50,8.10,0.00,68.90,10.00,12.00,0.00,30.22,1028.20,M,M,M,M,M,M,M,M,M,M,M,M,M,M,M,M,M,-8.42,KD07 122056Z AUTO 01012KT M13/M18 A3022 RMK AO1 SLP282 T11331178 51015
FSD,2020-02-12 20:56,-96.7536,43.5769,428.94,8.10,1.90,75.29,360.00,21.00,T,30.02,1019.20,1.25,30.00,SCT,BKN,OVC,M,900.00,1500.00,4300.00,M,-SN BLSN,M,M,M,33.00,340.00,2020-02-12 20:46,-13.02,KFSD 122056Z 36021G30KT 1 1/4SM -SN BLSN SCT009 BKN015 OVC043 M13/M17 A3002 RMK AO2 PK WND 34033/2046 TWR VIS 3 SLP192 P0000 60000 T11331167 53032
BKX,2020-02-12 20:56,-96.8169,44.3048,490.28,-0.90,-6.00,78.40,360.00,17.00,T,30.05,1022.10,3.00,22.00,FEW,SCT,M,M,900.00,11000.00,M,M,HZ,M,M,M,32.00,350.00,2020-02-12 20:10,-23.03,KBKX 122056Z AUTO 36017G22KT 3SM HZ FEW009 SCT110 M18/M21 A3005 RMK AO2 PK WND 35032/2010 SNE30 SLP221 P0000 60000 T11831211 53023 FZRANO
RCA,2020-02-12 20:56,-103.1036,44.1451,977.43,16.20,10.80,78.87,30.00,5.00,T,30.15,1025.90,2.50,M,SCT,SCT,OVC,M,400.00,800.00,2000.00,M,-SN,M,M,M,M,M,M,7.63,KRCA 122056Z 03005KT 2 1/2SM -SN SCT004 SCT008 OVC020 M09/M12 A3015 RMK AO2A VIS 2 1/2V3 CIG 016 RWY13 SLP259 P0000 60000 T10881118 51002 $
YKN,2020-02-12 20:56,-97.3859,42.9167,389.54,10.90,5.00,76.62,320.00,24.00,T,30.06,1021.40,4.00,33.00,SCT,BKN,OVC,M,800.00,1300.00,2900.00,M,-SN,M,M,M,33.00,320.00,2020-02-12 20:51,-10.41,KYKN 122056Z AUTO 32024G33KT 4SM -SN SCT008 BKN013 OVC029 M12/M15 A3006 RMK AO2 PK WND 32033/2051 SLP214 P0000 60000 T11171150 53042 FZRANO
RCA,2020-02-12 21:01,-103.1036,44.1451,977.43,15.80,10.40,78.84,40.00,6.00,0.00,30.15,1025.60,3.00,M,FEW,SCT,OVC,M,400.00,900.00,2000.00,M,-SN,M,M,M,M,M,M,6.02,KRCA 122101Z 04006KT 3SM -SN FEW004 SCT009 OVC020 M09/M12 A3015 RMK AO2A CIG 003 RWY13 SLP256 $
FSD,2020-02-12 21:02,-96.7536,43.5769,428.94,8.10,1.90,75.29,360.00,17.00,T,30.03,M,2.50,29.00,SCT,BKN,OVC,M,900.00,2700.00,6000.00,M,-SN BLSN,M,M,M,27.00,360.00,2020-02-12 20:58,-11.24,KFSD 122102Z 36017G29KT 2 1/2SM -SN BLSN SCT009 BKN027 OVC060 M13/M17 A3003 RMK AO2 PK WND 36027/2058 TWR VIS 3 P0000 T11331167
RCA,2020-02-12 21:06,-103.1036,44.1451,977.43,15.80,10.40,78.84,40.00,7.00,0.00,30.15,1025.60,4.00,M,SCT,SCT,OVC,M,500.00,1200.00,2200.00,M,-SN,M,M,M,M,M,M,5.03,KRCA 122106Z 04007KT 4SM -SN SCT005 SCT012 OVC022 M09/M12 A3015 RMK AO2A CIG 003 RWY13 SLP256 $
MHE,2020-02-12 21:07,-98.0386,43.7748,395.73,1.90,-4.00,75.71,330.00,23.00,0.00,30.21,M,1.00,33.00,OVC,M,M,M,1300.00,M,M,M,BLSN,M,M,M,33.00,340.00,2020-02-12 21:04,-22.15,KMHE 122107Z AUTO 33023G33KT 1SM BLSN OVC013 M17/M20 A3021 RMK AO2 PK WND 34033/2104 T11671200
YKN,2020-02-12 21:09,-97.3859,42.9167,389.54,8.60,3.20,78.18,330.00,25.00,T,30.08,M,2.50,31.00,BKN,BKN,OVC,M,1000.00,1500.00,3200.00,M,-SN,M,M,M,33.00,310.00,2020-02-12 21:03,-13.87,KYKN 122109Z AUTO 33025G31KT 2 1/2SM -SN BKN010 BKN015 OVC032 M13/M16 A3008 RMK AO2 PK WND 31033/2103 VIS 1 1/2V5 PRESRR P0000 FZRANO
RCA,2020-02-12 21:11,-103.1036,44.1451,977.43,15.80,10.40,78.84,40.00,7.00,0.00,30.15,1025.60,4.00,M,SCT,OVC,M,M,500.00,2400.00,M,M,-SN,M,M,M,M,M,M,5.03,KRCA 122111Z 04007KT 4SM -SN SCT005 OVC024 M09/M12 A3015 RMK AO2A CIG 011V024 CIG 003 RWY13 SLP256 $
BKX,2020-02-12 21:13,-96.8169,44.3048,490.28,-0.40,-7.60,70.85,350.00,19.00,0.00,30.06,M,2.50,30.00,FEW,SCT,M,M,900.00,11000.00,M,M,HZ,M,M,M,30.00,350.00,2020-02-12 21:07,-23.41,KBKX 122113Z AUTO 35019G30KT 2 1/2SM HZ FEW009 SCT110 M18/M22 A3006 RMK AO2 PK WND 35030/2107 FZRANO
FSD,2020-02-12 21:14,-96.7536,43.5769,428.94,8.60,1.40,71.92,350.00,21.00,0.00,30.03,M,2.50,28.00,FEW,BKN,OVC,M,800.00,3400.00,5500.00,M,-SN BLSN,M,M,M,M,M,M,-12.36,KFSD 122114Z 35021G28KT 2 1/2SM -SN BLSN FEW008 BKN034 OVC055 M13/M17 A3003
MHE,2020-02-12 21:14,-98.0386,43.7748,395.73,1.90,-4.00,75.71,340.00,25.00,0.00,30.21,M,0.75,36.00,VV ,M,M,M,1300.00,M,M,M,BLSN,M,M,M,36.00,350.00,2020-02-12 21:14,-22.94,KMHE 122114Z AUTO 34025G36KT 3/4SM BLSN VV013 M17/M20 A3021 RMK AO2 PK WND 35036/2114 T11671200
MDS,2020-02-12 21:15,-97.0859,44.0160,520.80,-0.40,-0.40,100.00,350.00,26.00,0.00,30.07,M,1.00,30.00,CLR,M,M,M,M,M,M,M,-RA,M,M,M,M,M,M,-26.44,KMDS 122115Z AUTO 35026G30KT 1SM -RA CLR M18/M18 A3007 RMK AO2
9V9,2020-02-12 21:15,-99.3183,43.7667,509.76,7.50,-0.20,70.13,350.00,20.00,0.00,30.22,M,10.00,25.00,OVC,M,M,M,1500.00,M,M,M,M,M,M,M,M,M,M,-13.40,K9V9 122115Z AUTO 35020G25KT 10SM OVC015 M14/M18 A3022 RMK AO2 T11361179
SPF,2020-02-12 21:15,-103.7830,44.4803,1186.17,15.80,12.20,85.40,300.00,8.00,0.00,30.12,M,10.00,M,M,M,M,M,M,M,M,M,-SN,M,M,M,M,M,M,4.16,KSPF 122115Z AUTO 30008KT 10SM -SN M09/M11 A3012 RMK AO2
FSD,2020-02-12 21:16,-96.7536,43.5769,428.94,8.10,1.90,75.29,340.00,24.00,T,30.03,M,4.00,28.00,FEW,BKN,OVC,M,800.00,3400.00,5500.00,M,-SN BLSN,M,M,M,28.00,340.00,2020-02-12 21:16,-14.18,KFSD 122116Z 34024G28KT 4SM -SN BLSN FEW008 BKN034 OVC055 M13/M17 A3003 RMK AO2 PK WND 34028/2116 P0000 T11331167
RCA,2020-02-12 21:16,-103.1036,44.1451,977.43,15.80,10.40,78.84,30.00,8.00,0.00,30.14,1025.50,4.00,M,BKN,OVC,M,M,500.00,2400.00,M,M,-SN,M,M,M,M,M,M,4.16,KRCA 122116Z 03008KT 4SM -SN BKN005 OVC024 M09/M12 A3014 RMK AO2A CIG 005V024 BKN V SCT CIG 003 RWY13 SLP255 $
YKN,2020-02-12 21:18,-97.3859,42.9167,389.54,8.60,3.20,78.18,330.00,26.00,T,30.09,M,2.50,31.00,BKN,BKN,OVC,M,800.00,1300.00,4000.00,M,-SN,M,M,M,33.00,310.00,2020-02-12 21:03,-14.21,KYKN 122118Z AUTO 33026G31KT 2 1/2SM -SN BKN008 BKN013 OVC040 M13/M16 A3009 RMK AO2 PK WND 31033/2103 VIS 1 1/4V5 CIG 007V011 P0000 FZRANO
PHP,2020-02-12 21:19,-101.6000,44.0500,671.74,12.90,7.00,76.82,10.00,11.00,T,30.24,M,10.00,M,SCT,OVC,M,M,1900.00,3700.00,M,M,M,M,M,M,M,M,M,-1.67,KPHP 122119Z AUTO 01011KT 10SM SCT019 OVC037 M11/M14 A3024 RMK AO2 UPB03E06 P0000 T11061139
RAP,2020-02-12 21:21,-103.0574,44.0453,964.71,16.00,10.90,79.92,40.00,7.00,0.01,30.15,M,2.50,M,SCT,BKN,OVC,M,1800.00,2900.00,3500.00,M,-SN,M,M,M,M,M,M,5.28,KRAP 122121Z 04007KT 2 1/2SM -SN SCT018 BKN029 OVC035 M09/M12 A3015 RMK AO2 P0001 T10891117
MHE,2020-02-12 21:21,-98.0386,43.7748,395.73,1.00,-6.00,71.71,340.00,25.00,0.00,30.21,M,1.00,36.00,OVC,M,M,M,1300.00,M,M,M,BLSN,M,M,M,36.00,340.00,2020-02-12 21:21,-24.16,KMHE 122121Z AUTO 34025G36KT 1SM BLSN OVC013 M17/M21 A3021 RMK AO2 PK WND 34036/2121 T11721211
YKN,2020-02-12 21:24,-97.3859,42.9167,389.54,8.60,1.40,71.92,320.00,25.00,T,30.09,M,5.00,33.00,SCT,BKN,OVC,M,1000.00,2600.00,4000.00,M,-SN,M,M,M,33.00,330.00,2020-02-12 21:24,-13.87,KYKN 122124Z AUTO 32025G33KT 5SM -SN SCT010 BKN026 OVC040 M13/M17 A3009 RMK AO2 PK WND 33033/2124 P0000 FZRANO
BKX,2020-02-12 21:25,-96.8169,44.3048,490.28,-0.40,-7.60,70.85,340.00,18.00,0.00,30.06,M,3.00,24.00,BKN,M,M,M,700.00,M,M,M,HZ,M,M,M,30.00,350.00,2020-02-12 21:07,-22.90,KBKX 122125Z AUTO 34018G24KT 3SM HZ BKN007 M18/M22 A3006 RMK AO2 PK WND 35030/2107 CIG 006V011 FZRANO
ATY,2020-02-12 21:25,-97.1547,44.9140,525.88,-6.00,-11.00,78.29,340.00,25.00,T,30.11,M,1.00,34.00,CLR,M,M,M,M,M,M,M,HZ,M,M,M,37.00,350.00,2020-02-12 21:02,-33.63,KATY 122125Z AUTO 34025G34KT 1SM HZ CLR M21/M24 A3011 RMK AO2 PK WND 35037/2102 UPB14E25 P0000 T12111239 $
YKN,2020-02-12 21:28,-97.3859,42.9167,389.54,6.80,1.40,78.01,320.00,29.00,T,30.09,M,2.50,34.00,BKN,OVC,M,M,1000.00,3500.00,M,M,-SN,M,M,M,34.00,330.00,2020-02-12 21:28,-17.66,KYKN 122128Z AUTO 32029G34KT 2 1/2SM -SN BKN010 OVC035 M14/M17 A3009 RMK AO2 PK WND 33034/2128 CIG 007V013 P0000 FZRANO
FSD,2020-02-12 21:30,-96.7536,43.5769,428.94,7.00,1.00,75.88,340.00,19.00,T,30.05,M,5.00,M,BKN,BKN,OVC,M,900.00,2400.00,5000.00,M,BLSN,M,M,M,30.00,340.00,2020-02-12 21:17,-13.62,KFSD 122130Z 34019KT 5SM BLSN BKN009 BKN024 OVC050 M14/M17 A3005 RMK AO2 PK WND 34030/2117 SNE26 PRESRR P0000 T11391172
RCA,2020-02-12 21:31,-103.1036,44.1451,977.43,15.80,8.60,72.73,30.00,8.00,0.00,30.15,1025.90,2.75,M,BKN,M,M,M,500.00,M,M,M,-SN,M,M,M,M,M,M,4.16,KRCA 122131Z 03008KT 2 3/4SM -SN BKN005 M09/M13 A3015 RMK AO2A VIS 2 3/4V4 CIG 003 RWY13 SLP259 $
RAP,2020-02-12 21:33,-103.0574,44.0453,964.71,16.00,10.00,76.77,50.00,8.00,0.01,30.15,M,2.50,M,SCT,OVC,M,M,2300.00,3300.00,M,M,-SN,M,M,M,M,M,M,4.40,KRAP 122133Z 05008KT 2 1/2SM -SN SCT023 OVC033 M09/M12 A3015 RMK AO2 P0001 T10891122
MDS,2020-02-12 21:35,-97.0859,44.0160,520.80,-0.40,-0.40,100.00,350.00,23.00,0.00,30.07,M,1.25,31.00,CLR,M,M,M,M,M,M,M,-RA,M,M,M,M,M,M,-25.24,KMDS 122135Z AUTO 35023G31KT 1 1/4SM -RA CLR M18/M18 A3007 RMK AO2
BKX,2020-02-12 21:35,-96.8169,44.3048,490.28,-2.20,-7.60,77.14,340.00,19.00,0.00,30.08,M,4.00,26.00,SCT,M,M,M,700.00,M,M,M,HZ,M,M,M,30.00,350.00,2020-02-12 21:07,-25.79,KBKX 122135Z AUTO 34019G26KT 4SM HZ SCT007 M19/M22 A3008 RMK AO2 PK WND 35030/2107 FZRANO
9V9,2020-02-12 21:35,-99.3183,43.7667,509.76,7.00,-2.00,65.89,350.00,21.00,0.00,30.23,M,10.00,28.00,BKN,M,M,M,1500.00,M,M,M,M,M,M,M,M,M,M,-14.49,K9V9 122135Z AUTO 35021G28KT 10SM BKN015 M14/M19 A3023 RMK AO2 T11391189
SPF,2020-02-12 21:35,-103.7830,44.4803,1186.17,15.80,12.20,85.40,300.00,9.00,0.00,30.13,M,10.00,M,M,M,M,M,M,M,M,M,-SN,M,M,M,M,M,M,3.37,KSPF 122135Z AUTO 30009KT 10SM -SN M09/M11 A3013 RMK AO2
YKN,2020-02-12 21:35,-97.3859,42.9167,389.54,6.80,1.40,78.01,330.00,26.00,T,30.09,M,3.00,34.00,SCT,BKN,OVC,M,1000.00,2900.00,3700.00,M,-SN,M,M,M,34.00,320.00,2020-02-12 21:29,-16.66,KYKN 122135Z AUTO 33026G34KT 3SM -SN SCT010 BKN029 OVC037 M14/M17 A3009 RMK AO2 PK WND 32034/2129 P0000 FZRANO
RCA,2020-02-12 21:36,-103.1036,44.1451,977.43,15.80,10.40,78.84,40.00,6.00,0.00,30.15,1025.90,2.50,M,OVC,M,M,M,500.00,M,M,M,-SN,M,M,M,M,M,M,6.02,KRCA 122136Z 04006KT 2 1/2SM -SN OVC005 M09/M12 A3015 RMK AO2A VIS 2 1/2V3 OVC V BKN CIG 003 RWY13 SLP259 $
FSD,2020-02-12 21:37,-96.7536,43.5769,428.94,6.10,-0.90,72.31,340.00,22.00,T,30.06,M,7.00,30.00,SCT,BKN,OVC,M,900.00,2000.00,5000.00,M,BLSN,M,M,M,30.00,340.00,2020-02-12 21:17,-16.10,KFSD 122137Z 34022G30KT 7SM BLSN SCT009 BKN020 OVC050 M14/M18 A3006 RMK AO2 PK WND 34030/2117 SNE26 P0000 T11441183
HON,2020-02-12 21:39,-98.2286,44.3852,384.37,-2.90,-8.00,78.21,340.00,20.00,T,30.24,M,1.00,30.00,OVC,M,M,M,1100.00,M,M,M,HZ,M,M,M,34.00,350.00,2020-02-12 21:00,-27.22,KHON 122139Z AUTO 34020G30KT 1SM HZ OVC011 M19/M22 A3024 RMK AO2 PK WND 35034/2100 UPE09 P0000 T11941222
FSD,2020-02-12 21:41,-96.7536,43.5769,428.94,6.10,-0.90,72.31,340.00,19.00,T,30.06,M,9.00,30.00,BKN,OVC,M,M,1000.00,5000.00,M,M,M,M,M,M,30.00,340.00,2020-02-12 21:17,-14.81,KFSD 122141Z 34019G30KT 9SM BKN010 OVC050 M14/M18 A3006 RMK AO2 PK WND 34030/2117 SNE26 DRSN P0000 T11441183
RCA,2020-02-12 21:41,-103.1036,44.1451,977.43,15.80,8.60,72.73,30.00,8.00,0.00,30.15,1025.90,2.50,M,OVC,M,M,M,400.00,M,M,M,-SN,M,M,M,M,M,M,4.16,KRCA 122141Z 03008KT 2 1/2SM -SN OVC004 M09/M13 A3015 RMK AO2A VIS 2 1/4V2 3/4 VIS 2 RWY13 OVC V BKN CIG 003 RWY13 SLP259 $
YKN,2020-02-12 21:43,-97.3859,42.9167,389.54,6.80,1.40,78.01,320.00,21.00,T,30.10,M,2.00,31.00,SCT,BKN,OVC,M,1000.00,3300.00,4000.00,M,-SN,M,M,M,34.00,320.00,2020-02-12 21:29,-14.76,KYKN 122143Z AUTO 32021G31KT 2SM -SN SCT010 BKN033 OVC040 M14/M17 A3010 RMK AO2 PK WND 32034/2129 P0000 FZRANO
ATY,2020-02-12 21:45,-97.1547,44.9140,525.88,-6.00,-11.90,74.87,340.00,25.00,T,30.12,M,1.50,33.00,CLR,M,M,M,M,M,M,M,HZ,M,M,M,37.00,350.00,2020-02-12 21:02,-33.63,KATY 122145Z AUTO 34025G33KT 1 1/2SM HZ CLR M21/M24 A3012 RMK AO2 PK WND 35037/2102 UPB14E25 P0000 T12111244 $
HON,2020-02-12 21:47,-98.2286,44.3852,384.37,-2.90,-9.00,74.47,350.00,25.00,T,30.25,M,0.50,37.00,OVC,M,M,M,1100.00,M,M,M,HZ,M,M,M,37.00,350.00,2020-02-12 21:45,-29.44,KHON 122147Z AUTO 35025G37KT 1/2SM HZ OVC011 M19/M23 A3025 RMK AO2 PK WND 35037/2145 UPE09 P0000 T11941228
RAP,2020-02-12 21:48,-103.0574,44.0453,964.71,15.80,10.40,78.84,40.00,9.00,0.01,30.15,M,1.75,M,FEW,BKN,OVC,M,1300.00,1900.00,3100.00,M,-SN,M,M,M,M,M,M,3.37,KRAP 122148Z 04009KT 1 3/4SM -SN FEW013 BKN019 OVC031 M09/M12 A3015 RMK AO2 P0001
YKN,2020-02-12 21:48,-97.3859,42.9167,389.54,6.80,3.20,84.80,330.00,24.00,T,30.10,M,1.00,31.00,SCT,SCT,OVC,M,800.00,1200.00,3300.00,M,-SN BR,M,M,M,34.00,320.00,2020-02-12 21:29,-15.94,KYKN 122148Z AUTO 33024G31KT 1SM -SN BR SCT008 SCT012 OVC033 M14/M16 A3010 RMK AO2 PK WND 32034/2129 P0000 FZRANO
RAP,2020-02-12 21:49,-103.0574,44.0453,964.71,16.00,10.00,76.77,40.00,9.00,0.01,30.15,1025.80,1.75,M,FEW,BKN,OVC,M,1300.00,1900.00,3100.00,M,-SN,M,M,M,M,M,M,3.62,KRAP 122149Z 04009KT 1 3/4SM -SN FEW013 BKN019 OVC031 M09/M12 A3015 RMK AO2 SLP258 P0001 T10891122
RCA,2020-02-12 21:51,-103.1036,44.1451,977.43,15.80,10.40,78.84,30.00,7.00,0.00,30.15,1025.90,1.88,M,BKN,OVC,M,M,400.00,1600.00,M,M,-SN,M,M,M,M,M,M,5.03,KRCA 122151Z 03007KT 1 7/8SM -SN BKN004 OVC016 M09/M12 A3015 RMK AO2A VIS 1 7/8V2 1/2 BKN V OVC CIG 003 RWY13 SLP259 $
IEN,2020-02-12 21:52,-102.5110,43.0225,1008.84,21.00,10.00,61.95,20.00,13.00,0.00,30.13,1023.90,10.00,21.00,BKN,OVC,M,M,2100.00,4300.00,M,M,M,M,M,M,M,M,M,7.48,KIEN 122152Z AUTO 02013G21KT 10SM BKN021 OVC043 M06/M12 A3013 RMK AO2 SLP239 T10611122
MBG,2020-02-12 21:52,-100.4078,45.5464,515.17,1.90,-11.00,53.84,10.00,10.00,0.00,30.29,1029.20,10.00,19.00,CLR,M,M,M,M,M,M,M,M,M,M,M,M,M,M,-14.78,KMBG 122152Z AUTO 01010G19KT 10SM CLR M17/M24 A3029 RMK AO2 SLP292 T11671239
YKN,2020-02-12 21:52,-97.3859,42.9167,389.54,6.80,3.20,84.80,330.00,28.00,T,30.10,M,1.25,34.00,BKN,BKN,OVC,M,1000.00,3000.00,3800.00,M,-SN BR,M,M,M,34.00,330.00,2020-02-12 21:52,-17.33,KYKN 122152Z AUTO 33028G34KT 1 1/4SM -SN BR BKN010 BKN030 OVC038 M14/M16 A3010 RMK AO2 PK WND 33034/2152 VIS 3/4V5 CIG 008V013 P0000 FZRANO
CUT,2020-02-12 21:53,-103.6114,43.7331,1686.81,18.00,5.00,56.16,M,4.00,0.00,29.95,1019.10,10.00,M,BKN,OVC,M,M,4400.00,5500.00,M,M,M,M,M,M,M,M,M,11.07,KCUT 122153Z AUTO VRB04KT 10SM BKN044 OVC055 M08/M15 A2995 RMK AO2 SLP191 T10781150
ICR,2020-02-12 21:53,-99.8422,43.3903,611.93,9.00,-2.90,57.69,340.00,22.00,0.00,30.21,1026.00,10.00,29.00,FEW,M,M,M,1500.00,M,M,M,M,M,M,M,32.00,340.00,2020-02-12 21:03,-12.22,KICR 122153Z AUTO 34022G29KT 10SM FEW015 M13/M19 A3021 RMK AO2 PK WND 34032/2103 SLP260 T11281194
MHE,2020-02-12 21:53,-98.0386,43.7748,395.73,-0.90,-7.10,74.33,340.00,25.00,0.00,30.22,1025.70,1.00,34.00,OVC,M,M,M,1100.00,M,M,M,BLSN,M,M,M,36.00,340.00,2020-02-12 21:21,-26.73,KMHE 122153Z AUTO 34025G34KT 1SM BLSN OVC011 M18/M22 A3022 RMK AO2 PK WND 34036/2121 SLP257 T11831217
ABR,2020-02-12 21:53,-98.4200,45.4500,395.00,-4.00,-14.10,60.91,360.00,26.00,0.00,30.31,1029.10,9.00,32.00,CLR,M,M,M,M,M,M,M,M,M,M,M,33.00,10.00,2020-02-12 21:08,-31.33,KABR 122153Z AUTO 36026G32KT 9SM CLR M20/M26 A3031 RMK AO2 PK WND 01033/2108 SLP291 T12001256 $
PIR,2020-02-12 21:53,-100.2860,44.3827,522.03,3.00,-6.00,65.35,10.00,16.00,0.00,30.29,1028.60,10.00,26.00,CLR,M,M,M,M,M,M,M,M,M,M,M,28.00,350.00,2020-02-12 20:56,-17.38,KPIR 122153Z AUTO 01016G26KT 10SM CLR M16/M21 A3029 RMK AO2 PK WND 35028/2056 SLP286 T11611211 PWINO FZRANO
ATY,2020-02-12 21:53,-97.1547,44.9140,525.88,-6.00,-13.00,70.87,340.00,25.00,T,30.12,1023.90,1.25,32.00,CLR,M,M,M,M,M,M,M,HZ,M,M,M,37.00,350.00,2020-02-12 21:02,-33.63,KATY 122153Z AUTO 34025G32KT 1 1/4SM HZ CLR M21/M25 A3012 RMK AO2 PK WND 35037/2102 UPB14E25 SLP239 P0000 T12111250 $
MDS,2020-02-12 21:55,-97.0859,44.0160,520.80,-0.40,-2.20,91.85,350.00,27.00,0.01,30.08,M,0.75,33.00,VV ,M,M,M,500.00,M,M,M,-RA,M,M,M,M,M,M,-26.82,KMDS 122155Z AUTO 35027G33KT 3/4SM -RA VV005 M18/M19 A3008 RMK AO2 P0001
PHP,2020-02-12 21:55,-101.6000,44.0500,671.74,12.00,3.90,69.38,360.00,15.00,T,30.25,1027.10,10.00,22.00,OVC,M,M,M,3300.00,M,M,M,M,M,M,M,M,M,M,-5.15,KPHP 122155Z AUTO 36015G22KT 10SM OVC033 M11/M16 A3025 RMK AO2 UPB03E06 SLP271 P0000 T11111156
9V9,2020-02-12 21:55,-99.3183,43.7667,509.76,5.90,-3.80,63.58,350.00,17.00,0.00,30.24,M,10.00,28.00,SCT,SCT,M,M,1300.00,1900.00,M,M,M,M,M,M,M,M,M,-14.12,K9V9 122155Z AUTO 35017G28KT 10SM SCT013 SCT019 M14/M20 A3024 RMK AO2 T11451199
HON,2020-02-12 21:55,-98.2286,44.3852,384.37,-2.90,-8.00,78.21,350.00,23.00,T,30.26,1027.10,1.00,30.00,OVC,M,M,M,1100.00,M,M,M,HZ,M,M,M,37.00,350.00,2020-02-12 21:45,-28.60,KHON 122155Z AUTO 35023G30KT 1SM HZ OVC011 M19/M22 A3026 RMK AO2 PK WND 35037/2145 UPE09 SLP271 P0000 T11941222
SPF,2020-02-12 21:55,-103.7830,44.4803,1186.17,15.80,14.00,92.44,320.00,10.00,0.00,30.13,M,0.25,M,M,M,M,M,M,M,M,M,SN,M,M,M,M,M,M,2.65,KSPF 122155Z AUTO 32010KT 1/4SM SN M09/M10 A3013 RMK AO2
2WX,2020-02-12 21:56,-103.5464,45.6044,919.07,9.00,-0.90,63.42,350.00,13.00,0.00,30.19,1027.20,M,M,M,M,M,M,M,M,M,M,M,M,M,M,M,M,M,-7.90,K2WX 122156Z AUTO 35013KT M13/M18 A3019 RMK AO1 SLP272 T11281183
8D3,2020-02-12 21:56,-96.9914,45.6689,351.81,-8.00,-16.10,66.79,340.00,26.00,0.00,30.25,1028.40,M,32.00,M,M,M,M,M,M,M,M,M,M,M,M,35.00,350.00,2020-02-12 21:09,-36.76,K8D3 122156Z AUTO 34026G32KT M22/M27 A3025 RMK AO1 PK WND 35035/2109 SLP284 T12221267
D07,2020-02-12 21:56,-102.0200,45.0300,778.50,6.10,-2.00,68.64,10.00,18.00,0.00,30.22,1028.20,M,M,M,M,M,M,M,M,M,M,M,M,M,M,M,M,M,-14.35,KD07 122156Z AUTO 01018KT M14/M19 A3022 RMK AO1 SLP282 T11441189
FSD,2020-02-12 21:56,-96.7536,43.5769,428.94,5.00,-2.00,72.18,350.00,22.00,T,30.07,1020.90,10.00,31.00,BKN,OVC,M,M,1000.00,5000.00,M,M,M,M,M,M,31.00,350.00,2020-02-12 21:55,-17.58,KFSD 122156Z 35022G31KT 10SM BKN010 OVC050 M15/M19 A3007 RMK AO2 PK WND 35031/2155 SNE26 SLP209 P0000 T11501189
BKX,2020-02-12 21:56,-96.8169,44.3048,490.28,-2.90,-9.00,74.47,340.00,17.00,0.00,30.09,1023.40,4.00,25.00,FEW,M,M,M,700.00,M,M,M,HZ,M,M,M,30.00,350.00,2020-02-12 21:07,-25.65,KBKX 122156Z AUTO 34017G25KT 4SM HZ FEW007 M19/M23 A3009 RMK AO2 PK WND 35030/2107 SLP234 T11941228 FZRANO
RCA,2020-02-12 21:56,-103.1036,44.1451,977.43,15.30,9.70,78.09,10.00,8.00,T,30.15,1025.60,2.00,M,BKN,OVC,M,M,400.00,1800.00,M,M,-SN,M,M,M,M,M,M,3.54,KRCA 122156Z 01008KT 2SM -SN BKN004 OVC018 M09/M12 A3015 RMK AO2A CIG 003 RWY13 SLP256 P0000 T10931124 $
YKN,2020-02-12 21:56,-97.3859,42.9167,389.54,6.10,1.00,79.05,320.00,26.00,T,30.11,1023.10,1.75,34.00,BKN,BKN,OVC,M,1000.00,3000.00,3800.00,M,-SN,M,M,M,34.00,330.00,2020-02-12 21:52,-17.61,KYKN 122156Z AUTO 32026G34KT 1 3/4SM -SN BKN010 BKN030 OVC038 M14/M17 A3011 RMK AO2 PK WND 33034/2152 VIS 3/4V5 CIG 007V013 SLP231 P0000 T11441172 FZRANO
YKN,2020-02-12 21:58,-97.3859,42.9167,389.54,6.80,1.40,78.01,330.00,27.00,T,30.10,M,3.00,34.00,BKN,BKN,OVC,M,1000.00,3000.00,3800.00,M,-SN,M,M,M,32.00,320.00,2020-02-12 21:58,-17.00,KYKN 122158Z AUTO 33027G34KT 3SM -SN BKN010 BKN030 OVC038 M14/M17 A3010 RMK AO2 PK WND 32032/2158 CIG 007V019 P0000 FZRANO
RCA,2020-02-12 22:01,-103.1036,44.1451,977.43,15.80,8.60,72.73,20.00,7.00,0.00,30.15,1025.60,2.75,M,BKN,BKN,OVC,M,400.00,1100.00,1800.00,M,-SN,M,M,M,M,M,M,5.03,KRCA 122201Z 02007KT 2 3/4SM -SN BKN004 BKN011 OVC018 M09/M13 A3015 RMK AO2A VIS 1 7/8V2 3/4 VIS 2 RWY13 CIG 003 RWY13 SLP256 $
HON,2020-02-12 22:03,-98.2286,44.3852,384.37,-2.90,-9.00,74.47,350.00,23.00,0.00,30.26,M,0.75,33.00,BKN,BKN,M,M,1100.00,1400.00,M,M,HZ,M,M,M,33.00,350.00,2020-02-12 21:59,-28.60,KHON 122203Z AUTO 35023G33KT 3/4SM HZ BKN011 BKN014 M19/M23 A3026 RMK AO2 PK WND 35033/2159 T11941228
RCA,2020-02-12 22:06,-103.1036,44.1451,977.43,15.80,10.40,78.84,30.00,6.00,0.00,30.15,1025.60,2.75,M,SCT,SCT,OVC,M,400.00,1200.00,1900.00,M,-SN,M,M,M,M,M,M,6.02,KRCA 122206Z 03006KT 2 3/4SM -SN SCT004 SCT012 OVC019 M09/M12 A3015 RMK AO2A VIS 2 1/4V3 VIS 2 1/4 RWY13 CIG 004V019 CIG 003 RWY13 SLP256 $
RCA,2020-02-12 22:11,-103.1036,44.1451,977.43,15.80,10.40,78.84,30.00,6.00,0.00,30.15,1025.60,2.50,M,FEW,SCT,OVC,M,500.00,1200.00,1900.00,M,-SN,M,M,M,M,M,M,6.02,KRCA 122211Z 03006KT 2 1/2SM -SN FEW005 SCT012 OVC019 M09/M12 A3015 RMK AO2A VIS 2 1/2V3 CIG 012V019 CIG 003 RWY13 SLP256 $
FSD,2020-02-12 22:13,-96.7536,43.5769,428.94,3.90,-2.90,72.74,360.00,22.00,0.00,30.09,M,10.00,30.00,SCT,BKN,M,M,1100.00,5000.00,M,M,M,M,M,M,30.00,360.00,2020-02-12 22:08,-19.05,KFSD 122213Z 36022G30KT 10SM SCT011 BKN050 M16/M19 A3009 RMK AO2 PK WND 36030/2208 T11561194
IEN,2020-02-12 22:13,-102.5110,43.0225,1008.84,19.00,10.00,67.46,20.00,11.00,T,30.13,M,2.50,M,SCT,OVC,M,M,2200.00,3000.00,M,M,-SN,M,M,M,M,M,M,6.04,KIEN 122213Z AUTO 02011KT 2 1/2SM -SN SCT022 OVC030 M07/M12 A3013 RMK AO2 SNB2159 P0000 T10721122
HON,2020-02-12 22:13,-98.2286,44.3852,384.37,-2.90,-9.00,74.47,340.00,23.00,0.00,30.26,M,1.00,30.00,BKN,M,M,M,1100.00,M,M,M,HZ,M,M,M,33.00,350.00,2020-02-12 21:59,-28.60,KHON 122213Z AUTO 34023G30KT 1SM HZ BKN011 M19/M23 A3026 RMK AO2 PK WND 35033/2159 T11941228
ATY,2020-02-12 22:13,-97.1547,44.9140,525.88,-7.10,-13.00,74.75,350.00,25.00,0.00,30.14,M,1.75,32.00,FEW,M,M,M,900.00,M,M,M,HZ,M,M,M,32.00,340.00,2020-02-12 21:57,-35.12,KATY 122213Z AUTO 35025G32KT 1 3/4SM HZ FEW009 M22/M25 A3014 RMK AO2 PK WND 34032/2157 T12171250 $
MDS,2020-02-12 22:15,-97.0859,44.0160,520.80,-2.20,-4.00,91.78,350.00,24.00,0.00,30.10,M,1.50,33.00,CLR,M,M,M,M,M,M,M,-RA,M,M,M,M,M,M,-28.08,KMDS 122215Z AUTO 35024G33KT 1 1/2SM -RA CLR M19/M20 A3010 RMK AO2
9V9,2020-02-12 22:15,-99.3183,43.7667,509.76,5.20,-3.80,65.65,340.00,20.00,0.00,30.24,M,10.00,25.00,SCT,SCT,M,M,1500.00,2000.00,M,M,M,M,M,M,M,M,M,-16.46,K9V9 122215Z AUTO 34020G25KT 10SM SCT015 SCT020 M15/M20 A3024 RMK AO2 T11491199
SPF,2020-02-12 22:15,-103.7830,44.4803,1186.17,15.80,12.20,85.40,350.00,12.00,0.00,30.13,M,0.25,17.00,M,M,M,M,M,M,M,M,-SN,M,M,M,M,M,M,1.38,KSPF 122215Z AUTO 35012G17KT 1/4SM -SN M09/M11 A3013 RMK AO2
IEN,2020-02-12 22:17,-102.5110,43.0225,1008.84,19.00,10.00,67.46,20.00,11.00,T,30.13,M,1.75,M,BKN,OVC,M,M,2700.00,3200.00,M,M,-SN,M,M,M,M,M,M,6.04,KIEN 122217Z AUTO 02011KT 1 3/4SM -SN BKN027 OVC032 M07/M12 A3013 RMK AO2 SNB2159 P0000 T10721122
YKN,2020-02-12 22:20,-97.3859,42.9167,389.54,5.00,-0.40,77.84,340.00,27.00,T,30.12,M,2.00,33.00,OVC,M,M,M,1000.00,M,M,M,-SN,M,M,M,41.00,340.00,2020-02-12 22:04,-19.46,KYKN 122220Z AUTO 34027G33KT 2SM -SN OVC010 M15/M18 A3012 RMK AO2 PK WND 34041/2204 CIG 007V013 P0000 FZRANO
RCA,2020-02-12 22:21,-103.1036,44.1451,977.43,14.00,8.60,78.68,60.00,7.00,0.00,30.15,1025.60,1.88,M,FEW,FEW,OVC,M,500.00,1100.00,2100.00,M,-SN,M,M,M,M,M,M,2.84,KRCA 122221Z 06007KT 1 7/8SM -SN FEW005 FEW011 OVC021 M10/M13 A3015 RMK AO2A VIS 1 7/8V2 1/2 CIG 003 RWY13 SLP256 $
ICR,2020-02-12 22:25,-99.8422,43.3903,611.93,7.00,-2.90,63.14,340.00,21.00,0.00,30.22,M,10.00,30.00,BKN,M,M,M,1300.00,M,M,M,M,M,M,M,32.00,340.00,2020-02-12 22:14,-14.49,KICR 122225Z AUTO 34021G30KT 10SM BKN013 M14/M19 A3022 RMK AO2 PK WND 34032/2214 T11391194
ATY,2020-02-12 22:25,-97.1547,44.9140,525.88,-8.00,-14.10,73.90,350.00,19.00,0.00,30.15,M,3.00,M,CLR,M,M,M,M,M,M,M,HZ,M,M,M,32.00,340.00,2020-02-12 21:57,-33.46,KATY 122225Z AUTO 35019KT 3SM HZ CLR M22/M26 A3015 RMK AO2 PK WND 34032/2157 T12221256 $
RCA,2020-02-12 22:26,-103.1036,44.1451,977.43,14.00,8.60,78.68,60.00,5.00,0.00,30.15,1025.60,1.38,M,SCT,SCT,OVC,M,400.00,1000.00,2100.00,M,-SN,M,M,M,M,M,M,5.02,KRCA 122226Z 06005KT 1 3/8SM -SN SCT004 SCT010 OVC021 M10/M13 A3015 RMK AO2A VIS 1 3/8V2 1/4 CIG 003 RWY13 SLP256 $
IEN,2020-02-12 22:29,-102.5110,43.0225,1008.84,19.00,10.00,67.46,10.00,11.00,T,30.14,M,2.50,M,OVC,M,M,M,2500.00,M,M,M,-SN,M,M,M,M,M,M,6.04,KIEN 122229Z AUTO 01011KT 2 1/2SM -SN OVC025 M07/M12 A3014 RMK AO2 SNB2159 P0000 T10721122
YKN,2020-02-12 22:29,-97.3859,42.9167,389.54,5.00,-0.40,77.84,320.00,25.00,T,30.13,M,7.00,31.00,OVC,M,M,M,1000.00,M,M,M,M,M,M,M,41.00,340.00,2020-02-12 22:04,-18.74,KYKN 122229Z AUTO 32025G31KT 7SM OVC010 M15/M18 A3013 RMK AO2 PK WND 34041/2204 SNE28 CIG 007V013 P0000 FZRANO
FSD,2020-02-12 22:30,-96.7536,43.5769,428.94,3.90,-2.90,72.74,350.00,21.00,0.00,30.10,M,8.00,27.00,BKN,M,M,M,1100.00,M,M,M,M,M,M,M,30.00,360.00,2020-02-12 22:08,-18.62,KFSD 122230Z 35021G27KT 8SM BKN011 M16/M19 A3010 RMK AO2 PK WND 36030/2208 T11561194
RCA,2020-02-12 22:31,-103.1036,44.1451,977.43,14.00,8.60,78.68,50.00,5.00,0.00,30.15,1025.60,1.25,M,SCT,BKN,OVC,M,200.00,1000.00,2100.00,M,-SN,M,M,M,M,M,M,5.02,KRCA 122231Z 05005KT 1 1/4SM -SN SCT002 BKN010 OVC021 M10/M13 A3015 RMK AO2A VIS 1 1/4V1 3/4 CIG 010V021 BKN V SCT CIG 002 RWY13 SLP256 $
ICR,2020-02-12 22:33,-99.8422,43.3903,611.93,6.10,-2.90,65.77,340.00,20.00,0.00,30.22,M,10.00,27.00,SCT,M,M,M,1300.00,M,M,M,M,M,M,M,32.00,340.00,2020-02-12 22:14,-15.26,KICR 122233Z AUTO 34020G27KT 10SM SCT013 M14/M19 A3022 RMK AO2 PK WND 34032/2214 T11441194
MDS,2020-02-12 22:35,-97.0859,44.0160,520.80,-2.20,-4.00,91.78,350.00,22.00,0.00,30.11,M,2.50,28.00,CLR,M,M,M,M,M,M,M,-RA,M,M,M,M,M,M,-27.22,KMDS 122235Z AUTO 35022G28KT 2 1/2SM -RA CLR M19/M20 A3011 RMK AO2
9V9,2020-02-12 22:35,-99.3183,43.7667,509.76,4.10,-3.80,69.05,350.00,20.00,0.00,30.24,M,10.00,27.00,SCT,SCT,M,M,1000.00,1600.00,M,M,M,M,M,M,M,M,M,-17.92,K9V9 122235Z AUTO 35020G27KT 10SM SCT010 SCT016 M15/M20 A3024 RMK AO2 T11551199
HON,2020-02-12 22:35,-98.2286,44.3852,384.37,-2.90,-9.00,74.47,350.00,22.00,T,30.27,M,0.75,34.00,VV ,M,M,M,900.00,M,M,M,UP,M,M,M,34.00,360.00,2020-02-12 22:26,-28.15,KHON 122235Z AUTO 35022G34KT 3/4SM UP VV009 M19/M23 A3027 RMK AO2 PK WND 36034/2226 UPB35 P0000 T11941228
SPF,2020-02-12 22:35,-103.7830,44.4803,1186.17,14.00,10.40,85.28,340.00,9.00,0.00,30.14,M,4.00,M,M,M,M,M,M,M,M,M,-SN,M,M,M,M,M,M,1.13,KSPF 122235Z AUTO 34009KT 4SM -SN M10/M12 A3014 RMK AO2
RCA,2020-02-12 22:36,-103.1036,44.1451,977.43,14.00,10.40,85.28,30.00,6.00,0.00,30.15,1025.60,1.25,M,BKN,OVC,M,M,200.00,2000.00,M,M,-SN,M,M,M,M,M,M,3.85,KRCA 122236Z 03006KT 1 1/4SM -SN BKN002 OVC020 M10/M12 A3015 RMK AO2A CIG 002V021 BKN V SCT SLP256 $
RCA,2020-02-12 22:41,-103.1036,44.1451,977.43,14.00,10.40,85.28,30.00,6.00,0.00,30.15,1025.60,1.62,M,BKN,OVC,M,M,200.00,2000.00,M,M,-SN,M,M,M,M,M,M,3.85,KRCA 122241Z AUTO 03006KT 1 5/8SM -SN BKN002 OVC020 M10/M12 A3015 RMK AO2 VIS 1 1/8V1 5/8 SLP256 $
HON,2020-02-12 22:44,-98.2286,44.3852,384.37,-4.00,-9.90,75.09,350.00,22.00,T,30.27,M,1.25,30.00,SCT,M,M,M,900.00,M,M,M,HZ,M,M,M,34.00,360.00,2020-02-12 22:26,-29.63,KHON 122244Z AUTO 35022G30KT 1 1/4SM HZ SCT009 M20/M23 A3027 RMK AO2 PK WND 36034/2226 UPB35E44 P0000 T12001233
MHE,2020-02-12 22:45,-98.0386,43.7748,395.73,-0.90,-8.00,71.14,340.00,23.00,0.00,30.25,M,3.00,32.00,OVC,M,M,M,1200.00,M,M,M,HZ,M,M,M,34.00,350.00,2020-02-12 22:32,-25.91,KMHE 122245Z AUTO 34023G32KT 3SM HZ OVC012 M18/M22 A3025 RMK AO2 PK WND 35034/2232 T11831222
RCA,2020-02-12 22:46,-103.1036,44.1451,977.43,14.00,10.40,85.28,40.00,7.00,0.00,30.15,1025.60,1.75,M,BKN,OVC,M,M,200.00,1800.00,M,M,-SN,M,M,M,M,M,M,2.84,KRCA 122246Z AUTO 04007KT 1 3/4SM -SN BKN002 OVC018 M10/M12 A3015 RMK AO2 VIS 1 1/4V1 3/4 SLP256 $
MHE,2020-02-12 22:51,-98.0386,43.7748,395.73,-0.40,-9.40,64.88,340.00,24.00,0.00,30.25,M,1.75,32.00,OVC,M,M,M,1200.00,M,M,M,HZ,M,M,M,34.00,350.00,2020-02-12 22:32,-25.65,KMHE 122251Z AUTO 34024G32KT 1 3/4SM HZ OVC012 M18/M23 A3025 RMK AO2 PK WND 35034/2232
RCA,2020-02-12 22:51,-103.1036,44.1451,977.43,14.00,8.60,78.68,30.00,8.00,0.00,30.16,1025.90,1.38,M,BKN,OVC,M,M,300.00,1600.00,M,M,-SN,M,M,M,M,M,M,1.94,KRCA 122251Z AUTO 03008KT 1 3/8SM -SN BKN003 OVC016 M10/M13 A3016 RMK AO2 CIG 002 RWY13 SLP259 $
RAP,2020-02-12 22:52,-103.0574,44.0453,964.71,14.00,9.00,80.10,50.00,9.00,T,30.16,1025.70,1.25,M,OVC,M,M,M,1800.00,M,M,M,-SN,M,M,M,M,M,M,1.13,KRAP 122252Z 05009KT 1 1/4SM -SN OVC018 M10/M13 A3016 RMK AO2 SLP257 P0000 T11001128
IEN,2020-02-12 22:52,-102.5110,43.0225,1008.84,18.00,10.00,70.41,20.00,10.00,T,30.14,1024.40,1.75,M,OVC,M,M,M,2200.00,M,M,M,-SN,M,M,M,M,M,M,5.41,KIEN 122252Z AUTO 02010KT 1 3/4SM -SN OVC022 M08/M12 A3014 RMK AO2 SNB2159 SLP244 P0000 T10781122
MBG,2020-02-12 22:52,-100.4078,45.5464,515.17,1.00,-11.00,56.15,360.00,13.00,0.00,30.30,1029.60,10.00,M,CLR,M,M,M,M,M,M,M,M,M,M,M,M,M,M,-18.15,KMBG 122252Z AUTO 36013KT 10SM CLR M17/M24 A3030 RMK AO2 SLP296 T11721239
CUT,2020-02-12 22:53,-103.6114,43.7331,1686.81,16.00,3.00,55.85,320.00,5.00,0.00,29.97,1020.00,10.00,M,BKN,OVC,M,M,3500.00,4400.00,M,M,M,M,M,M,M,M,M,7.39,KCUT 122253Z AUTO 32005KT 10SM BKN035 OVC044 M09/M16 A2997 RMK AO2 SLP200 T10891161
ICR,2020-02-12 22:53,-99.8422,43.3903,611.93,5.00,-7.10,56.51,340.00,23.00,0.00,30.24,1027.10,10.00,30.00,CLR,M,M,M,M,M,M,M,M,M,M,M,32.00,340.00,2020-02-12 22:14,-17.98,KICR 122253Z AUTO 34023G30KT 10SM CLR M15/M22 A3024 RMK AO2 PK WND 34032/2214 SLP271 T11501217
MHE,2020-02-12 22:53,-98.0386,43.7748,395.73,-0.90,-9.00,67.74,340.00,24.00,0.00,30.25,1027.00,1.50,32.00,BKN,M,M,M,1200.00,M,M,M,HZ,M,M,M,34.00,350.00,2020-02-12 22:32,-26.33,KMHE 122253Z AUTO 34024G32KT 1 1/2SM HZ BKN012 M18/M23 A3025 RMK AO2 PK WND 35034/2232 SLP270 T11831228
HON,2020-02-12 22:53,-98.2286,44.3852,384.37,-4.00,-9.40,76.96,350.00,23.00,T,30.27,M,1.00,29.00,VV ,M,M,M,900.00,M,M,M,HZ,M,M,M,34.00,360.00,2020-02-12 22:26,-30.08,KHON 122253Z AUTO 35023G29KT 1SM HZ VV009 M20/M23 A3027 RMK AO2 PK WND 36034/2226 UPB35E44 P0000
ABR,2020-02-12 22:53,-98.4200,45.4500,395.00,-5.10,-15.00,61.36,10.00,20.00,T,30.33,1029.70,10.00,30.00,CLR,M,M,M,M,M,M,M,UP,M,M,M,30.00,360.00,2020-02-12 22:48,-30.14,KABR 122253Z AUTO 01020G30KT 10SM UP CLR M21/M26 A3033 RMK AO2 PK WND 36030/2248 UPB2157 SLP297 P0000 T12061261 $
PIR,2020-02-12 22:53,-100.2860,44.3827,522.03,1.00,-8.00,65.07,360.00,15.00,0.00,30.30,1029.10,10.00,M,CLR,M,M,M,M,M,M,M,M,M,M,M,M,M,M,-19.41,KPIR 122253Z AUTO 36015KT 10SM CLR M17/M22 A3030 RMK AO2 SLP291 T11721222 PWINO FZRANO
ATY,2020-02-12 22:53,-97.1547,44.9140,525.88,-9.00,-15.00,74.16,340.00,20.00,0.00,30.15,1025.10,2.50,M,FEW,M,M,M,1000.00,M,M,M,HZ,M,M,M,32.00,340.00,2020-02-12 21:57,-35.32,KATY 122253Z AUTO 34020KT 2 1/2SM HZ FEW010 M23/M26 A3015 RMK AO2 PK WND 34032/2157 SLP251 T12281261 $
YKN,2020-02-12 22:54,-97.3859,42.9167,389.54,3.20,-2.20,77.67,320.00,29.00,T,30.15,M,8.00,36.00,OVC,M,M,M,800.00,M,M,M,M,M,M,M,41.00,340.00,2020-02-12 22:04,-22.59,KYKN 122254Z AUTO 32029G36KT 8SM OVC008 M16/M19 A3015 RMK AO2 PK WND 34041/2204 SNE28 CIG 006V011 PRESRR P0000 FZRANO
MDS,2020-02-12 22:55,-97.0859,44.0160,520.80,-4.00,-5.80,91.71,350.00,26.00,0.01,30.12,M,2.50,29.00,CLR,M,M,M,M,M,M,M,-RA,M,M,M,M,M,M,-31.33,KMDS 122255Z AUTO 35026G29KT 2 1/2SM -RA CLR M20/M21 A3012 RMK AO2 P0001
PHP,2020-02-12 22:55,-101.6000,44.0500,671.74,10.90,3.00,69.89,20.00,12.00,0.00,30.25,1027.50,10.00,20.00,OVC,M,M,M,3400.00,M,M,M,M,M,M,M,M,M,M,-4.85,KPHP 122255Z AUTO 02012G20KT 10SM OVC034 M12/M16 A3025 RMK AO2 SLP275 T11171161
9V9,2020-02-12 22:55,-99.3183,43.7667,509.76,4.10,-3.80,69.05,340.00,18.00,0.00,30.26,M,10.00,25.00,BKN,M,M,M,1400.00,M,M,M,M,M,M,M,M,M,M,-16.98,K9V9 122255Z AUTO 34018G25KT 10SM BKN014 M15/M20 A3026 RMK AO2 T11551199
HON,2020-02-12 22:55,-98.2286,44.3852,384.37,-4.00,-9.00,78.48,350.00,24.00,T,30.27,1027.80,0.75,31.00,VV ,M,M,M,900.00,M,M,M,HZ,M,M,M,34.00,360.00,2020-02-12 22:26,-30.51,KHON 122255Z AUTO 35024G31KT 3/4SM HZ VV009 M20/M23 A3027 RMK AO2 PK WND 36034/2226 UPB35E44 SLP278 P0000 T12001228
SPF,2020-02-12 22:55,-103.7830,44.4803,1186.17,14.00,10.40,85.28,330.00,11.00,0.00,30.14,M,2.00,M,M,M,M,M,M,M,M,M,-SN,M,M,M,M,M,M,-0.28,KSPF 122255Z AUTO 33011KT 2SM -SN M10/M12 A3014 RMK AO2
2WX,2020-02-12 22:56,-103.5464,45.6044,919.07,6.10,-4.00,62.41,330.00,13.00,0.00,30.21,1028.10,M,M,M,M,M,M,M,M,M,M,M,M,M,M,M,M,M,-11.61,K2WX 122256Z AUTO 33013KT M14/M20 A3021 RMK AO1 SLP281 T11441200
8D3,2020-02-12 22:56,-96.9914,45.6689,351.81,-9.00,-18.90,60.77,350.00,25.00,0.00,30.27,1029.10,M,35.00,M,M,M,M,M,M,M,M,M,M,M,M,35.00,340.00,2020-02-12 22:20,-37.70,K8D3 122256Z AUTO 35025G35KT M23/M28 A3027 RMK AO1 PK WND 34035/2220 SLP291 T12281283
D07,2020-02-12 22:56,-102.0200,45.0300,778.50,3.90,-7.10,59.44,10.00,15.00,0.00,30.23,1028.70,M,M,M,M,M,M,M,M,M,M,M,M,M,M,M,M,M,-15.65,KD07 122256Z AUTO 01015KT M16/M22 A3023 RMK AO1 SLP287 T11561217
FSD,2020-02-12 22:56,-96.7536,43.5769,428.94,1.90,-6.00,68.77,350.00,19.00,0.00,30.12,1022.60,10.00,27.00,FEW,BKN,M,M,11000.00,15000.00,M,M,M,M,M,M,30.00,360.00,2020-02-12 22:08,-20.37,KFSD 122256Z 35019G27KT 10SM FEW110 BKN150 M17/M21 A3012 RMK AO2 PK WND 36030/2208 SLP226 T11671211
BKX,2020-02-12 22:56,-96.8169,44.3048,490.28,-5.10,-11.90,71.69,340.00,21.00,0.00,30.12,1024.60,4.00,26.00,CLR,M,M,M,M,M,M,M,HZ,M,M,M,26.00,330.00,2020-02-12 22:55,-30.63,KBKX 122256Z AUTO 34021G26KT 4SM HZ CLR M21/M24 A3012 RMK AO2 PK WND 33026/2255 SLP246 T12061244 FZRANO
RCA,2020-02-12 22:56,-103.1036,44.1451,977.43,14.40,9.30,79.78,20.00,7.00,T,30.16,1025.90,1.38,M,SCT,OVC,M,M,300.00,1600.00,M,M,-SN,M,M,M,M,M,M,3.33,KRCA 122256Z AUTO 02007KT 1 3/8SM -SN SCT003 OVC016 M10/M13 A3016 RMK AO2 CIG 003V016 CIG 002 RWY13 SLP259 P0000 T10981126 $
YKN,2020-02-12 22:56,-97.3859,42.9167,389.54,3.00,-2.90,75.82,320.00,26.00,T,30.16,1024.90,8.00,36.00,OVC,M,M,M,800.00,M,M,M,M,M,M,M,41.00,340.00,2020-02-12 22:04,-21.82,KYKN 122256Z AUTO 32026G36KT 8SM OVC008 M16/M19 A3016 RMK AO2 PK WND 34041/2204 SNE28 CIG 006V011 PRESRR SLP249 P0000 T11611194 FZRANO
HON,2020-02-12 23:00,-98.2286,44.3852,384.37,-5.10,-9.90,79.16,350.00,19.00,0.00,30.27,M,1.00,31.00,VV ,M,M,M,1000.00,M,M,M,HZ,M,M,M,31.00,350.00,2020-02-12 22:56,-29.62,KHON 122300Z AUTO 35019G31KT 1SM HZ VV010 M21/M23 A3027 RMK AO2 PK WND 35031/2256 T12061233
RCA,2020-02-12 23:01,-103.1036,44.1451,977.43,14.00,8.60,78.68,40.00,8.00,0.00,30.16,1025.90,0.50,M,BKN,OVC,M,M,300.00,1600.00,M,M,SN,M,M,M,M,M,M,1.94,KRCA 122301Z 04008KT 1/2SM SN BKN003 OVC016 M10/M13 A3016 RMK AO2A CIG 003V016 BKN V SCT CIG 002 RWY13 SLP259 $
ATY,2020-02-12 23:02,-97.1547,44.9140,525.88,-9.00,-15.00,74.16,340.00,25.00,0.00,30.16,M,3.00,31.00,FEW,M,M,M,1000.00,M,M,M,HZ,M,M,M,31.00,340.00,2020-02-12 23:02,-37.70,KATY 122302Z AUTO 34025G31KT 3SM HZ FEW010 M23/M26 A3016 RMK AO2 PK WND 34031/2302 T12281261 $
HON,2020-02-12 23:08,-98.2286,44.3852,384.37,-5.10,-11.00,74.97,350.00,22.00,0.00,30.28,M,1.75,31.00,SCT,M,M,M,1000.00,M,M,M,HZ,M,M,M,31.00,350.00,2020-02-12 23:02,-31.10,KHON 122308Z AUTO 35022G31KT 1 3/4SM HZ SCT010 M21/M24 A3028 RMK AO2 PK WND 35031/2302 T12061239
IEN,2020-02-12 23:09,-102.5110,43.0225,1008.84,18.00,10.00,70.41,20.00,13.00,T,30.13,M,2.50,M,OVC,M,M,M,2100.00,M,M,M,-SN,M,M,M,M,M,M,3.63,KIEN 122309Z AUTO 02013KT 2 1/2SM -SN OVC021 M08/M12 A3013 RMK AO2 P0000 T10781122
YKN,2020-02-12 23:10,-97.3859,42.9167,389.54,1.40,-4.00,77.49,330.00,28.00,0.00,30.15,M,10.00,36.00,OVC,M,M,M,1000.00,M,M,M,M,M,M,M,36.00,320.00,2020-02-12 23:04,-24.72,KYKN 122310Z AUTO 33028G36KT 10SM OVC010 M17/M20 A3015 RMK AO2 PK WND 32036/2304 CIG 007V011 FZRANO
RCA,2020-02-12 23:11,-103.1036,44.1451,977.43,14.00,8.60,78.68,20.00,13.00,0.00,30.16,1025.90,1.25,M,BKN,OVC,M,M,300.00,1600.00,M,M,BLSN,M,M,M,M,M,M,-1.49,KRCA 122311Z 02013KT 1 1/4SM BLSN BKN003 OVC016 M10/M13 A3016 RMK AO2A VIS 3/4 RWY13 CIG 002 RWY13 SLP259 $
ATY,2020-02-12 23:12,-97.1547,44.9140,525.88,-9.00,-15.00,74.16,340.00,24.00,0.00,30.16,M,2.00,M,CLR,M,M,M,M,M,M,M,HZ,M,M,M,31.00,340.00,2020-02-12 23:02,-37.25,KATY 122312Z AUTO 34024KT 2SM HZ CLR M23/M26 A3016 RMK AO2 PK WND 34031/2302 T12281261 $
RAP,2020-02-12 23:14,-103.0574,44.0453,964.71,14.00,9.00,80.10,40.00,7.00,T,30.17,M,0.75,M,VV ,M,M,M,1400.00,M,M,M,-SN,M,M,M,M,M,M,2.84,KRAP 122314Z 04007KT 3/4SM -SN VV014 M10/M13 A3017 RMK AO2 P0000 T11001128 RVRNO
MDS,2020-02-12 23:15,-97.0859,44.0160,520.80,-4.00,-7.60,84.04,350.00,19.00,0.00,30.14,M,3.00,27.00,CLR,M,M,M,M,M,M,M,-RA,M,M,M,M,M,M,-28.17,KMDS 122315Z AUTO 35019G27KT 3SM -RA CLR M20/M22 A3014 RMK AO2
9V9,2020-02-12 23:15,-99.3183,43.7667,509.76,2.70,-5.40,68.21,350.00,13.00,0.00,30.27,M,10.00,21.00,SCT,SCT,M,M,1600.00,2100.00,M,M,M,M,M,M,M,M,M,-15.97,K9V9 122315Z AUTO 35013G21KT 10SM SCT016 SCT021 M16/M21 A3027 RMK AO2 T11631208
SPF,2020-02-12 23:15,-103.7830,44.4803,1186.17,14.00,8.60,78.68,360.00,9.00,0.00,30.14,M,1.25,M,M,M,M,M,M,M,M,M,-SN,M,M,M,M,M,M,1.13,KSPF 122315Z AUTO 36009KT 1 1/4SM -SN M10/M13 A3014 RMK AO2
HON,2020-02-12 23:16,-98.2286,44.3852,384.37,-5.10,-11.00,74.97,340.00,22.00,0.00,30.28,M,2.00,M,SCT,M,M,M,1000.00,M,M,M,HZ,M,M,M,31.00,350.00,2020-02-12 23:02,-31.10,KHON 122316Z AUTO 34022KT 2SM HZ SCT010 M21/M24 A3028 RMK AO2 PK WND 35031/2302 T12061239
RCA,2020-02-12 23:16,-103.1036,44.1451,977.43,12.20,6.80,78.51,10.00,12.00,0.00,30.17,1026.60,1.00,M,SCT,OVC,M,M,300.00,1600.00,M,M,BLSN,M,M,M,M,M,M,-3.20,KRCA 122316Z 01012KT 1SM BLSN SCT003 OVC016 M11/M14 A3017 RMK AO2A VIS 1V1 1/2 CIG 003V016 CIG 002 RWY13 SLP266 RVRNO $
IEN,2020-02-12 23:18,-102.5110,43.0225,1008.84,18.00,10.00,70.41,20.00,10.00,T,30.14,M,4.00,M,BKN,OVC,M,M,2100.00,6000.00,M,M,-SN,M,M,M,M,M,M,5.41,KIEN 122318Z AUTO 02010KT 4SM -SN BKN021 OVC060 M08/M12 A3014 RMK AO2 P0000 T10781122
HON,2020-02-12 23:21,-98.2286,44.3852,384.37,-5.10,-9.90,79.16,350.00,20.00,0.00,30.28,M,1.75,28.00,BKN,M,M,M,1000.00,M,M,M,HZ,M,M,M,31.00,350.00,2020-02-12 23:02,-30.14,KHON 122321Z AUTO 35020G28KT 1 3/4SM HZ BKN010 M21/M23 A3028 RMK AO2 PK WND 35031/2302 T12061233
RCA,2020-02-12 23:21,-103.1036,44.1451,977.43,12.20,6.80,78.51,10.00,11.00,0.00,30.17,1026.60,1.62,M,BKN,BKN,OVC,M,200.00,700.00,1500.00,M,BLSN,M,M,M,M,M,M,-2.56,KRCA 122321Z 01011KT 1 5/8SM BLSN BKN002 BKN007 OVC015 M11/M14 A3017 RMK AO2A VIS 1V1 5/8 CIG 002V016 SLP266 $
MHE,2020-02-12 23:24,-98.0386,43.7748,395.73,-2.00,-9.00,71.35,350.00,20.00,0.00,30.27,M,2.50,29.00,BKN,M,M,M,1200.00,M,M,M,HZ,M,M,M,33.00,350.00,2020-02-12 23:06,-26.02,KMHE 122324Z AUTO 35020G29KT 2 1/2SM HZ BKN012 M19/M23 A3027 RMK AO2 PK WND 35033/2306 VIS 1 1/2V5 T11891228
RCA,2020-02-12 23:26,-103.1036,44.1451,977.43,12.20,6.80,78.51,10.00,9.00,0.00,30.17,1026.60,2.50,M,BKN,OVC,M,M,200.00,1500.00,M,M,BLSN,M,M,M,M,M,M,-1.11,KRCA 122326Z 01009KT 2 1/2SM BLSN BKN002 OVC015 M11/M14 A3017 RMK AO2A VIS 1 1/8V2 1/2 CIG 002V016 SLP266 $
RAP,2020-02-12 23:28,-103.0574,44.0453,964.71,12.90,8.10,80.74,30.00,12.00,T,30.18,M,2.00,M,FEW,BKN,OVC,M,1000.00,1600.00,2800.00,M,-SN,M,M,M,M,M,M,-2.31,KRAP 122328Z 03012KT 2SM -SN FEW010 BKN016 OVC028 M11/M13 A3018 RMK AO2 P0000 T11061133
RCA,2020-02-12 23:31,-103.1036,44.1451,977.43,12.20,6.80,78.51,20.00,6.00,0.00,30.18,1026.90,1.00,M,BKN,OVC,M,M,200.00,1500.00,M,M,-SN,M,M,M,M,M,M,1.68,KRCA 122331Z 02006KT 1SM -SN BKN002 OVC015 M11/M14 A3018 RMK AO2A SLP269 $
RAP,2020-02-12 23:32,-103.0574,44.0453,964.71,12.00,8.10,84.01,30.00,14.00,T,30.18,M,1.75,M,BKN,BKN,OVC,M,1400.00,2000.00,2800.00,M,-SN BR,M,M,M,M,M,M,-4.62,KRAP 122332Z 03014KT 1 3/4SM -SN BR BKN014 BKN020 OVC028 M11/M13 A3018 RMK AO2 P0000 T11111133
IEN,2020-02-12 23:33,-102.5110,43.0225,1008.84,18.00,10.00,70.41,40.00,7.00,T,30.13,M,10.00,M,FEW,SCT,BKN,M,1800.00,3100.00,5500.00,M,M,M,M,M,M,M,M,7.71,KIEN 122333Z AUTO 04007KT 10SM FEW018 SCT031 BKN055 M08/M12 A3013 RMK AO2 SNE25 P0000 T10781122
9V9,2020-02-12 23:35,-99.3183,43.7667,509.76,2.30,-5.80,68.16,360.00,15.00,0.00,30.27,M,7.00,20.00,BKN,BKN,M,M,1400.00,2100.00,M,M,M,M,M,M,M,M,M,-17.72,K9V9 122335Z AUTO 36015G20KT 7SM BKN014 BKN021 M16/M21 A3027 RMK AO2 T11651210
SPF,2020-02-12 23:35,-103.7830,44.4803,1186.17,12.20,8.60,85.17,30.00,8.00,0.00,30.15,M,0.25,M,M,M,M,M,M,M,M,M,-SN,M,M,M,M,M,M,-0.28,KSPF 122335Z AUTO 03008KT M1/4SM -SN M11/M13 A3015 RMK AO2
MHE,2020-02-12 23:36,-98.0386,43.7748,395.73,-2.90,-9.90,71.25,350.00,21.00,0.00,30.28,M,3.00,34.00,SCT,M,M,M,1200.00,M,M,M,HZ,M,M,M,34.00,350.00,2020-02-12 23:27,-27.69,KMHE 122336Z AUTO 35021G34KT 3SM HZ SCT012 M19/M23 A3028 RMK AO2 PK WND 35034/2327 T11941233
HON,2020-02-12 23:36,-98.2286,44.3852,384.37,-5.80,-11.20,76.77,350.00,20.00,0.00,30.29,M,2.00,28.00,SCT,M,M,M,1000.00,M,M,M,HZ,M,M,M,M,M,M,-31.07,KHON 122336Z AUTO 35020G28KT 2SM HZ SCT010 M21/M24 A3029
RCA,2020-02-12 23:36,-103.1036,44.1451,977.43,12.20,6.80,78.51,20.00,8.00,0.00,30.18,1026.90,3.00,M,BKN,OVC,M,M,200.00,1400.00,M,M,-SN,M,M,M,M,M,M,-0.28,KRCA 122336Z 02008KT 3SM -SN BKN002 OVC014 M11/M14 A3018 RMK AO2A SLP269 $
RCA,2020-02-12 23:41,-103.1036,44.1451,977.43,12.20,6.80,78.51,30.00,9.00,0.00,30.17,1026.60,5.00,M,OVC,M,M,M,400.00,M,M,M,-SN,M,M,M,M,M,M,-1.11,KRCA 122341Z 03009KT 5SM -SN OVC004 M11/M14 A3017 RMK AO2A CIG 002V004 CIG 003 RWY13 SLP266 $
MHE,2020-02-12 23:43,-98.0386,43.7748,395.73,-2.90,-9.90,71.25,350.00,20.00,0.00,30.28,M,5.00,M,BKN,M,M,M,1200.00,M,M,M,HZ,M,M,M,34.00,350.00,2020-02-12 23:27,-27.22,KMHE 122343Z AUTO 35020KT 5SM HZ BKN012 M19/M23 A3028 RMK AO2 PK WND 35034/2327 T11941233
HON,2020-02-12 23:45,-98.2286,44.3852,384.37,-6.00,-11.90,74.87,350.00,19.00,0.00,30.29,M,4.00,28.00,SCT,M,M,M,1000.00,M,M,M,HZ,M,M,M,32.00,350.00,2020-02-12 23:25,-30.81,KHON 122345Z AUTO 35019G28KT 4SM HZ SCT010 M21/M24 A3029 RMK AO2 PK WND 35032/2325 T12111244
ATY,2020-02-12 23:51,-97.1547,44.9140,525.88,-9.40,-16.60,69.73,340.00,20.00,0.00,30.17,M,5.00,M,CLR,M,M,M,M,M,M,M,HZ,M,M,M,31.00,340.00,2020-02-12 23:02,-35.85,KATY 122351Z AUTO 34020KT 5SM HZ CLR M23/M27 A3017 RMK AO2 PK WND 34031/2302 $
RAP,2020-02-12 23:52,-103.0574,44.0453,964.71,10.90,6.10,80.57,40.00,11.00,T,30.18,1026.90,2.00,M,FEW,OVC,M,M,1400.00,3000.00,M,M,-SN,M,M,M,M,M,M,-4.20,KRAP 122352Z 04011KT 2SM -SN FEW014 OVC030 M12/M14 A3018 RMK AO2 SLP269 P0000 60001 T11171144 11083 21117 53008
IEN,2020-02-12 23:52,-102.5110,43.0225,1008.84,17.10,8.10,67.22,20.00,5.00,T,30.14,1024.60,10.00,M,BKN,M,M,M,5000.00,M,M,M,M,M,M,M,M,M,M,8.70,KIEN 122352Z AUTO 02005KT 10SM BKN050 M08/M13 A3014 RMK AO2 SNE25 SLP246 P0000 60000 T10831133 11050 21083 51009
MBG,2020-02-12 23:52,-100.4078,45.5464,515.17,0.00,-11.00,58.84,350.00,11.00,0.00,30.30,1029.80,10.00,M,CLR,M,M,M,M,M,M,M,M,M,M,M,M,M,M,-17.97,KMBG 122352Z AUTO 35011KT 10SM CLR M18/M24 A3030 RMK AO2 SLP298 T11781239 11156 21178 51007
CUT,2020-02-12 23:53,-103.6114,43.7331,1686.81,14.00,1.90,57.91,M,6.00,0.00,29.98,1020.70,10.00,M,SCT,OVC,M,M,3400.00,4500.00,M,M,M,M,M,M,M,M,M,3.85,KCUT 122353Z AUTO VRB06KT 10SM SCT034 OVC045 M10/M17 A2998 RMK AO2 SLP207 60001 T11001167 11067 21100 53007
ICR,2020-02-12 23:53,-99.8422,43.3903,611.93,3.00,-7.10,61.96,340.00,18.00,0.00,30.26,1027.90,10.00,26.00,CLR,M,M,M,M,M,M,M,M,M,M,M,28.00,350.00,2020-02-12 23:05,-18.43,KICR 122353Z AUTO 34018G26KT 10SM CLR M16/M22 A3026 RMK AO2 PK WND 35028/2305 SLP279 60000 T11611217 11089 21161 53019
MHE,2020-02-12 23:53,-98.0386,43.7748,395.73,-2.90,-11.00,67.48,350.00,18.00,0.00,30.28,1027.90,5.00,M,SCT,M,M,M,1200.00,M,M,M,HZ,M,M,M,34.00,350.00,2020-02-12 23:27,-26.19,KMHE 122353Z AUTO 35018KT 5SM HZ SCT012 M19/M24 A3028 RMK AO2 PK WND 35034/2327 SLP279 60000 T11941239 11122 21194 53027
ABR,2020-02-12 23:53,-98.4200,45.4500,395.00,-6.00,-16.10,60.61,350.00,18.00,T,30.34,1030.30,10.00,M,CLR,M,M,M,M,M,M,M,UP,M,M,M,29.00,10.00,2020-02-12 23:02,-30.27,KABR 122353Z AUTO 35018KT 10SM UP CLR M21/M27 A3034 RMK AO2 PK WND 01029/2302 SLP303 P0000 60000 T12111267 11178 21211 51018 $
PIR,2020-02-12 23:53,-100.2860,44.3827,522.03,-2.00,-9.90,68.27,360.00,9.00,0.00,30.30,1029.40,10.00,M,CLR,M,M,M,M,M,M,M,M,M,M,M,M,M,M,-18.76,KPIR 122353Z AUTO 36009KT 10SM CLR M19/M23 A3030 RMK AO2 SLP294 T11891233 11144 21189 51009 PWINO FZRANO
ATY,2020-02-12 23:53,-97.1547,44.9140,525.88,-9.90,-16.10,73.31,340.00,20.00,0.00,30.18,1025.90,6.00,M,CLR,M,M,M,M,M,M,M,HZ,M,M,M,31.00,340.00,2020-02-12 23:02,-36.51,KATY 122353Z AUTO 34020KT 6SM HZ CLR M23/M27 A3018 RMK AO2 PK WND 34031/2302 SLP259 60000 T12331267 11189 21233 51017 $
MDS,2020-02-12 23:55,-97.0859,44.0160,520.80,-7.60,-9.40,91.57,350.00,20.00,0.00,30.16,M,9.00,M,CLR,M,M,M,M,M,M,M,M,M,M,M,M,M,M,-33.46,KMDS 122355Z AUTO 35020KT 9SM CLR M22/M23 A3016 RMK AO2
PHP,2020-02-12 23:55,-101.6000,44.0500,671.74,7.00,0.00,72.41,10.00,9.00,0.00,30.27,1028.10,10.00,M,FEW,M,M,M,3300.00,M,M,M,M,M,M,M,M,M,M,-7.57,KPHP 122355Z AUTO 01009KT 10SM FEW033 M14/M18 A3027 RMK AO2 SLP281 60000 T11391178 11094 21139 53012
9V9,2020-02-12 23:55,-99.3183,43.7667,509.76,1.40,-5.30,72.80,350.00,15.00,0.00,30.29,M,7.00,23.00,BKN,M,M,M,1400.00,M,M,M,M,M,M,M,M,M,M,-18.89,K9V9 122355Z AUTO 35015G23KT 7SM BKN014 M17/M21 A3029 RMK AO2 T11701207 11104 21170
HON,2020-02-12 23:55,-98.2286,44.3852,384.37,-6.00,-13.00,70.87,350.00,22.00,0.00,30.30,1028.90,2.50,28.00,FEW,M,M,M,1000.00,M,M,M,HZ,M,M,M,32.00,350.00,2020-02-12 23:25,-32.31,KHON 122355Z AUTO 35022G28KT 2 1/2SM HZ FEW010 M21/M25 A3030 RMK AO2 PK WND 35032/2325 VIS 1 1/2V4 SLP289 60000 T12111250 11150 21211 53013
SPF,2020-02-12 23:55,-103.7830,44.4803,1186.17,10.40,6.80,85.05,20.00,7.00,0.00,30.15,M,0.25,M,M,M,M,M,M,M,M,M,-SN,M,M,M,M,M,M,-1.55,KSPF 122355Z AUTO 02007KT 1/4SM -SN M12/M14 A3015 RMK AO2 VIS M1/4V2
2WX,2020-02-12 23:56,-103.5464,45.6044,919.07,3.00,-6.00,65.35,320.00,13.00,0.00,30.21,1028.80,M,M,M,M,M,M,M,M,M,M,M,M,M,M,M,M,M,-15.58,K2WX 122356Z AUTO 32013KT M16/M21 A3021 RMK AO1 SLP288 T11611211 11094 21161 53006
8D3,2020-02-12 23:56,-96.9914,45.6689,351.81,-9.90,-18.90,63.51,340.00,23.00,0.00,30.28,1030.30,M,31.00,M,M,M,M,M,M,M,M,M,M,M,M,34.00,340.00,2020-02-12 23:11,-38.01,K8D3 122356Z AUTO 34023G31KT M23/M28 A3028 RMK AO1 PK WND 34034/2311 SLP303 T12331283 11206 21233 51020
D07,2020-02-12 23:56,-102.0200,45.0300,778.50,-0.90,-9.00,67.74,20.00,11.00,0.00,30.25,1029.90,M,M,M,M,M,M,M,M,M,M,M,M,M,M,M,M,M,-19.11,KD07 122356Z AUTO 02011KT M18/M23 A3025 RMK AO1 SLP299 T11831228 11128 21183 53010
FSD,2020-02-12 23:56,-96.7536,43.5769,428.94,-0.90,-9.90,64.81,340.00,24.00,0.00,30.15,1023.70,10.00,33.00,OVC,M,M,M,25000.00,M,M,M,M,M,M,M,35.00,340.00,2020-02-12 23:14,-26.33,KFSD 122356Z 34024G33KT 10SM OVC250 M18/M23 A3015 RMK AO2 PK WND 34035/2314 SLP237 60000 T11831233 11089 21183 51040
BKX,2020-02-12 23:56,-96.8169,44.3048,490.28,-8.00,-15.00,70.62,340.00,16.00,0.00,30.16,1026.20,7.00,M,CLR,M,M,M,M,M,M,M,M,M,M,M,29.00,350.00,2020-02-12 23:25,-31.72,KBKX 122356Z AUTO 34016KT 7SM CLR M22/M26 A3016 RMK AO2 PK WND 35029/2325 SLP262 6//// T12221261 11150 21222 53036 FZRANO
RCA,2020-02-12 23:56,-103.1036,44.1451,977.43,11.30,5.70,77.72,20.00,7.00,T,30.18,1027.20,0.75,M,BKN,OVC,M,M,300.00,1100.00,M,M,-SN,M,M,M,M,M,M,-0.45,KRCA 122356Z 02007KT 3/4SM -SN BKN003 OVC011 M11/M15 A3018 RMK AO2A VIS 2 1/2 RWY13 SLP272 P0000 60015 4/002 T11151146 11083 21115 53008 $
YKN,2020-02-12 23:56,-97.3859,42.9167,389.54,-0.90,-7.10,74.33,320.00,27.00,0.00,30.20,1026.50,7.00,30.00,BKN,M,M,M,1000.00,M,M,M,M,M,M,M,36.00,320.00,2020-02-12 23:30,-27.50,KYKN 122356Z AUTO 32027G30KT 7SM BKN010 M18/M22 A3020 RMK AO2 PK WND 32036/2330 CIG 007V012 SLP265 60000 T11831217 10006 21183 51031 FZRANO